NLLOC "/home/sysop/seiscomp/share/nll/data/output/NLL.20240822050325.979071.24685.20211110.025022.grid0" "LOCATED" "Location completed."
PUBLIC_ID None
SIGNATURE "Anthony Lomax   obs:-   NLLoc:v7.00.13(17Jan2022)   run:22Aug2024 12h03m26"
COMMENT "BMKG events"
GRID  361 181 601  -180 -90 0  1 1 1 PROB_DENSITY
SEARCH OCTREE nInitial 17628 nEvaluated 50004 smallestNodeSide 0.411495/0.407209/0.097656 oct_tree_integral 3.108425e+02 scatter_volume 3.108425e+02
HYPOCENTER  x 105.948 y -7.59705 z 19.9707  OT 9.78048  ix -1 iy -1 iz -1 MAXIMUM_LIKELIHOOD
GEOGRAPHIC  OT 2021 11 10  02 50 9.780484  Lat -7.597046 Long 105.947985 Depth 19.970703
QUALITY  Pmax 6.58998e+91 MFmin 28.6189 MFmax 28.6716 RMS 0.550363 Nphs 35 Gap 251.138 Dist 0.627704 Mamp -9.90 0 Mdur -9.90 0
VPVSRATIO  VpVsRatio 1.75003  Npair 15  Diff 18.319
STATISTICS  ExpectX 105.956439 Y -7.581089 Z 24.062180  CovXX 4.94902 XY 1.82914 XZ 1.5176 YY 8.8871 YZ 8.0054 ZZ 32.5183 EllAz1  298.907 Dip1  -5.10881 Len1  3.80155 Az2  210.456 Dip2  16.8253 Len2  5.02542 Len3  1.113213e+01
STAT_GEOG  ExpectLat -7.581089 Long 105.956439 Depth 24.062180
TRANSFORM  GLOBAL
QML_OriginQuality  assocPhCt 83  usedPhCt 35  assocStaCt -1  usedStaCt 22  depthPhCt -1  stdErr 0.550363  azGap 251.138  secAzGap 260.43  gtLevel -  minDist 69.7976 maxDist 224.632 medDist 155.715
QML_OriginUncertainty  horUnc -1  minHorUnc 3.11933  maxHorUnc 4.70031  azMaxHorUnc 21.4452
QML_ConfidenceEllipsoid  semiMajorAxisLength 11.1321  semiMinorAxisLength 3.80155  semiIntermediateAxisLength 5.02542  majorAxisPlunge 72.3716  majorAxisAzimuth 12.5662  majorAxisRotation 159.356
FOCALMECH  Hyp  -7.597046 105.947985 19.970703 Mech  0 0 0 mf  0 nObs -1
PHASE ID Ins Cmp On Pha  FM Date     HrMn   Sec     Err  ErrMag    Coda      Amp       Per  >   TTpred    Res       Weight    StaLoc(X  Y         Z)        SDist    SAzim  RAz  RDip RQual    Tcorr 
IA_CSJ ?    Z    ? P      ? 20211110 0250   22.4004 GAU  1.00e-01 -1.00e+00 -1.00e+00 -1.00e+00 >   12.2718    0.3481    1.1825  106.5210   -7.3302   -0.1530    0.6277  64.88  -1.0  -1.0  0     0.0000
IA_CSJ ?    R    ? S      ? 20211110 0250   31.2206 GAU  1.00e-01 -1.00e+00 -1.00e+00 -1.00e+00 >   21.2162    0.2239    1.2466  106.5210   -7.3302   -0.1530    0.6277  64.88  -1.0  -1.0  0     0.0000
IA_WLJ ?    Z    ? P      ? 20211110 0250   24.6990 GAU  1.00e-01 -1.00e+00 -1.00e+00 -1.00e+00 >   14.6659    0.2526    1.2337  105.8909   -6.8311   -0.0460    0.7680 355.77  -1.0  -1.0  0     0.0000
IA_WLJ ?    R    ? S      ? 20211110 0250   35.1262 GAU  1.00e-01 -1.00e+00 -1.00e+00 -1.00e+00 >   25.3661   -0.0204    1.3063  105.8909   -6.8311   -0.0460    0.7680 355.77  -1.0  -1.0  0     0.0000
IA_SKJ ?    Z    ? P      ? 20211110 0250   25.5722 GAU  1.00e-01 -1.00e+00 -1.00e+00 -1.00e+00 >   15.9804   -0.1887    1.2920  106.5563   -7.0053   -0.1003    0.8451  45.60  -1.0  -1.0  0     0.0000
IA_SKJ ?    R    ? S      ? 20211110 0250   37.5230 GAU  1.00e-01 -1.00e+00 -1.00e+00 -1.00e+00 >   27.6447    0.0978    1.2892  106.5563   -7.0053   -0.1003    0.8451  45.60  -1.0  -1.0  0     0.0000
IA_PSJ ?    Z    ? P      ? 20211110 0250   25.9956 GAU  1.00e-01 -1.00e+00 -1.00e+00 -1.00e+00 >   16.3414   -0.1262    1.3025  106.5491   -6.9686   -0.2050    0.8663  43.53  -1.0  -1.0  0     0.0000
IA_PSJ ?    R    ? S      ? 20211110 0250   38.4226 GAU  1.00e-01 -1.00e+00 -1.00e+00 -1.00e+00 >   28.2703    0.3719    1.1680  106.5491   -6.9686   -0.2050    0.8663  43.53  -1.0  -1.0  0     0.0000
IA_WSJ ?    Z    ? P      ? 20211110 0250   27.9406 GAU  1.00e-01 -1.00e+00 -1.00e+00 -1.00e+00 >   18.4577   -0.2975    1.2600  106.7247   -6.9747   -0.3100    0.9904  51.12  -1.0  -1.0  0     0.0000
IA_WSJ ?    R    ? S      ? 20211110 0250   40.9389 GAU  1.00e-01 -1.00e+00 -1.00e+00 -1.00e+00 >   31.9385   -0.7801    0.9656  106.7247   -6.9747   -0.3100    0.9904  51.12  -1.0  -1.0  0     0.0000
IA_JTJ ?    Z    ? P      ? 20211110 0250   28.1174 GAU  1.00e-01 -1.00e+00 -1.00e+00 -1.00e+00 >   18.6864   -0.3495    1.2390  106.8015   -7.0573   -0.5280    1.0040  57.53  -1.0  -1.0  0     0.0000
IA_JTJ ?    R    ? S      ? 20211110 0250   41.3062 GAU  1.00e-01 -1.00e+00 -1.00e+00 -1.00e+00 >   32.3400   -0.8143    0.9393  106.8015   -7.0573   -0.5280    1.0040  57.53  -1.0  -1.0  0     0.0000
IA_CGJ ?    Z    ? P      ? 20211110 0250   27.8817 GAU  1.00e-01 -1.00e+00 -1.00e+00 -1.00e+00 >   18.8894   -0.7882    0.9594  105.6900   -6.6134   -0.1820    1.0164 345.40  -1.0  -1.0  0     0.0000
IA_CGJ ?    R    ? S      ? 20211110 0250   39.2611 GAU  1.00e-01 -1.00e+00 -1.00e+00 -1.00e+00 >   32.7078   -3.2272    0.0159  105.6900   -6.6134   -0.1820    1.0164 345.40  -1.0  -1.0  0     0.0000
IA_CNJ ?    Z    ? P      ? 20211110 0250   30.8286 GAU  1.00e-01 -1.00e+00 -1.00e+00 -1.00e+00 >   21.7188   -0.6707    1.0469  107.1296   -7.3090   -0.5890    1.2065  76.26  -1.0  -1.0  0     0.0000
IA_CNJ ?    R    ? S      ? 20211110 0250   46.5885 GAU  1.00e-01 -1.00e+00 -1.00e+00 -1.00e+00 >   38.1654   -1.3574    0.5324  107.1296   -7.3090   -0.5890    1.2065  76.26  -1.0  -1.0  0     0.0000
IA_SSJ ?    Z    ? P      ? 20211110 0250   31.3591 GAU  1.00e-01 -1.00e+00 -1.00e+00 -1.00e+00 >   22.0644   -0.4858    1.1689  106.9626   -6.8872   -0.8410    1.2316  54.87  -1.0  -1.0  0     0.0000
IA_SSJ ?    R    ? S      ? 20211110 0250   49.1663 GAU  1.00e-01 -1.00e+00 -1.00e+00 -1.00e+00 >   38.7871    0.5987    1.0015  106.9626   -6.8872   -0.8410    1.2316  54.87  -1.0  -1.0  0     0.0000
IA_CCJ ?    Z    ? P      ? 20211110 0250   32.9472 GAU  1.00e-01 -1.00e+00 -1.00e+00 -1.00e+00 >   23.2405   -0.0737    1.3066  107.1402   -7.0169   -0.0480    1.3172  63.94  -1.0  -1.0  0     0.0000
IA_CCJ ?    R    ? S      ? 20211110 0250   49.4212 GAU  1.00e-01 -1.00e+00 -1.00e+00 -1.00e+00 >   40.9027   -1.2619    0.5983  107.1402   -7.0169   -0.0480    1.3172  63.94  -1.0  -1.0  0     0.0000
IA_CBJ ?    Z    ? P      ? 20211110 0250   33.3635 GAU  1.00e-01 -1.00e+00 -1.00e+00 -1.00e+00 >   23.4073    0.1757    1.2658  106.9349   -6.6981   -1.0064    1.3293  47.51  -1.0  -1.0  0     0.0000
IA_CBJ ?    T    ? S      ? 20211110 0250   49.0757 GAU  1.00e-01 -1.00e+00 -1.00e+00 -1.00e+00 >   41.2028   -1.9076    0.2366  106.9349   -6.6981   -1.0064    1.3293  47.51  -1.0  -1.0  0     0.0000
IA_SCJ ?    Z    ? P      ? 20211110 0250   35.2491 GAU  1.00e-01 -1.00e+00 -1.00e+00 -1.00e+00 >   25.3629    0.1057    1.2872  107.2221   -6.8437   -0.3270    1.4715  59.29  -1.0  -1.0  0     0.0000
IA_SCJ ?    T    ? S      ? 20211110 0250   55.5321 GAU  1.00e-01 -1.00e+00 -1.00e+00 -1.00e+00 >   44.7202    1.0315    0.6326  107.2221   -6.8437   -0.3270    1.4715  59.29  -1.0  -1.0  0     0.0000
IA_SBJ ?    Z    ? P      ? 20211110 0250   35.6831 GAU  1.00e-01 -1.00e+00 -1.00e+00 -1.00e+00 >   25.7074    0.1953    1.2584  106.1318   -6.1117   -0.0645    1.4965   7.02  -1.0  -1.0  0     0.0000
IA_CBJ ?    Z    ? P      ? 20211110 0250   36.2778 GAU  1.00e-01 -1.00e+00 -1.00e+00 -1.00e+00 >   26.4109    0.0865    1.2918  107.3562   -6.9309   -0.6790    1.5477  64.59  -1.0  -1.0  0     0.0000
IA_PTJ ?    Z    ? P      ? 20211110 0250   36.6347 GAU  1.00e-01 -1.00e+00 -1.00e+00 -1.00e+00 >   26.4538    0.4004    1.1497  106.7488   -6.2655   -0.0760    1.5508  30.89  -1.0  -1.0  0     0.0000
IA_PTJ ?    R    ? S      ? 20211110 0250   56.1559 GAU  1.00e-01 -1.00e+00 -1.00e+00 -1.00e+00 >   46.6822   -0.3068    1.2565  106.7488   -6.2655   -0.0760    1.5508  30.89  -1.0  -1.0  0     0.0000
IA_TNG ?    Z    ? P      ? 20211110 0250   37.5863 GAU  1.00e-01 -1.00e+00 -1.00e+00 -1.00e+00 >   26.9248    0.8810    0.7591  106.6470   -6.1720   -0.0400    1.5850  26.01  -1.0  -1.0  0     0.0000
IA_PBJ ?    Z    ? P      ? 20211110 0250   37.1105 GAU  1.00e-01 -1.00e+00 -1.00e+00 -1.00e+00 >   27.1119    0.2181    1.2491  107.4758   -7.0875   -1.0900    1.5986  71.51  -1.0  -1.0  0     0.0000
IA_BBJ ?    Z    ? P      ? 20211110 0250   38.0781 GAU  1.00e-01 -1.00e+00 -1.00e+00 -1.00e+00 >   28.4054   -0.1078    1.3044  107.6500   -7.4626   -0.6150    1.6927  85.56  -1.0  -1.0  0     0.0000
IA_CWJ ?    Z    ? P      ? 20211110 0250   40.3448 GAU  1.00e-01 -1.00e+00 -1.00e+00 -1.00e+00 >   28.6920    1.8723    0.1754  107.4449   -6.7424   -0.6490    1.7135  60.18  -1.0  -1.0  0     0.0000
IA_PSL ?    Z    ? P      ? 20211110 0250   38.4416 GAU  1.00e-01 -1.00e+00 -1.00e+00 -1.00e+00 >   28.7227   -0.0615    1.3069  105.5100   -5.9373   -0.0390    1.7158 345.29  -1.0  -1.0  0     0.0000
IA_LEM ?    Z    ? P      ? 20211110 0250   41.8912 GAU  1.00e-01 -1.00e+00 -1.00e+00 -1.00e+00 >   30.2288    1.8820    0.1725  107.6143   -6.8232   -1.2000    1.8253  65.02  -1.0  -1.0  0     0.0000
IA_PPL ?    Z    ? P      ? 20211110 0250   41.4297 GAU  1.00e-01 -1.00e+00 -1.00e+00 -1.00e+00 >   32.9092   -1.2600    0.5996  105.1449   -5.7410   -0.0630    2.0202 336.69  -1.0  -1.0  0     0.0000
IA_TSJ ?    Z    ? P      ? 20211110 0250   44.6271 GAU  1.00e-01 -1.00e+00 -1.00e+00 -1.00e+00 >   33.1931    1.6535    0.0000  107.8109   -6.7319   -0.4200    2.0408  65.04  -1.0  -1.0  0     0.0000
IA_PSS ?    Z    ? P      ? 20211110 0250   42.9125 GAU  1.00e-01 -1.00e+00 -1.00e+00 -1.00e+00 >   34.4612   -1.3292    0.0000  104.6953   -5.8644   -0.0060    2.1330 324.25  -1.0  -1.0  0     0.0000
IA_CSJ ?    Z    ? P      ? 20211110 0250   47.4834 GAU  1.00e-01 -1.00e+00 -1.00e+00 -1.00e+00 >   35.6279    2.0750    0.0000  108.0099   -6.7405   -0.3610    2.2178  67.41  -1.0  -1.0  0     0.0000
IA_CIJ ?    Z    ? P      ? 20211110 0250   47.7214 GAU  1.00e-01 -1.00e+00 -1.00e+00 -1.00e+00 >   36.0201    1.9209    0.0000  108.1959   -7.3174   -0.4180    2.2464  83.00  -1.0  -1.0  0     0.0000
IA_CIJ ?    R    ? S      ? 20211110 0251   14.8606 GAU  1.00e-01 -1.00e+00 -1.00e+00 -1.00e+00 >   63.8876    1.1925    0.0000  108.1959   -7.3174   -0.4180    2.2464  83.00  -1.0  -1.0  0     0.0000
IA_LLS ?    Z    ? P      ? 20211110 0250   45.2218 GAU  1.00e-01 -1.00e+00 -1.00e+00 -1.00e+00 >   36.6850   -1.2437    0.0000  104.8094   -5.6004   -0.0370    2.2947 330.40  -1.0  -1.0  0     0.0000
IA_LLS ?    R    ? S      ? 20211110 0251   11.9802 GAU  1.00e-01 -1.00e+00 -1.00e+00 -1.00e+00 >   65.0835   -2.8838    0.0000  104.8094   -5.6004   -0.0370    2.2947 330.40  -1.0  -1.0  0     0.0000
IA_TOJ ?    Z    ? P      ? 20211110 0250   48.9109 GAU  1.00e-01 -1.00e+00 -1.00e+00 -1.00e+00 >   37.0931    2.0373    0.0000  108.1344   -6.7621   -0.0730    2.3244  69.09  -1.0  -1.0  0     0.0000
IA_CIJ ?    Z    ? P      ? 20211110 0250   50.6951 GAU  1.00e-01 -1.00e+00 -1.00e+00 -1.00e+00 >   39.2320    1.6826    0.0000  108.1852   -6.4925   -0.0430    2.4799  63.69  -1.0  -1.0  0     0.0000
IA_CMJ ?    Z    ? P      ? 20211110 0250   48.7904 GAU  1.00e-01 -1.00e+00 -1.00e+00 -1.00e+00 >   39.3095   -0.2996    0.0000  108.4490   -7.7840   -0.0780    2.4856  94.48  -1.0  -1.0  0     0.0000
IA_BKJ ?    Z    ? P      ? 20211110 0250   52.1226 GAU  1.00e-01 -1.00e+00 -1.00e+00 -1.00e+00 >   40.5101    1.8320    0.0000  108.5322   -7.3633   -0.0840    2.5729  84.96  -1.0  -1.0  0     0.0000
IA_PKJ ?    Z    ? P      ? 20211110 0250   53.1931 GAU  1.00e-01 -1.00e+00 -1.00e+00 -1.00e+00 >   40.8671    2.5455    0.0000  108.4399   -6.7958   -0.2900    2.5988  72.20  -1.0  -1.0  0     0.0000
IA_UTS ?    Z    ? P      ? 20211110 0250   51.3138 GAU  1.00e-01 -1.00e+00 -1.00e+00 -1.00e+00 >   41.8889   -0.3556    0.0000  104.5510   -5.3126   -0.8820    2.6731 328.63  -1.0  -1.0  0     0.0000
IA_KLI ?    Z    ? P      ? 20211110 0250   55.8101 GAU  1.00e-01 -1.00e+00 -1.00e+00 -1.00e+00 >   45.8505    0.1791    0.0000  104.8705   -4.8363   -0.0640    2.9612 338.73  -1.0  -1.0  0     0.0000
IA_KPJ ?    Z    ? P      ? 20211110 0250   58.0701 GAU  1.00e-01 -1.00e+00 -1.00e+00 -1.00e+00 >   45.9638    2.3258    0.0000  108.9310   -7.3333   -0.1110    2.9695  85.10  -1.0  -1.0  0     0.0000
IA_PPS ?    Z    ? P      ? 20211110 0250   56.8806 GAU  1.00e-01 -1.00e+00 -1.00e+00 -1.00e+00 >   46.1067    0.9934    0.0000  104.0156   -5.3182   -0.0030    2.9799 319.77  -1.0  -1.0  0     0.0000
IA_SUS ?    Z    ? P      ? 20211110 0250   56.9996 GAU  1.00e-01 -1.00e+00 -1.00e+00 -1.00e+00 >   47.1456    0.0735    0.0000  104.2945   -5.0212   -1.0550    3.0554 327.37  -1.0  -1.0  0     0.0000
IA_KLS ?    Z    ? P      ? 20211110 0250   58.1891 GAU  1.00e-01 -1.00e+00 -1.00e+00 -1.00e+00 >   48.4624   -0.0538    0.0000  104.7317   -4.6871   -0.0807    3.1512 337.37  -1.0  -1.0  0     0.0000
IA_SCJ ?    Z    ? P      ? 20211110 0251    0.3302 GAU  1.00e-01 -1.00e+00 -1.00e+00 -1.00e+00 >   49.0437    1.5060    0.0000  109.1689   -7.6810   -0.0450    3.1934  91.72  -1.0  -1.0  0     0.0000
IA_BOS ?    Z    ? P      ? 20211110 0251    0.2113 GAU  1.00e-01 -1.00e+00 -1.00e+00 -1.00e+00 >   51.0796   -0.6488    0.0000  104.0207   -4.8592   -0.6400    3.3415 324.91  -1.0  -1.0  0     0.0000
IA_LES ?    Z    ? P      ? 20211110 0251    0.9250 GAU  1.00e-01 -1.00e+00 -1.00e+00 -1.00e+00 >   52.5317   -1.3872    0.0000  103.7126   -4.9615   -0.0390    3.4471 319.74  -1.0  -1.0  0     0.0000
IA_BUJ ?    Z    ? P      ? 20211110 0251    3.8988 GAU  1.00e-01 -1.00e+00 -1.00e+00 -1.00e+00 >   53.0589    1.0594    0.0000  109.4613   -7.7560   -0.0570    3.4855  92.85  -1.0  -1.0  0     0.0000
IA_MDS ?    Z    ? P      ? 20211110 0251    3.3040 GAU  1.00e-01 -1.00e+00 -1.00e+00 -1.00e+00 >   54.2776   -0.7541    0.0000  104.1783   -4.4861   -0.1110    3.5741 330.41  -1.0  -1.0  0     0.0000
IA_PKJ ?    Z    ? P      ? 20211110 0251    8.1810 GAU  1.00e-01 -1.00e+00 -1.00e+00 -1.00e+00 >   55.0072    3.3934    0.0000  109.5798   -7.1678   -0.8470    3.6272  83.44  -1.0  -1.0  0     0.0000
IA_MBJ ?    Z    ? P      ? 20211110 0251    6.6191 GAU  1.00e-01 -1.00e+00 -1.00e+00 -1.00e+00 >   55.3996    1.4391    0.0000  109.6324   -7.4489   -0.0490    3.6557  87.92  -1.0  -1.0  0     0.0000
IA_UGM ?    Z    ? P      ? 20211110 0251   18.6660 GAU  1.00e-01 -1.00e+00 -1.00e+00 -1.00e+00 >   67.6130    1.2725    0.0000  110.5231   -7.9125   -0.3500    4.5442  94.29  -1.0  -1.0  0     0.0000
IA_GKJ ?    Z    ? P      ? 20211110 0251   23.2723 GAU  1.00e-01 -1.00e+00 -1.00e+00 -1.00e+00 >   68.4976    4.9942    0.0000  110.5922   -7.8411   -0.2110    4.6086  93.35  -1.0  -1.0  0     0.0000
IA_BOJ ?    Z    ? P      ? 20211110 0251   22.1156 GAU  1.00e-01 -1.00e+00 -1.00e+00 -1.00e+00 >   69.7539    2.5812    0.0000  110.6894   -7.5682   -0.1960    4.7000  89.96  -1.0  -1.0  0     0.0000
IA_PRJ ?    Z    ? P      ? 20211110 0251   22.7104 GAU  1.00e-01 -1.00e+00 -1.00e+00 -1.00e+00 >   71.4309    1.4990    0.0000  110.7918   -8.0722   -0.3370    4.8220  95.98  -1.0  -1.0  0     0.0000
IA_WOJ ?    Z    ? P      ? 20211110 0251   24.0188 GAU  1.00e-01 -1.00e+00 -1.00e+00 -1.00e+00 >   73.0025    1.2358    0.0000  110.9236   -7.8372   -0.1836    4.9364  93.12  -1.0  -1.0  0     0.0000
IA_ULS ?    Z    ? P      ? 20211110 0251   21.9967 GAU  1.00e-01 -1.00e+00 -1.00e+00 -1.00e+00 >   73.2945   -1.0783    0.0000  102.7941   -3.7588   -0.2840    4.9576 320.56  -1.0  -1.0  0     0.0000
IA_TPI ?    Z    ? P      ? 20211110 0251   26.3650 GAU  1.00e-01 -1.00e+00 -1.00e+00 -1.00e+00 >   75.6618    0.9227    0.0000  107.6535   -2.7563   -0.0250    5.1299  19.42  -1.0  -1.0  0     0.0000
IA_PCJ ?    Z    ? P      ? 20211110 0251   27.7063 GAU  1.00e-01 -1.00e+00 -1.00e+00 -1.00e+00 >   76.8156    1.1103    0.0000  111.1771   -8.1947   -0.7023    5.2138  96.94  -1.0  -1.0  0     0.0000
IA_BLS ?    Z    ? P      ? 20211110 0251   28.3011 GAU  1.00e-01 -1.00e+00 -1.00e+00 -1.00e+00 >   79.9769   -1.4563    0.0000  102.8072   -3.1402   -0.0670    5.4439 324.79  -1.0  -1.0  0     0.0000
IA_ABS ?    Z    ? P      ? 20211110 0251   28.2665 GAU  1.00e-01 -1.00e+00 -1.00e+00 -1.00e+00 >   81.4938   -3.0078    0.0000  102.2630   -3.4254   -0.3800    5.5543 318.48  -1.0  -1.0  0     0.0000
IA_SNJ ?    Z    ? P      ? 20211110 0251   36.4742 GAU  1.00e-01 -1.00e+00 -1.00e+00 -1.00e+00 >   84.3432    2.3505    0.0000  111.7591   -7.7808   -1.3410    5.7618  92.22  -1.0  -1.0  0     0.0000
IA_MBS ?    Z    ? P      ? 20211110 0251   34.8434 GAU  1.00e-01 -1.00e+00 -1.00e+00 -1.00e+00 >   88.2544   -3.1915    0.0000  101.8374   -3.1451   -0.0370    6.0465 317.20  -1.0  -1.0  0     0.0000
IA_SLS ?    Z    ? P      ? 20211110 0251   38.2098 GAU  1.00e-01 -1.00e+00 -1.00e+00 -1.00e+00 >   90.1556   -1.7263    0.0000  102.5927   -2.3924   -0.0768    6.1849 327.13  -1.0  -1.0  0     0.0000
IA_JMS ?    Z    ? P      ? 20211110 0251   39.0861 GAU  1.00e-01 -1.00e+00 -1.00e+00 -1.00e+00 >   93.0955   -3.7899    0.0000  101.8875   -2.6372   -1.2750    6.3990 320.60  -1.0  -1.0  0     0.0000
IA_BLJ ?    Z    ? P      ? 20211110 0252    4.0221 GAU  1.00e-01 -1.00e+00 -1.00e+00 -1.00e+00 >  109.3079    4.9337    0.0000  113.5950   -7.7450   -0.0809    7.5799  91.63  -1.0  -1.0  0     0.0000
IA_JAS ?    Z    ? P      ? 20211110 0251   56.4676 GAU  1.00e-01 -1.00e+00 -1.00e+00 -1.00e+00 >  110.0121   -3.3250    0.0000  101.4584   -1.4145   -0.2530    7.6312 323.89  -1.0  -1.0  0     0.0000
IA_JAG ?    Z    ? P      ? 20211110 0252    9.6324 GAU  1.00e-01 -1.00e+00 -1.00e+00 -1.00e+00 >  117.4054    2.4465    0.0000  114.1520   -8.4703   -0.1710    8.1701  96.70  -1.0  -1.0  0     0.0000
IA_ABJ ?    Z    ? P      ? 20211110 0252   12.5508 GAU  1.00e-01 -1.00e+00 -1.00e+00 -1.00e+00 >  118.0056    4.7647    0.0000  114.2342   -7.7957   -0.1444    8.2138  91.94  -1.0  -1.0  0     0.0000
IA_BPS ?    Z    ? P      ? 20211110 0252    5.3506 GAU  1.00e-01 -1.00e+00 -1.00e+00 -1.00e+00 >  119.7141   -4.1439    0.0000  100.5900   -1.1924   -0.1100    8.3384 319.93  -1.0  -1.0  0     0.0000
IA_TRI ?    Z    ? P      ? 20211110 0252    6.7222 GAU  1.00e-01 -1.00e+00 -1.00e+00 -1.00e+00 >  120.7968   -3.8551    0.0000   99.5830   -2.0601   -0.0880    8.4173 310.81  -1.0  -1.0  0     0.0000
IA_NKB ?    Z    ? P      ? 20211110 0252   26.7757 GAU  1.00e-01 -1.00e+00 -1.00e+00 -1.00e+00 >  136.2922    0.7030    0.0000  115.5260   -8.7261   -0.4520    9.5476  97.46  -1.0  -1.0  0     0.0000
IA_KHK ?    Z    ? P      ? 20211110 0252   28.8216 GAU  1.00e-01 -1.00e+00 -1.00e+00 -1.00e+00 >  136.9898    2.0513    0.0000  115.6096   -8.3640   -0.2200    9.5985  95.24  -1.0  -1.0  0     0.0000
IA_MPS ?    Z    ? P      ? 20211110 0252   28.5848 GAU  1.00e-01 -1.00e+00 -1.00e+00 -1.00e+00 >  142.8885   -4.0842    0.0000  100.1383    0.5891   -0.1950   10.0290 324.46  -1.0  -1.0  0     0.0000
END_PHASE
END_NLLOC

