NLLOC "/home/sysop/seiscomp/share/nll/data/output/NLL.20240822045310.646398.27185.20240726.051624.grid0" "LOCATED" "Location completed."
PUBLIC_ID None
SIGNATURE "Anthony Lomax   obs:-   NLLoc:v7.00.13(17Jan2022)   run:22Aug2024 11h53m11"
COMMENT "BMKG events"
GRID  361 181 601  -180 -90 0  1 1 1 PROB_DENSITY
SEARCH OCTREE nInitial 17628 nEvaluated 50020 smallestNodeSide 0.814417/0.814417/0.195312 oct_tree_integral 9.599523e+02 scatter_volume 9.599523e+02
HYPOCENTER  x 96.4417 y 0.135498 z 0.0976562  OT 0.0381662  ix -1 iy -1 iz -1 MAXIMUM_LIKELIHOOD
GEOGRAPHIC  OT 2024 07 26  05 16 0.038166  Lat 0.135498 Long 96.441650 Depth 0.097656
QUALITY  Pmax 6.87895e+147 MFmin 40.2971 MFmax 40.3368 RMS 0.450055 Nphs 49 Gap 217.071 Dist 1.28879 Mamp -9.90 0 Mdur -9.90 0
VPVSRATIO  VpVsRatio 0.5  Npair 2  Diff 2.1871
STATISTICS  ExpectX 96.442516 Y 0.137280 Z 24.225325  CovXX 19.3316 XY 7.14914 XZ 6.93162 YY 5.14312 YZ 5.26375 ZZ 241.629 EllAz1  157.612 Dip1  0.53277 Len1  2.75189 Az2  247.633 Dip2  2.19359 Len2  8.80977 Len3  2.922605e+01
STAT_GEOG  ExpectLat 0.137280 Long 96.442516 Depth 24.225325
TRANSFORM  GLOBAL
QML_OriginQuality  assocPhCt 115  usedPhCt 49  assocStaCt -1  usedStaCt 47  depthPhCt -1  stdErr 0.450055  azGap 217.071  secAzGap 222.396  gtLevel -  minDist 143.307 maxDist 679.332 medDist 480.495
QML_OriginUncertainty  horUnc -1  minHorUnc 2.23184  maxHorUnc 7.16315  azMaxHorUnc 67.3896
QML_ConfidenceEllipsoid  semiMajorAxisLength 29.226  semiMinorAxisLength 2.75189  semiIntermediateAxisLength 8.80977  majorAxisPlunge 87.7426  majorAxisAzimuth 53.9679  majorAxisRotation 346.305
FOCALMECH  Hyp  0.135498 96.441650 0.097656 Mech  0 0 0 mf  0 nObs -1
PHASE ID Ins Cmp On Pha  FM Date     HrMn   Sec     Err  ErrMag    Coda      Amp       Per  >   TTpred    Res       Weight    StaLoc(X  Y         Z)        SDist    SAzim  RAz  RDip RQual    Tcorr 
IA_SNB ?    Z    ? P      ? 20240726 0516   24.6096 GAU  1.00e-01 -1.00e+00 -1.00e+00 -1.00e+00 >   24.7075   -0.1361    1.1830   97.4295    0.9632   -0.0040    1.2888  50.04  -1.0  -1.0  0     0.0000
IA_SNB ?    N    ? S      ? 20240726 0516   39.0040 GAU  1.00e-01 -1.00e+00 -1.00e+00 -1.00e+00 >   42.6499   -3.6840    0.0059   97.4295    0.9632   -0.0040    1.2888  50.04  -1.0  -1.0  0     0.0000
IA_TDN ?    Z    ? P      ? 20240726 0516   26.7968 GAU  1.00e-01 -1.00e+00 -1.00e+00 -1.00e+00 >   27.3975   -0.6389    0.8952   97.8196    0.5744   -0.0590    1.4461  72.33  -1.0  -1.0  0     0.0000
IA_LTN ?    Z    ? P      ? 20240726 0516   27.4071 GAU  1.00e-01 -1.00e+00 -1.00e+00 -1.00e+00 >   27.9659   -0.5969    0.9288   97.3200    1.3360   -0.0520    1.4875  36.18  -1.0  -1.0  0     0.0000
IA_LTN ?    N    ? S      ? 20240726 0516   43.9886 GAU  1.00e-01 -1.00e+00 -1.00e+00 -1.00e+00 >   48.9686   -5.0182    0.0058   97.3200    1.3360   -0.0520    1.4875  36.18  -1.0  -1.0  0     0.0000
IA_PBS ?    Z    ? P      ? 20240726 0516   32.8544 GAU  1.00e-01 -1.00e+00 -1.00e+00 -1.00e+00 >   32.9268   -0.1106    1.1889   98.2800   -0.0547   -0.0470    1.8482  95.91  -1.0  -1.0  0     0.0000
IA_SNS ?    Z    ? P      ? 20240726 0516   39.6144 GAU  1.00e-01 -1.00e+00 -1.00e+00 -1.00e+00 >   38.8151    0.7611    0.8518   96.3267    2.4089   -0.0145    2.2763 357.11  -1.0  -1.0  0     0.0000
IA_KAS ?    Z    ? P      ? 20240726 0516   45.5544 GAU  1.00e-01 -1.00e+00 -1.00e+00 -1.00e+00 >   45.3182    0.1980    1.1800   97.8582    2.4919   -0.0040    2.7492  30.99  -1.0  -1.0  0     0.0000
IA_SIU ?    Z    ? P      ? 20240726 0516   46.5344 GAU  1.00e-01 -1.00e+00 -1.00e+00 -1.00e+00 >   46.4902    0.0060    1.2029   98.9800   -1.1260   -0.0090    2.8344 116.43  -1.0  -1.0  0     0.0000
IA_SBS ?    Z    ? P      ? 20240726 0516   46.8544 GAU  1.00e-01 -1.00e+00 -1.00e+00 -1.00e+00 >   47.8943   -1.0780    0.0000   99.3775    0.1983   -0.0010    2.9365  88.77  -1.0  -1.0  0     0.0000
IA_SSS ?    Z    ? P      ? 20240726 0516   48.4044 GAU  1.00e-01 -1.00e+00 -1.00e+00 -1.00e+00 >   48.2718    0.0944    1.1994   97.9708    2.6749   -0.0560    2.9640  31.03  -1.0  -1.0  0     0.0000
IA_ONS ?    Z    ? P      ? 20240726 0516   47.9794 GAU  1.00e-01 -1.00e+00 -1.00e+00 -1.00e+00 >   48.5032   -0.5619    0.9560   98.6301    2.1599   -1.1580    2.9808  47.21  -1.0  -1.0  0     0.0000
IA_LDS ?    Z    ? P      ? 20240726 0516   51.6294 GAU  1.00e-01 -1.00e+00 -1.00e+00 -1.00e+00 >   52.0834   -0.4921    1.0072   98.1570    2.8860   -0.8190    3.2412  31.92  -1.0  -1.0  0     0.0000
IA_PTS ?    Z    ? P      ? 20240726 0516   53.1794 GAU  1.00e-01 -1.00e+00 -1.00e+00 -1.00e+00 >   52.9957    0.1455    1.1918   99.1660    2.0119   -1.1960    3.3075  55.42  -1.0  -1.0  0     0.0000
IA_SIS ?    Z    ? P      ? 20240726 0516   53.7544 GAU  1.00e-01 -1.00e+00 -1.00e+00 -1.00e+00 >   53.0201    0.6961    0.9027   99.1402   -1.7806   -0.0390    3.3093 125.39  -1.0  -1.0  0     0.0000
IA_MUT ?    Z    ? P      ? 20240726 0516   53.5144 GAU  1.00e-01 -1.00e+00 -1.00e+00 -1.00e+00 >   53.2220    0.2542    1.1630   98.9650    2.3000   -1.5710    3.3240  49.35  -1.0  -1.0  0     0.0000
IA_TKS ?    Z    ? P      ? 20240726 0516   56.2044 GAU  1.00e-01 -1.00e+00 -1.00e+00 -1.00e+00 >   56.2330   -0.0667    1.1966   98.3244    3.1374   -0.7200    3.5429  32.06  -1.0  -1.0  0     0.0000
IA_JAA ?    Z    ? P      ? 20240726 0516   53.1744 GAU  1.00e-01 -1.00e+00 -1.00e+00 -1.00e+00 >   57.7067   -4.5705    0.0000   96.8200    3.7660   -0.0120    3.6501   5.94  -1.0  -1.0  0     0.0000
IA_TRI ?    Z    ? P      ? 20240726 0517    0.0013 GAU  1.00e-01 -1.00e+00 -1.00e+00 -1.00e+00 >   60.2080   -0.2449    1.1470   99.5830   -2.0601   -0.0880    3.8321 124.97  -1.0  -1.0  0     0.0000
IA_BGA ?    Z    ? P      ? 20240726 0517    2.1944 GAU  1.00e-01 -1.00e+00 -1.00e+00 -1.00e+00 >   61.7636    0.3926    1.1031   97.3150    3.9830   -1.0780    3.9452  12.77  -1.0  -1.0  0     0.0000
IA_RRS ?    Z    ? P      ? 20240726 0517    2.3794 GAU  1.00e-01 -1.00e+00 -1.00e+00 -1.00e+00 >   62.0702    0.2710    1.1570  100.3461    0.8410   -0.0780    3.9675  79.75  -1.0  -1.0  0     0.0000
IA_PPI ?    Z    ? P      ? 20240726 0517    2.5144 GAU  1.00e-01 -1.00e+00 -1.00e+00 -1.00e+00 >   62.5090   -0.0328    1.2006  100.3972   -0.4555   -0.7836    3.9994  98.50  -1.0  -1.0  0     0.0000
IA_RRH ?    Z    ? P      ? 20240726 0517    2.6794 GAU  1.00e-01 -1.00e+00 -1.00e+00 -1.00e+00 >   62.6463   -0.0051    1.2025  100.4274    0.5714   -0.0920    4.0094  83.75  -1.0  -1.0  0     0.0000
IA_PLS ?    Z    ? P      ? 20240726 0517    4.3513 GAU  1.00e-01 -1.00e+00 -1.00e+00 -1.00e+00 >   64.0780    0.2351    1.1693  100.5540    0.2373   -0.1330    4.1136  88.58  -1.0  -1.0  0     0.0000
IA_PDS ?    Z    ? P      ? 20240726 0517    4.0744 GAU  1.00e-01 -1.00e+00 -1.00e+00 -1.00e+00 >   64.6350   -0.5988    0.9274  100.4617   -0.9118   -0.2756    4.1541 104.61  -1.0  -1.0  0     0.0000
IA_LKS ?    Z    ? P      ? 20240726 0517    5.4044 GAU  1.00e-01 -1.00e+00 -1.00e+00 -1.00e+00 >   64.7070    0.6592    0.9307  100.6007    0.1845   -0.1860    4.1593  89.32  -1.0  -1.0  0     0.0000
IA_LBT ?    Z    ? P      ? 20240726 0517    5.7944 GAU  1.00e-01 -1.00e+00 -1.00e+00 -1.00e+00 >   65.6459    0.1103    1.1975  100.6250   -0.4750   -0.4170    4.2276  98.31  -1.0  -1.0  0     0.0000
IA_RHR ?    Z    ? P      ? 20240726 0517   12.8744 GAU  1.00e-01 -1.00e+00 -1.00e+00 -1.00e+00 >   66.2549    6.5813    0.0000  100.5100    1.4400    0.0000    4.2719  72.20  -1.0  -1.0  0     0.0000
IA_SLS ?    Z    ? P      ? 20240726 0517    7.5044 GAU  1.00e-01 -1.00e+00 -1.00e+00 -1.00e+00 >   66.9321    0.5341    1.0192  100.6534   -0.8313   -0.3890    4.3212 102.94  -1.0  -1.0  0     0.0000
IA_BPS ?    Z    ? P      ? 20240726 0517    6.8294 GAU  1.00e-01 -1.00e+00 -1.00e+00 -1.00e+00 >   67.4027   -0.6115    0.9173  100.5900   -1.1924   -0.1100    4.3554 107.76  -1.0  -1.0  0     0.0000
IA_CAS ?    Z    ? P      ? 20240726 0517    6.5044 GAU  1.00e-01 -1.00e+00 -1.00e+00 -1.00e+00 >   70.4293   -3.9630    0.0000   95.5767    4.6288   -0.0110    4.5756 349.13  -1.0  -1.0  0     0.0000
IA_PPS ?    Z    ? P      ? 20240726 0517   10.3144 GAU  1.00e-01 -1.00e+00 -1.00e+00 -1.00e+00 >   70.7382   -0.4620    1.0279  100.0100   -2.7660   -0.0060    4.5981 129.15  -1.0  -1.0  0     0.0000
IA_GES ?    Z    ? P      ? 20240726 0517   12.1794 GAU  1.00e-01 -1.00e+00 -1.00e+00 -1.00e+00 >   72.3731   -0.2318    1.1523   96.1278    4.8421   -1.0340    4.7170 356.19  -1.0  -1.0  0     0.0000
IA_GPS ?    Z    ? P      ? 20240726 0517   12.4544 GAU  1.00e-01 -1.00e+00 -1.00e+00 -1.00e+00 >   72.7826   -0.3663    1.0875   96.0904    4.8693   -0.4170    4.7468 355.77  -1.0  -1.0  0     0.0000
IA_PAS ?    Z    ? P      ? 20240726 0517   14.0144 GAU  1.00e-01 -1.00e+00 -1.00e+00 -1.00e+00 >   74.5148   -0.5386    0.9736  100.2028   -2.9646   -0.0390    4.8729 129.54  -1.0  -1.0  0     0.0000
IA_SSS ?    Z    ? P      ? 20240726 0517   17.7044 GAU  1.00e-01 -1.00e+00 -1.00e+00 -1.00e+00 >   77.4653    0.2010    1.1793  101.2375   -1.5641   -0.5630    5.0875 109.53  -1.0  -1.0  0     0.0000
IA_GTS ?    Z    ? P      ? 20240726 0517   17.6794 GAU  1.00e-01 -1.00e+00 -1.00e+00 -1.00e+00 >   77.6379    0.0033    1.2028  101.4888   -0.5981   -0.0090    5.1001  98.27  -1.0  -1.0  0     0.0000
IA_LHM ?    Z    ? P      ? 20240726 0517   23.0428 GAU  1.00e-01 -1.00e+00 -1.00e+00 -1.00e+00 >   77.8873    5.1173    0.0000   96.9472    5.2288   -0.0030    5.1183   5.65  -1.0  -1.0  0     0.0000
IA_JAS ?    Z    ? P      ? 20240726 0517   20.1763 GAU  1.00e-01 -1.00e+00 -1.00e+00 -1.00e+00 >   79.7016    0.4366    1.0792  101.4584   -1.4145   -0.2530    5.2503 107.19  -1.0  -1.0  0     0.0000
IA_STS ?    Z    ? P      ? 20240726 0517   19.6513 GAU  1.00e-01 -1.00e+00 -1.00e+00 -1.00e+00 >   79.7167   -0.1035    1.1903  101.0478   -2.3887   -0.0160    5.2514 118.76  -1.0  -1.0  0     0.0000
IA_SIR ?    Z    ? P      ? 20240726 0517   13.8544 GAU  1.00e-01 -1.00e+00 -1.00e+00 -1.00e+00 >   79.9474   -6.1312    0.0000  101.6600    0.8600    0.0000    5.2682  82.08  -1.0  -1.0  0     0.0000
IA_SKS ?    Z    ? P      ? 20240726 0517   20.6794 GAU  1.00e-01 -1.00e+00 -1.00e+00 -1.00e+00 >   80.8022   -0.1609    1.1763  101.3497   -1.9460   -0.9560    5.3304 113.01  -1.0  -1.0  0     0.0000
IA_MKB ?    Z    ? P      ? 20240726 0517   21.6344 GAU  1.00e-01 -1.00e+00 -1.00e+00 -1.00e+00 >   82.4155   -0.8193    0.7419  101.2396   -2.4474   -0.0482    5.4478 118.33  -1.0  -1.0  0     0.0000
IA_KRJ ?    Z    ? P      ? 20240726 0517   24.2144 GAU  1.00e-01 -1.00e+00 -1.00e+00 -1.00e+00 >   83.0086    1.1677    0.5231  101.4619   -2.0912   -0.8109    5.4910 113.95  -1.0  -1.0  0     0.0000
IA_SAA ?    Z    ? P      ? 20240726 0517   24.0344 GAU  1.00e-01 -1.00e+00 -1.00e+00 -1.00e+00 >   83.1759    0.8203    0.8042   95.5250    5.5620   -0.0420    5.5031 350.44  -1.0  -1.0  0     0.0000
IA_PAA ?    Z    ? P      ? 20240726 0517   23.3744 GAU  1.00e-01 -1.00e+00 -1.00e+00 -1.00e+00 >   85.7228   -2.3866    0.0000   95.1290    5.6710   -0.0090    5.6885 346.70  -1.0  -1.0  0     0.0000
IA_PRS ?    Z    ? P      ? 20240726 0517   22.1544 GAU  1.00e-01 -1.00e+00 -1.00e+00 -1.00e+00 >   86.3353   -4.2191    0.0000  102.1700    0.3700    0.0000    5.7331  87.65  -1.0  -1.0  0     0.0000
IA_RGR ?    Z    ? P      ? 20240726 0517   29.3544 GAU  1.00e-01 -1.00e+00 -1.00e+00 -1.00e+00 >   88.7935    0.5227    1.0267  102.3338   -0.3491   -0.0409    5.9120  94.70  -1.0  -1.0  0     0.0000
IA_JMS ?    Z    ? P      ? 20240726 0517   32.3513 GAU  1.00e-01 -1.00e+00 -1.00e+00 -1.00e+00 >   91.5045    0.8087    0.8137  101.8875   -2.6372   -1.2750    6.1094 117.03  -1.0  -1.0  0     0.0000
IA_BMS ?    Z    ? P      ? 20240726 0517   34.6263 GAU  1.00e-01 -1.00e+00 -1.00e+00 -1.00e+00 >   93.7359    0.8522    0.7782  102.3154   -2.0664   -0.1350    6.2718 110.58  -1.0  -1.0  0     0.0000
IA_IHR ?    Z    ? P      ? 20240726 0517   35.7544 GAU  1.00e-01 -1.00e+00 -1.00e+00 -1.00e+00 >  100.0191   -4.3029    0.0000  103.1700    0.0200    0.0000    6.7293  90.98  -1.0  -1.0  0     0.0000
IA_UMK ?    Z    ? P      ? 20240726 0517   45.8544 GAU  1.00e-01 -1.00e+00 -1.00e+00 -1.00e+00 >  105.7923    0.0239    1.2032  102.5480   -3.5900   -0.7090    7.1498 121.46  -1.0  -1.0  0     0.0000
IA_BLS ?    Z    ? P      ? 20240726 0517   46.3294 GAU  1.00e-01 -1.00e+00 -1.00e+00 -1.00e+00 >  105.8805    0.4108    1.0935  102.8072   -3.1402   -0.0670    7.1562 117.29  -1.0  -1.0  0     0.0000
IA_MNA ?    Z    ? P      ? 20240726 0517   56.0028 GAU  1.00e-01 -1.00e+00 -1.00e+00 -1.00e+00 >  116.2255   -0.2609    1.1403  102.9557   -4.3605   -0.1540    7.9099 124.72  -1.0  -1.0  0     0.0000
IA_EGS ?    Z    ? P      ? 20240726 0517   56.8344 GAU  1.00e-01 -1.00e+00 -1.00e+00 -1.00e+00 >  117.5215   -0.7252    0.8232  102.2767   -5.3526   -0.0357    8.0044 133.37  -1.0  -1.0  0     0.0000
IA_SUS ?    Z    ? P      ? 20240726 0518   16.4044 GAU  1.00e-01 -1.00e+00 -1.00e+00 -1.00e+00 >  136.4753   -0.1091    1.1892  104.2945   -5.0212   -1.0550    9.3864 123.43  -1.0  -1.0  0     0.0000
IA_CGJ ?    Z    ? P      ? 20240726 0518   40.8744 GAU  1.00e-01 -1.00e+00 -1.00e+00 -1.00e+00 >  164.5001   -3.6639    0.0000  105.6900   -6.6134   -0.1820   11.4327 126.35  -1.0  -1.0  0     0.0000
IA_TPI ?    Z    ? P      ? 20240726 0518   47.5944 GAU  1.00e-01 -1.00e+00 -1.00e+00 -1.00e+00 >  166.4436    1.1127    0.5660  107.6535   -2.7563   -0.0250   11.5747 104.55  -1.0  -1.0  0     0.0000
IA_PSJ ?    Z    ? P      ? 20240726 0518   56.8044 GAU  1.00e-01 -1.00e+00 -1.00e+00 -1.00e+00 >  176.8294   -0.0632    1.1971  106.5491   -6.9686   -0.2050   12.3342 125.36  -1.0  -1.0  0     0.0000
IA_SSK ?    Z    ? P      ? 20240726 0519    0.8544 GAU  1.00e-01 -1.00e+00 -1.00e+00 -1.00e+00 >  179.7333    1.0829    0.0000  108.9703    0.8172   -0.0200   12.5466  86.85  -1.0  -1.0  0     0.0000
IA_SSJ ?    Z    ? P      ? 20240726 0519    4.9544 GAU  1.00e-01 -1.00e+00 -1.00e+00 -1.00e+00 >  180.8550    4.0613    0.0000  106.9626   -6.8872   -0.8410   12.6287 123.99  -1.0  -1.0  0     0.0000
IA_BBJ ?    Z    ? P      ? 20240726 0519   11.0976 GAU  1.00e-01 -1.00e+00 -1.00e+00 -1.00e+00 >  192.9624   -1.9030    0.0000  107.6500   -7.4626   -0.6150   13.5151 124.44  -1.0  -1.0  0     0.0000
IA_NKK ?    Z    ? P      ? 20240726 0519   22.9544 GAU  1.00e-01 -1.00e+00 -1.00e+00 -1.00e+00 >  202.6541    0.2621    0.0000  110.5671   -1.5605   -0.0690   14.2253  96.90  -1.0  -1.0  0     0.0000
IA_MBJ ?    Z    ? P      ? 20240726 0519   33.8544 GAU  1.00e-01 -1.00e+00 -1.00e+00 -1.00e+00 >  215.6770   -1.8608    0.0000  109.6324   -7.4489   -0.0490   15.1840 120.24  -1.0  -1.0  0     0.0000
IA_GTJ ?    Z    ? P      ? 20240726 0519   42.6976 GAU  1.00e-01 -1.00e+00 -1.00e+00 -1.00e+00 >  220.2088    2.4506    0.0000  110.1837   -7.1638   -0.7490   15.5292 118.31  -1.0  -1.0  0     0.0000
IA_SAK ?    Z    ? P      ? 20240726 0519   41.0744 GAU  1.00e-01 -1.00e+00 -1.00e+00 -1.00e+00 >  223.1197   -2.0834    0.0000  110.1550   -7.6860   -0.7060   15.7518 120.07  -1.0  -1.0  0     0.0000
IA_BMB ?    Z    ? P      ? 20240726 0519   44.0976 GAU  1.00e-01 -1.00e+00 -1.00e+00 -1.00e+00 >  225.4909   -1.4315    0.0000  110.8839   -6.6635   -1.0290   15.9336 115.53  -1.0  -1.0  0     0.0000
IA_SNJ ?    Z    ? P      ? 20240726 0520    3.1044 GAU  1.00e-01 -1.00e+00 -1.00e+00 -1.00e+00 >  241.6264    1.4398    0.0000  111.7591   -7.7808   -1.3410   17.2008 117.74  -1.0  -1.0  0     0.0000
IA_MTK ?    Z    ? P      ? 20240726 0520   16.4344 GAU  1.00e-01 -1.00e+00 -1.00e+00 -1.00e+00 >  257.4688   -1.0726    0.0000  114.8959   -0.9418   -0.1001   18.4849  93.38  -1.0  -1.0  0     0.0000
IA_KUK ?    Z    ? P      ? 20240726 0520   26.1294 GAU  1.00e-01 -1.00e+00 -1.00e+00 -1.00e+00 >  265.2208    0.8704    0.0000  115.6305   -0.0394    0.0000   19.1896  90.51  -1.0  -1.0  0     0.0000
IA_KKT ?    Z    ? P      ? 20240726 0520   40.1794 GAU  1.00e-01 -1.00e+00 -1.00e+00 -1.00e+00 >  279.8761    0.2651    0.0000  116.9493    1.1861   -0.1130   20.5329  86.98  -1.0  -1.0  0     0.0000
IA_BUK ?    Z    ? P      ? 20240726 0521    0.5744 GAU  1.00e-01 -1.00e+00 -1.00e+00 -1.00e+00 >  291.9918    8.5445    0.0000  118.0700    1.2500    0.0000   21.6551  86.95  -1.0  -1.0  0     0.0000
IA_RSN ?    Z    ? P      ? 20240726 0521    4.7294 GAU  1.00e-01 -1.00e+00 -1.00e+00 -1.00e+00 >  305.2222   -0.5309    0.0000  117.5600   -8.9100    0.0000   22.8960 113.81  -1.0  -1.0  0     0.0000
IA_TAP ?    Z    ? P      ? 20240726 0521    6.0744 GAU  1.00e-01 -1.00e+00 -1.00e+00 -1.00e+00 >  306.9252   -0.8890    0.0000  119.2490   -3.3320   -0.0560   23.0571  98.86  -1.0  -1.0  0     0.0000
IA_MMC ?    Z    ? P      ? 20240726 0521    7.8044 GAU  1.00e-01 -1.00e+00 -1.00e+00 -1.00e+00 >  307.5815    0.1848    0.0000  119.3631   -2.9560   -1.1670   23.1192  97.87  -1.0  -1.0  0     0.0000
IA_RDC ?    Z    ? P      ? 20240726 0521    9.5294 GAU  1.00e-01 -1.00e+00 -1.00e+00 -1.00e+00 >  307.9404    1.5508    0.0000  119.5525   -1.2955   -0.0440   23.1533  93.61  -1.0  -1.0  0     0.0000
IA_DOC ?    Z    ? P      ? 20240726 0521   10.6294 GAU  1.00e-01 -1.00e+00 -1.00e+00 -1.00e+00 >  309.7053    0.8859    0.0000  119.7487   -0.6759   -0.0500   23.3207  92.02  -1.0  -1.0  0     0.0000
IA_BGC ?    Z    ? P      ? 20240726 0521   10.7544 GAU  1.00e-01 -1.00e+00 -1.00e+00 -1.00e+00 >  310.9507   -0.2345    0.0000  119.8801   -0.0496   -0.0180   23.4391  90.44  -1.0  -1.0  0     0.0000
IA_MPS ?    Z    ? P      ? 20240726 0521   11.0044 GAU  1.00e-01 -1.00e+00 -1.00e+00 -1.00e+00 >  311.1384   -0.1722    0.0000  119.8980    0.3374   -0.1740   23.4570  89.46  -1.0  -1.0  0     0.0000
IA_TSN ?    Z    ? P      ? 20240726 0521   14.8294 GAU  1.00e-01 -1.00e+00 -1.00e+00 -1.00e+00 >  311.4221    3.3692    0.0000  118.2800   -8.7100    0.0000   23.4840 112.67  -1.0  -1.0  0     0.0000
IA_SBS ?    Z    ? P      ? 20240726 0521   12.8144 GAU  1.00e-01 -1.00e+00 -1.00e+00 -1.00e+00 >  311.4234    1.3528    0.0000  119.8890   -1.2060   -0.2210   23.4841  93.34  -1.0  -1.0  0     0.0000
IA_PBN ?    Z    ? P      ? 20240726 0521   14.6544 GAU  1.00e-01 -1.00e+00 -1.00e+00 -1.00e+00 >  314.2771    0.3391    0.0000  118.5700   -8.7900    0.0000   23.7803 112.60  -1.0  -1.0  0     0.0000
IA_LSC ?    Z    ? P      ? 20240726 0521   14.9044 GAU  1.00e-01 -1.00e+00 -1.00e+00 -1.00e+00 >  315.0337   -0.1675    0.0000  119.8987   -4.3650   -0.1090   23.8630 101.16  -1.0  -1.0  0     0.0000
IA_LUC ?    Z    ? P      ? 20240726 0521   18.9044 GAU  1.00e-01 -1.00e+00 -1.00e+00 -1.00e+00 >  315.6423    3.2239    0.0000  120.3225   -1.4262   -1.1020   23.9296  93.82  -1.0  -1.0  0     0.0000
IA_TIP ?    Z    ? P      ? 20240726 0521   16.0744 GAU  1.00e-01 -1.00e+00 -1.00e+00 -1.00e+00 >  316.0990   -0.0628    0.0000  120.4190    0.4890   -0.0410   23.9796  89.10  -1.0  -1.0  0     0.0000
IA_SAP ?    Z    ? P      ? 20240726 0521   19.3144 GAU  1.00e-01 -1.00e+00 -1.00e+00 -1.00e+00 >  316.7252    2.5510    0.0000  120.4640   -1.0000   -0.0250   24.0481  92.76  -1.0  -1.0  0     0.0000
IA_BNS ?    Z    ? P      ? 20240726 0521   17.8944 GAU  1.00e-01 -1.00e+00 -1.00e+00 -1.00e+00 >  316.9549    0.9013    0.0000  120.1065   -4.4006   -0.2610   24.0732 101.15  -1.0  -1.0  0     0.0000
IA_BBC ?    Z    ? P      ? 20240726 0521   18.0544 GAU  1.00e-01 -1.00e+00 -1.00e+00 -1.00e+00 >  317.6315    0.3847    0.0000  120.0580   -5.0392   -0.5460   24.1473 102.71  -1.0  -1.0  0     0.0000
IA_BKS ?    Z    ? P      ? 20240726 0521   19.2044 GAU  1.00e-01 -1.00e+00 -1.00e+00 -1.00e+00 >  318.7399    0.4264    0.0000  120.1224   -5.3219   -0.6060   24.2687 103.35  -1.0  -1.0  0     0.0000
IA_PUP ?    Z    ? P      ? 20240726 0521   20.1544 GAU  1.00e-01 -1.00e+00 -1.00e+00 -1.00e+00 >  319.0514    1.0649    0.0000  120.6760   -1.7330   -0.6700   24.3028  94.51  -1.0  -1.0  0     0.0000
