NLLOC "/home/sysop/seiscomp/share/nll/data/output/NLL.20240822050730.973934.24689.20211110.025022.grid0" "LOCATED" "Location completed."
PUBLIC_ID None
SIGNATURE "Anthony Lomax   obs:-   NLLoc:v7.00.13(17Jan2022)   run:22Aug2024 12h07m31"
COMMENT "BMKG events"
GRID  361 181 601  -180 -90 0  1 1 1 PROB_DENSITY
SEARCH OCTREE nInitial 17628 nEvaluated 50012 smallestNodeSide 0.411495/0.407209/0.097656 oct_tree_integral 2.779170e+02 scatter_volume 2.779170e+02
HYPOCENTER  x 105.959 y -7.59705 z 20.0684  OT 9.88291  ix -1 iy -1 iz -1 MAXIMUM_LIKELIHOOD
GEOGRAPHIC  OT 2021 11 10  02 50 9.882911  Lat -7.597046 Long 105.959087 Depth 20.068359
QUALITY  Pmax 6.1556e+88 MFmin 27.7835 MFmax 27.8372 RMS 0.519209 Nphs 34 Gap 259.27 Dist 0.617758 Mamp -9.90 0 Mdur -9.90 0
VPVSRATIO  VpVsRatio 1.75003  Npair 15  Diff 18.319
STATISTICS  ExpectX 105.965501 Y -7.581656 Z 23.218867  CovXX 4.80989 XY 1.95137 XZ 2.06195 YY 8.32427 YZ 6.69613 ZZ 24.8316 EllAz1  299.305 Dip1  -4.0392 Len1  3.70162 Az2  210.814 Dip2  20.4537 Len2  4.81957 Len3  9.853364e+00
STAT_GEOG  ExpectLat -7.581656 Long 105.965501 Depth 23.218867
TRANSFORM  GLOBAL
QML_OriginQuality  assocPhCt 83  usedPhCt 34  assocStaCt -1  usedStaCt 21  depthPhCt -1  stdErr 0.519209  azGap 259.27  secAzGap 268.657  gtLevel -  minDist 68.6916 maxDist 201.852 medDist 146.91
QML_OriginUncertainty  horUnc -1  minHorUnc 3.01075  maxHorUnc 4.59825  azMaxHorUnc 23.9986
QML_ConfidenceEllipsoid  semiMajorAxisLength 9.85336  semiMinorAxisLength 3.70162  semiIntermediateAxisLength 4.81957  majorAxisPlunge 69.1158  majorAxisAzimuth 18.6393  majorAxisRotation 164.877
FOCALMECH  Hyp  -7.597046 105.959087 20.068359 Mech  0 0 0 mf  0 nObs -1
PHASE ID Ins Cmp On Pha  FM Date     HrMn   Sec     Err  ErrMag    Coda      Amp       Per  >   TTpred    Res       Weight    StaLoc(X  Y         Z)        SDist    SAzim  RAz  RDip RQual    Tcorr 
IA_CSJ ?    Z    ? P      ? 20211110 0250   22.4004 GAU  1.00e-01 -1.00e+00 -1.00e+00 -1.00e+00 >   12.1013    0.4162    1.1495  106.5210   -7.3302   -0.1530    0.6178  64.44  -1.0  -1.0  0     0.0000
IA_CSJ ?    R    ? S      ? 20211110 0250   31.2206 GAU  1.00e-01 -1.00e+00 -1.00e+00 -1.00e+00 >   20.9210    0.4167    1.1492  106.5210   -7.3302   -0.1530    0.6178  64.44  -1.0  -1.0  0     0.0000
IA_WLJ ?    Z    ? P      ? 20211110 0250   24.6990 GAU  1.00e-01 -1.00e+00 -1.00e+00 -1.00e+00 >   14.6790    0.1371    1.2770  105.8909   -6.8311   -0.0460    0.7689 354.95  -1.0  -1.0  0     0.0000
IA_WLJ ?    R    ? S      ? 20211110 0250   35.1262 GAU  1.00e-01 -1.00e+00 -1.00e+00 -1.00e+00 >   25.3890   -0.1457    1.2847  105.8909   -6.8311   -0.0460    0.7689 354.95  -1.0  -1.0  0     0.0000
IA_SKJ ?    Z    ? P      ? 20211110 0250   25.5722 GAU  1.00e-01 -1.00e+00 -1.00e+00 -1.00e+00 >   15.8449   -0.1556    1.2826  106.5563   -7.0053   -0.1003    0.8373  45.07  -1.0  -1.0  0     0.0000
IA_SKJ ?    R    ? S      ? 20211110 0250   37.5230 GAU  1.00e-01 -1.00e+00 -1.00e+00 -1.00e+00 >   27.4098    0.2303    1.2465  106.5563   -7.0053   -0.1003    0.8373  45.07  -1.0  -1.0  0     0.0000
IA_PSJ ?    Z    ? P      ? 20211110 0250   25.9956 GAU  1.00e-01 -1.00e+00 -1.00e+00 -1.00e+00 >   16.2106   -0.0980    1.2925  106.5491   -6.9686   -0.2050    0.8587  43.00  -1.0  -1.0  0     0.0000
IA_PSJ ?    R    ? S      ? 20211110 0250   38.4226 GAU  1.00e-01 -1.00e+00 -1.00e+00 -1.00e+00 >   28.0438    0.4959    1.0957  106.5491   -6.9686   -0.2050    0.8587  43.00  -1.0  -1.0  0     0.0000
IA_WSJ ?    Z    ? P      ? 20211110 0250   27.9406 GAU  1.00e-01 -1.00e+00 -1.00e+00 -1.00e+00 >   18.3098   -0.2521    1.2545  106.7247   -6.9747   -0.3100    0.9818  50.72  -1.0  -1.0  0     0.0000
IA_WSJ ?    R    ? S      ? 20211110 0250   40.9389 GAU  1.00e-01 -1.00e+00 -1.00e+00 -1.00e+00 >   31.6824   -0.6264    1.0349  106.7247   -6.9747   -0.3100    0.9818  50.72  -1.0  -1.0  0     0.0000
IA_JTJ ?    Z    ? P      ? 20211110 0250   28.1174 GAU  1.00e-01 -1.00e+00 -1.00e+00 -1.00e+00 >   18.5291   -0.2946    1.2378  106.8015   -7.0573   -0.5280    0.9947  57.19  -1.0  -1.0  0     0.0000
IA_JTJ ?    R    ? S      ? 20211110 0250   41.3062 GAU  1.00e-01 -1.00e+00 -1.00e+00 -1.00e+00 >   32.0625   -0.6392    1.0252  106.8015   -7.0573   -0.5280    0.9947  57.19  -1.0  -1.0  0     0.0000
IA_CGJ ?    Z    ? P      ? 20211110 0250   27.8817 GAU  1.00e-01 -1.00e+00 -1.00e+00 -1.00e+00 >   18.9321   -0.9333    0.7843  105.6900   -6.6134   -0.1820    1.0192 344.80  -1.0  -1.0  0     0.0000
IA_CGJ ?    R    ? S      ? 20211110 0250   39.2611 GAU  1.00e-01 -1.00e+00 -1.00e+00 -1.00e+00 >   32.7877   -3.4095    0.0056  105.6900   -6.6134   -0.1820    1.0192 344.80  -1.0  -1.0  0     0.0000
IA_CNJ ?    Z    ? P      ? 20211110 0250   30.8286 GAU  1.00e-01 -1.00e+00 -1.00e+00 -1.00e+00 >   21.5621   -0.6164    1.0425  107.1296   -7.3090   -0.5890    1.1958  76.14  -1.0  -1.0  0     0.0000
IA_CNJ ?    R    ? S      ? 20211110 0250   46.5885 GAU  1.00e-01 -1.00e+00 -1.00e+00 -1.00e+00 >   37.8714   -1.1659    0.5947  107.1296   -7.3090   -0.5890    1.1958  76.14  -1.0  -1.0  0     0.0000
IA_SSJ ?    Z    ? P      ? 20211110 0250   31.3591 GAU  1.00e-01 -1.00e+00 -1.00e+00 -1.00e+00 >   21.9311   -0.4549    1.1539  106.9626   -6.8872   -0.8410    1.2227  54.57  -1.0  -1.0  0     0.0000
IA_SSJ ?    R    ? S      ? 20211110 0250   49.1663 GAU  1.00e-01 -1.00e+00 -1.00e+00 -1.00e+00 >   38.5494    0.7340    0.9078  106.9626   -6.8872   -0.8410    1.2227  54.57  -1.0  -1.0  0     0.0000
IA_CCJ ?    Z    ? P      ? 20211110 0250   32.9472 GAU  1.00e-01 -1.00e+00 -1.00e+00 -1.00e+00 >   23.0949   -0.0306    1.2973  107.1402   -7.0169   -0.0480    1.3073  63.73  -1.0  -1.0  0     0.0000
IA_CCJ ?    R    ? S      ? 20211110 0250   49.4212 GAU  1.00e-01 -1.00e+00 -1.00e+00 -1.00e+00 >   40.6426   -1.1043    0.6433  107.1402   -7.0169   -0.0480    1.3073  63.73  -1.0  -1.0  0     0.0000
IA_CBJ ?    Z    ? P      ? 20211110 0250   33.3635 GAU  1.00e-01 -1.00e+00 -1.00e+00 -1.00e+00 >   23.2863    0.1943    1.2598  106.9349   -6.6981   -1.0064    1.3212  47.19  -1.0  -1.0  0     0.0000
IA_CBJ ?    T    ? S      ? 20211110 0250   49.0757 GAU  1.00e-01 -1.00e+00 -1.00e+00 -1.00e+00 >   40.9869   -1.7941    0.2130  106.9349   -6.6981   -1.0064    1.3212  47.19  -1.0  -1.0  0     0.0000
IA_SCJ ?    Z    ? P      ? 20211110 0250   35.2491 GAU  1.00e-01 -1.00e+00 -1.00e+00 -1.00e+00 >   25.2232    0.1430    1.2755  107.2221   -6.8437   -0.3270    1.4620  59.06  -1.0  -1.0  0     0.0000
IA_SCJ ?    T    ? S      ? 20211110 0250   55.5321 GAU  1.00e-01 -1.00e+00 -1.00e+00 -1.00e+00 >   44.4706    1.1785    0.5459  107.2221   -6.8437   -0.3270    1.4620  59.06  -1.0  -1.0  0     0.0000
IA_SBJ ?    Z    ? P      ? 20211110 0250   35.6831 GAU  1.00e-01 -1.00e+00 -1.00e+00 -1.00e+00 >   25.6797    0.1205    1.2810  106.1318   -6.1117   -0.0645    1.4952   6.60  -1.0  -1.0  0     0.0000
IA_CBJ ?    Z    ? P      ? 20211110 0250   36.2778 GAU  1.00e-01 -1.00e+00 -1.00e+00 -1.00e+00 >   26.2645    0.1304    1.2787  107.3562   -6.9309   -0.6790    1.5377  64.42  -1.0  -1.0  0     0.0000
IA_PTJ ?    Z    ? P      ? 20211110 0250   36.6347 GAU  1.00e-01 -1.00e+00 -1.00e+00 -1.00e+00 >   26.3668    0.3850    1.1687  106.7488   -6.2655   -0.0760    1.5452  30.54  -1.0  -1.0  0     0.0000
IA_PTJ ?    R    ? S      ? 20211110 0250   56.1559 GAU  1.00e-01 -1.00e+00 -1.00e+00 -1.00e+00 >   46.5275   -0.2545    1.2537  106.7488   -6.2655   -0.0760    1.5452  30.54  -1.0  -1.0  0     0.0000
IA_TNG ?    Z    ? P      ? 20211110 0250   37.5863 GAU  1.00e-01 -1.00e+00 -1.00e+00 -1.00e+00 >   26.8491    0.8543    0.8058  106.6470   -6.1720   -0.0400    1.5802  25.65  -1.0  -1.0  0     0.0000
IA_PBJ ?    Z    ? P      ? 20211110 0250   37.1105 GAU  1.00e-01 -1.00e+00 -1.00e+00 -1.00e+00 >   26.9587    0.2689    1.2301  107.4758   -7.0875   -1.0900    1.5882  71.38  -1.0  -1.0  0     0.0000
IA_BBJ ?    Z    ? P      ? 20211110 0250   38.0781 GAU  1.00e-01 -1.00e+00 -1.00e+00 -1.00e+00 >   28.2448   -0.0496    1.2967  107.6500   -7.4626   -0.6150    1.6817  85.53  -1.0  -1.0  0     0.0000
IA_CWJ ?    Z    ? P      ? 20211110 0250   40.3448 GAU  1.00e-01 -1.00e+00 -1.00e+00 -1.00e+00 >   28.5511    1.9108    0.1814  107.4449   -6.7424   -0.6490    1.7040  59.99  -1.0  -1.0  0     0.0000
IA_PSL ?    Z    ? P      ? 20211110 0250   38.4416 GAU  1.00e-01 -1.00e+00 -1.00e+00 -1.00e+00 >   28.7518   -0.1931    1.2734  105.5100   -5.9373   -0.0390    1.7186 344.93  -1.0  -1.0  0     0.0000
IA_LEM ?    Z    ? P      ? 20211110 0250   41.8912 GAU  1.00e-01 -1.00e+00 -1.00e+00 -1.00e+00 >   30.0819    1.9264    0.1767  107.6143   -6.8232   -1.2000    1.8153  64.88  -1.0  -1.0  0     0.0000
IA_PPL ?    Z    ? P      ? 20211110 0250   41.4297 GAU  1.00e-01 -1.00e+00 -1.00e+00 -1.00e+00 >   32.9597   -1.4129    0.0000  105.1449   -5.7410   -0.0630    2.0245 336.41  -1.0  -1.0  0     0.0000
IA_TSJ ?    Z    ? P      ? 20211110 0250   44.6271 GAU  1.00e-01 -1.00e+00 -1.00e+00 -1.00e+00 >   33.0462    1.6979    0.0000  107.8109   -6.7319   -0.4200    2.0308  64.90  -1.0  -1.0  0     0.0000
IA_PSS ?    Z    ? P      ? 20211110 0250   42.9125 GAU  1.00e-01 -1.00e+00 -1.00e+00 -1.00e+00 >   34.5401   -1.5105    0.0000  104.6953   -5.8644   -0.0060    2.1395 324.01  -1.0  -1.0  0     0.0000
IA_CSJ ?    Z    ? P      ? 20211110 0250   47.4834 GAU  1.00e-01 -1.00e+00 -1.00e+00 -1.00e+00 >   35.4785    2.1220    0.0000  108.0099   -6.7405   -0.3610    2.2077  67.30  -1.0  -1.0  0     0.0000
IA_CIJ ?    Z    ? P      ? 20211110 0250   47.7214 GAU  1.00e-01 -1.00e+00 -1.00e+00 -1.00e+00 >   35.8601    1.9784    0.0000  108.1959   -7.3174   -0.4180    2.2354  82.96  -1.0  -1.0  0     0.0000
IA_CIJ ?    R    ? S      ? 20211110 0251   14.8606 GAU  1.00e-01 -1.00e+00 -1.00e+00 -1.00e+00 >   63.6018    1.3759    0.0000  108.1959   -7.3174   -0.4180    2.2354  82.96  -1.0  -1.0  0     0.0000
IA_LLS ?    Z    ? P      ? 20211110 0250   45.2218 GAU  1.00e-01 -1.00e+00 -1.00e+00 -1.00e+00 >   36.7503   -1.4114    0.0000  104.8094   -5.6004   -0.0370    2.3002 330.16  -1.0  -1.0  0     0.0000
IA_LLS ?    R    ? S      ? 20211110 0251   11.9802 GAU  1.00e-01 -1.00e+00 -1.00e+00 -1.00e+00 >   65.2026   -3.1054    0.0000  104.8094   -5.6004   -0.0370    2.3002 330.16  -1.0  -1.0  0     0.0000
IA_TOJ ?    Z    ? P      ? 20211110 0250   48.9109 GAU  1.00e-01 -1.00e+00 -1.00e+00 -1.00e+00 >   36.9421    2.0859    0.0000  108.1344   -6.7621   -0.0730    2.3141  68.99  -1.0  -1.0  0     0.0000
IA_CIJ ?    Z    ? P      ? 20211110 0250   50.6951 GAU  1.00e-01 -1.00e+00 -1.00e+00 -1.00e+00 >   39.0867    1.7255    0.0000  108.1852   -6.4925   -0.0430    2.4701  63.58  -1.0  -1.0  0     0.0000
IA_CMJ ?    Z    ? P      ? 20211110 0250   48.7904 GAU  1.00e-01 -1.00e+00 -1.00e+00 -1.00e+00 >   39.1489   -0.2414    0.0000  108.4490   -7.7840   -0.0780    2.4746  94.50  -1.0  -1.0  0     0.0000
IA_BKJ ?    Z    ? P      ? 20211110 0250   52.1226 GAU  1.00e-01 -1.00e+00 -1.00e+00 -1.00e+00 >   40.3496    1.8901    0.0000  108.5322   -7.3633   -0.0840    2.5619  84.93  -1.0  -1.0  0     0.0000
IA_PKJ ?    Z    ? P      ? 20211110 0250   53.1931 GAU  1.00e-01 -1.00e+00 -1.00e+00 -1.00e+00 >   40.7133    2.5968    0.0000  108.4399   -6.7958   -0.2900    2.5883  72.12  -1.0  -1.0  0     0.0000
IA_UTS ?    Z    ? P      ? 20211110 0250   51.3138 GAU  1.00e-01 -1.00e+00 -1.00e+00 -1.00e+00 >   41.9582   -0.5273    0.0000  104.5510   -5.3126   -0.8820    2.6789 328.43  -1.0  -1.0  0     0.0000
IA_KPJ ?    Z    ? P      ? 20211110 0250   58.0701 GAU  1.00e-01 -1.00e+00 -1.00e+00 -1.00e+00 >   45.8033    2.3839    0.0000  108.9310   -7.3333   -0.1110    2.9585  85.08  -1.0  -1.0  0     0.0000
IA_KLI ?    Z    ? P      ? 20211110 0250   55.8101 GAU  1.00e-01 -1.00e+00 -1.00e+00 -1.00e+00 >   45.8959    0.0313    0.0000  104.8705   -4.8363   -0.0640    2.9652 338.53  -1.0  -1.0  0     0.0000
IA_PPS ?    Z    ? P      ? 20211110 0250   56.8806 GAU  1.00e-01 -1.00e+00 -1.00e+00 -1.00e+00 >   46.1949    0.8028    0.0000  104.0156   -5.3182   -0.0030    2.9870 319.61  -1.0  -1.0  0     0.0000
IA_SUS ?    Z    ? P      ? 20211110 0250   56.9996 GAU  1.00e-01 -1.00e+00 -1.00e+00 -1.00e+00 >   47.2177   -0.1010    0.0000  104.2945   -5.0212   -1.0550    3.0614 327.19  -1.0  -1.0  0     0.0000
IA_KLS ?    Z    ? P      ? 20211110 0250   58.1891 GAU  1.00e-01 -1.00e+00 -1.00e+00 -1.00e+00 >   48.5111   -0.2050    0.0000  104.7317   -4.6871   -0.0807    3.1554 337.18  -1.0  -1.0  0     0.0000
IA_SCJ ?    Z    ? P      ? 20211110 0251    0.3302 GAU  1.00e-01 -1.00e+00 -1.00e+00 -1.00e+00 >   48.8827    1.5646    0.0000  109.1689   -7.6810   -0.0450    3.1824  91.72  -1.0  -1.0  0     0.0000
IA_BOS ?    Z    ? P      ? 20211110 0251    0.2113 GAU  1.00e-01 -1.00e+00 -1.00e+00 -1.00e+00 >   51.1571   -0.8287    0.0000  104.0207   -4.8592   -0.6400    3.3479 324.75  -1.0  -1.0  0     0.0000
IA_LES ?    Z    ? P      ? 20211110 0251    0.9250 GAU  1.00e-01 -1.00e+00 -1.00e+00 -1.00e+00 >   52.6199   -1.5778    0.0000  103.7126   -4.9615   -0.0390    3.4543 319.60  -1.0  -1.0  0     0.0000
IA_BUJ ?    Z    ? P      ? 20211110 0251    3.8988 GAU  1.00e-01 -1.00e+00 -1.00e+00 -1.00e+00 >   52.8981    1.1178    0.0000  109.4613   -7.7560   -0.0570    3.4745  92.86  -1.0  -1.0  0     0.0000
IA_MDS ?    Z    ? P      ? 20211110 0251    3.3040 GAU  1.00e-01 -1.00e+00 -1.00e+00 -1.00e+00 >   54.3428   -0.9217    0.0000  104.1783   -4.4861   -0.1110    3.5796 330.25  -1.0  -1.0  0     0.0000
IA_PKJ ?    Z    ? P      ? 20211110 0251    8.1810 GAU  1.00e-01 -1.00e+00 -1.00e+00 -1.00e+00 >   54.8471    3.4510    0.0000  109.5798   -7.1678   -0.8470    3.6162  83.42  -1.0  -1.0  0     0.0000
IA_MBJ ?    Z    ? P      ? 20211110 0251    6.6191 GAU  1.00e-01 -1.00e+00 -1.00e+00 -1.00e+00 >   55.2386    1.4976    0.0000  109.6324   -7.4489   -0.0490    3.6447  87.91  -1.0  -1.0  0     0.0000
IA_UGM ?    Z    ? P      ? 20211110 0251   18.6660 GAU  1.00e-01 -1.00e+00 -1.00e+00 -1.00e+00 >   67.4525    1.3306    0.0000  110.5231   -7.9125   -0.3500    4.5332  94.30  -1.0  -1.0  0     0.0000
IA_GKJ ?    Z    ? P      ? 20211110 0251   23.2723 GAU  1.00e-01 -1.00e+00 -1.00e+00 -1.00e+00 >   68.3369    5.0525    0.0000  110.5922   -7.8411   -0.2110    4.5976  93.35  -1.0  -1.0  0     0.0000
IA_BOJ ?    Z    ? P      ? 20211110 0251   22.1156 GAU  1.00e-01 -1.00e+00 -1.00e+00 -1.00e+00 >   69.5929    2.6398    0.0000  110.6894   -7.5682   -0.1960    4.6890  89.96  -1.0  -1.0  0     0.0000
IA_PRJ ?    Z    ? P      ? 20211110 0251   22.7104 GAU  1.00e-01 -1.00e+00 -1.00e+00 -1.00e+00 >   71.2708    1.5567    0.0000  110.7918   -8.0722   -0.3370    4.8111  95.99  -1.0  -1.0  0     0.0000
IA_WOJ ?    Z    ? P      ? 20211110 0251   24.0188 GAU  1.00e-01 -1.00e+00 -1.00e+00 -1.00e+00 >   72.8418    1.2941    0.0000  110.9236   -7.8372   -0.1836    4.9254  93.13  -1.0  -1.0  0     0.0000
IA_ULS ?    Z    ? P      ? 20211110 0251   21.9967 GAU  1.00e-01 -1.00e+00 -1.00e+00 -1.00e+00 >   73.3810   -1.2672    0.0000  102.7941   -3.7588   -0.2840    4.9646 320.46  -1.0  -1.0  0     0.0000
IA_TPI ?    Z    ? P      ? 20211110 0251   26.3650 GAU  1.00e-01 -1.00e+00 -1.00e+00 -1.00e+00 >   75.6019    0.8802    0.0000  107.6535   -2.7563   -0.0250    5.1262  19.30  -1.0  -1.0  0     0.0000
IA_PCJ ?    Z    ? P      ? 20211110 0251   27.7063 GAU  1.00e-01 -1.00e+00 -1.00e+00 -1.00e+00 >   76.6557    1.1677    0.0000  111.1771   -8.1947   -0.7023    5.2029  96.95  -1.0  -1.0  0     0.0000
IA_BLS ?    Z    ? P      ? 20211110 0251   28.3011 GAU  1.00e-01 -1.00e+00 -1.00e+00 -1.00e+00 >   80.0545   -1.6363    0.0000  102.8072   -3.1402   -0.0670    5.4503 324.69  -1.0  -1.0  0     0.0000
IA_ABS ?    Z    ? P      ? 20211110 0251   28.2665 GAU  1.00e-01 -1.00e+00 -1.00e+00 -1.00e+00 >   81.5844   -3.2008    0.0000  102.2630   -3.4254   -0.3800    5.5616 318.40  -1.0  -1.0  0     0.0000
IA_SNJ ?    Z    ? P      ? 20211110 0251   36.4742 GAU  1.00e-01 -1.00e+00 -1.00e+00 -1.00e+00 >   84.1824    2.4089    0.0000  111.7591   -7.7808   -1.3410    5.7508  92.22  -1.0  -1.0  0     0.0000
IA_MBS ?    Z    ? P      ? 20211110 0251   34.8434 GAU  1.00e-01 -1.00e+00 -1.00e+00 -1.00e+00 >   88.3474   -3.3869    0.0000  101.8374   -3.1451   -0.0370    6.0540 317.12  -1.0  -1.0  0     0.0000
IA_SLS ?    Z    ? P      ? 20211110 0251   38.2098 GAU  1.00e-01 -1.00e+00 -1.00e+00 -1.00e+00 >   90.2280   -1.9011    0.0000  102.5927   -2.3924   -0.0768    6.1909 327.04  -1.0  -1.0  0     0.0000
IA_JMS ?    Z    ? P      ? 20211110 0251   39.0861 GAU  1.00e-01 -1.00e+00 -1.00e+00 -1.00e+00 >   93.1818   -3.9786    0.0000  101.8875   -2.6372   -1.2750    6.4060 320.53  -1.0  -1.0  0     0.0000
IA_BLJ ?    Z    ? P      ? 20211110 0252    4.0221 GAU  1.00e-01 -1.00e+00 -1.00e+00 -1.00e+00 >  109.1472    4.9920    0.0000  113.5950   -7.7450   -0.0809    7.5689  91.63  -1.0  -1.0  0     0.0000
IA_JAS ?    Z    ? P      ? 20211110 0251   56.4676 GAU  1.00e-01 -1.00e+00 -1.00e+00 -1.00e+00 >  110.0914   -3.5068    0.0000  101.4584   -1.4145   -0.2530    7.6377 323.83  -1.0  -1.0  0     0.0000
IA_JAG ?    Z    ? P      ? 20211110 0252    9.6324 GAU  1.00e-01 -1.00e+00 -1.00e+00 -1.00e+00 >  117.2457    2.5038    0.0000  114.1520   -8.4703   -0.1710    8.1592  96.71  -1.0  -1.0  0     0.0000
IA_ABJ ?    Z    ? P      ? 20211110 0252   12.5508 GAU  1.00e-01 -1.00e+00 -1.00e+00 -1.00e+00 >  117.8450    4.8229    0.0000  114.2342   -7.7957   -0.1444    8.2028  91.94  -1.0  -1.0  0     0.0000
IA_BPS ?    Z    ? P      ? 20211110 0252    5.3506 GAU  1.00e-01 -1.00e+00 -1.00e+00 -1.00e+00 >  119.8015   -4.3338    0.0000  100.5900   -1.1924   -0.1100    8.3455 319.87  -1.0  -1.0  0     0.0000
IA_TRI ?    Z    ? P      ? 20211110 0252    6.7222 GAU  1.00e-01 -1.00e+00 -1.00e+00 -1.00e+00 >  120.9013   -4.0621    0.0000   99.5830   -2.0601   -0.0880    8.4257 310.76  -1.0  -1.0  0     0.0000
IA_NKB ?    Z    ? P      ? 20211110 0252   26.7757 GAU  1.00e-01 -1.00e+00 -1.00e+00 -1.00e+00 >  136.1329    0.7599    0.0000  115.5260   -8.7261   -0.4520    9.5367  97.46  -1.0  -1.0  0     0.0000
IA_KHK ?    Z    ? P      ? 20211110 0252   28.8216 GAU  1.00e-01 -1.00e+00 -1.00e+00 -1.00e+00 >  136.8299    2.1088    0.0000  115.6096   -8.3640   -0.2200    9.5875  95.25  -1.0  -1.0  0     0.0000
IA_MPS ?    Z    ? P      ? 20211110 0252   28.5848 GAU  1.00e-01 -1.00e+00 -1.00e+00 -1.00e+00 >  142.9664   -4.2645    0.0000  100.1383    0.5891   -0.1950   10.0354 324.41  -1.0  -1.0  0     0.0000
END_PHASE
END_NLLOC

