IA_MLMMI_  ? Z ? P ? 20240726 0350 09.9642 GAU 1.00e-01 -1.00e+00 -1.00e+00 -1.00e+00 1.00e+00
IA_KTMI_00 ? Z ? P ? 20240726 0350 29.7542 GAU 1.00e-01 -1.00e+00 -1.00e+00 -1.00e+00 1.00e+00
IA_AAI_    ? Z ? P ? 20240726 0350 43.1042 GAU 1.00e-01 -1.00e+00 -1.00e+00 -1.00e+00 1.00e+00
IA_TLE2_00 ? Z ? P ? 20240726 0350 50.8542 GAU 1.00e-01 -1.00e+00 -1.00e+00 -1.00e+00 1.00e+00
IA_ALKI_   ? Z ? P ? 20240726 0350 44.9042 GAU 1.00e-01 -1.00e+00 -1.00e+00 -1.00e+00 1.00e+00
IA_MTMTI_  ? Z ? P ? 20240726 0350 48.1842 GAU 1.00e-01 -1.00e+00 -1.00e+00 -1.00e+00 1.00e+00
IA_TTSMI_  ? Z ? P ? 20240726 0350 55.5042 GAU 1.00e-01 -1.00e+00 -1.00e+00 -1.00e+00 1.00e+00
IA_ATKTI_  ? Z ? P ? 20240726 0350 56.4242 GAU 1.00e-01 -1.00e+00 -1.00e+00 -1.00e+00 1.00e+00
IA_ASTTI_  ? Z ? P ? 20240726 0350 57.5242 GAU 1.00e-01 -1.00e+00 -1.00e+00 -1.00e+00 1.00e+00
IA_BATI_   ? Z ? P ? 20240726 0351 06.0242 GAU 1.00e-01 -1.00e+00 -1.00e+00 -1.00e+00 1.00e+00
IA_FAKI_   ? Z ? P ? 20240726 0351 04.6726 GAU 1.00e-01 -1.00e+00 -1.00e+00 -1.00e+00 1.00e+00
IA_LRTI_   ? Z ? P ? 20240726 0351 05.9292 GAU 1.00e-01 -1.00e+00 -1.00e+00 -1.00e+00 1.00e+00
IA_WWCI_00 ? Z ? P ? 20240726 0351 06.0542 GAU 1.00e-01 -1.00e+00 -1.00e+00 -1.00e+00 1.00e+00
IA_MBRPI_  ? Z ? P ? 20240726 0351 09.9642 GAU 1.00e-01 -1.00e+00 -1.00e+00 -1.00e+00 1.00e+00
IA_KUBSI_  ? Z ? P ? 20240726 0351 13.0242 GAU 1.00e-01 -1.00e+00 -1.00e+00 -1.00e+00 1.00e+00
IA_KORPI_  ? Z ? P ? 20240726 0351 15.7242 GAU 1.00e-01 -1.00e+00 -1.00e+00 -1.00e+00 1.00e+00
IA_BBSI_   ? Z ? P ? 20240726 0351 17.9042 GAU 1.00e-01 -1.00e+00 -1.00e+00 -1.00e+00 1.00e+00
IA_LOMSI_  ? Z ? P ? 20240726 0351 18.7242 GAU 1.00e-01 -1.00e+00 -1.00e+00 -1.00e+00 1.00e+00
IA_WTKSI_  ? Z ? P ? 20240726 0351 18.0042 GAU 1.00e-01 -1.00e+00 -1.00e+00 -1.00e+00 1.00e+00
IA_BATPI_  ? Z ? P ? 20240726 0351 19.0242 GAU 1.00e-01 -1.00e+00 -1.00e+00 -1.00e+00 1.00e+00
IA_MASFI_  ? Z ? P ? 20240726 0351 19.3242 GAU 1.00e-01 -1.00e+00 -1.00e+00 -1.00e+00 1.00e+00
IA_MUMUI_  ? Z ? P ? 20240726 0351 19.3642 GAU 1.00e-01 -1.00e+00 -1.00e+00 -1.00e+00 1.00e+00
IA_TSPI_00 ? Z ? P ? 20240726 0351 19.5542 GAU 1.00e-01 -1.00e+00 -1.00e+00 -1.00e+00 1.00e+00
IA_SWI_    ? Z ? P ? 20240726 0351 22.9242 GAU 1.00e-01 -1.00e+00 -1.00e+00 -1.00e+00 1.00e+00
IA_EDFI_   ? Z ? P ? 20240726 0351 23.7792 GAU 1.00e-01 -1.00e+00 -1.00e+00 -1.00e+00 1.00e+00
IA_GARPI_  ? Z ? P ? 20240726 0351 25.5042 GAU 1.00e-01 -1.00e+00 -1.00e+00 -1.00e+00 1.00e+00
IA_KDI_01  ? Z ? P ? 20240726 0351 26.3342 GAU 1.00e-01 -1.00e+00 -1.00e+00 -1.00e+00 1.00e+00
IA_PKCI_00 ? Z ? P ? 20240726 0351 25.6792 GAU 1.00e-01 -1.00e+00 -1.00e+00 -1.00e+00 1.00e+00
IA_TBMUI_  ? Z ? P ? 20240726 0351 27.4242 GAU 1.00e-01 -1.00e+00 -1.00e+00 -1.00e+00 1.00e+00
IA_GHMI_00 ? Z ? P ? 20240726 0351 26.7542 GAU 1.00e-01 -1.00e+00 -1.00e+00 -1.00e+00 1.00e+00
IA_POBSI_  ? Z ? P ? 20240726 0351 27.9642 GAU 1.00e-01 -1.00e+00 -1.00e+00 -1.00e+00 1.00e+00
IA_NANFI_  ? Z ? P ? 20240726 0351 29.1642 GAU 1.00e-01 -1.00e+00 -1.00e+00 -1.00e+00 1.00e+00
IA_WANPI_  ? Z ? P ? 20240726 0351 33.1842 GAU 1.00e-01 -1.00e+00 -1.00e+00 -1.00e+00 1.00e+00
IA_NBPI_   ? Z ? P ? 20240726 0351 35.1442 GAU 1.00e-01 -1.00e+00 -1.00e+00 -1.00e+00 1.00e+00
IA_UWNPI_  ? Z ? P ? 20240726 0351 34.4242 GAU 1.00e-01 -1.00e+00 -1.00e+00 -1.00e+00 1.00e+00
IA_KARPI_  ? Z ? P ? 20240726 0351 33.2242 GAU 1.00e-01 -1.00e+00 -1.00e+00 -1.00e+00 1.00e+00
IA_LKUCM_  ? Z ? P ? 20240726 0351 35.2760 GAU 1.00e-01 -1.00e+00 -1.00e+00 -1.00e+00 1.00e+00
IA_ANAPI_  ? Z ? P ? 20240726 0351 34.7042 GAU 1.00e-01 -1.00e+00 -1.00e+00 -1.00e+00 1.00e+00
IA_BBLSI_  ? Z ? P ? 20240726 0351 37.0792 GAU 1.00e-01 -1.00e+00 -1.00e+00 -1.00e+00 1.00e+00
IA_PSJCM_  ? Z ? P ? 20240726 0351 38.0760 GAU 1.00e-01 -1.00e+00 -1.00e+00 -1.00e+00 1.00e+00
IA_MSHHI_  ? Z ? P ? 20240726 0351 39.1242 GAU 1.00e-01 -1.00e+00 -1.00e+00 -1.00e+00 1.00e+00
IA_LMTI_00 ? Z ? P ? 20240726 0351 39.7292 GAU 1.00e-01 -1.00e+00 -1.00e+00 -1.00e+00 1.00e+00
IA_MIPI_00 ? Z ? P ? 20240726 0351 44.7542 GAU 1.00e-01 -1.00e+00 -1.00e+00 -1.00e+00 1.00e+00
IA_UMSSI_  ? Z ? P ? 20240726 0351 38.7842 GAU 1.00e-01 -1.00e+00 -1.00e+00 -1.00e+00 1.00e+00
IA_WKCM_   ? Z ? P ? 20240726 0351 41.4010 GAU 1.00e-01 -1.00e+00 -1.00e+00 -1.00e+00 1.00e+00
IA_TNTI_   ? Z ? P ? 20240726 0351 42.6526 GAU 1.00e-01 -1.00e+00 -1.00e+00 -1.00e+00 1.00e+00
IA_LEMFI_  ? Z ? P ? 20240726 0351 43.3042 GAU 1.00e-01 -1.00e+00 -1.00e+00 -1.00e+00 1.00e+00
IA_JHMI_00 ? Z ? P ? 20240726 0351 46.4292 GAU 1.00e-01 -1.00e+00 -1.00e+00 -1.00e+00 1.00e+00
IA_LBFI_00 ? Z ? P ? 20240726 0351 46.1842 GAU 1.00e-01 -1.00e+00 -1.00e+00 -1.00e+00 1.00e+00
IA_BKSI_   ? Z ? P ? 20240726 0351 48.4792 GAU 1.00e-01 -1.00e+00 -1.00e+00 -1.00e+00 1.00e+00
IA_WWPI_00 ? Z ? P ? 20240726 0351 53.0042 GAU 1.00e-01 -1.00e+00 -1.00e+00 -1.00e+00 1.00e+00
IA_KHSSI_  ? Z ? P ? 20240726 0351 46.6242 GAU 1.00e-01 -1.00e+00 -1.00e+00 -1.00e+00 1.00e+00
IA_WMCM_00 ? Z ? P ? 20240726 0351 51.1542 GAU 1.00e-01 -1.00e+00 -1.00e+00 -1.00e+00 1.00e+00
IA_YBYPI_  ? Z ? P ? 20240726 0351 51.7442 GAU 1.00e-01 -1.00e+00 -1.00e+00 -1.00e+00 1.00e+00
IA_TOBSI_  ? Z ? P ? 20240726 0351 50.8242 GAU 1.00e-01 -1.00e+00 -1.00e+00 -1.00e+00 1.00e+00
IA_BBCM_00 ? Z ? P ? 20240726 0351 50.7542 GAU 1.00e-01 -1.00e+00 -1.00e+00 -1.00e+00 1.00e+00
IA_KJCM_   ? Z ? P ? 20240726 0351 52.0260 GAU 1.00e-01 -1.00e+00 -1.00e+00 -1.00e+00 1.00e+00
IA_IHMI_00 ? Z ? P ? 20240726 0351 51.9792 GAU 1.00e-01 -1.00e+00 -1.00e+00 -1.00e+00 1.00e+00
IA_BNSI_   ? Z ? P ? 20240726 0351 52.7642 GAU 1.00e-01 -1.00e+00 -1.00e+00 -1.00e+00 1.00e+00
IA_PBCI_00 ? Z ? P ? 20240726 0351 54.0792 GAU 1.00e-01 -1.00e+00 -1.00e+00 -1.00e+00 1.00e+00
IA_BUMSI_  ? Z ? P ? 20240726 0351 55.0292 GAU 1.00e-01 -1.00e+00 -1.00e+00 -1.00e+00 1.00e+00
IA_TTPSI_  ? Z ? P ? 20240726 0351 55.1292 GAU 1.00e-01 -1.00e+00 -1.00e+00 -1.00e+00 1.00e+00
IA_LSCM_00 ? Z ? P ? 20240726 0351 56.1792 GAU 1.00e-01 -1.00e+00 -1.00e+00 -1.00e+00 1.00e+00
IA_BAKI_00 ? Z ? P ? 20240726 0351 59.4042 GAU 1.00e-01 -1.00e+00 -1.00e+00 -1.00e+00 1.00e+00
IA_BUBSI_  ? Z ? P ? 20240726 0351 56.3642 GAU 1.00e-01 -1.00e+00 -1.00e+00 -1.00e+00 1.00e+00
IA_SUSPI_  ? Z ? P ? 20240726 0351 57.8842 GAU 1.00e-01 -1.00e+00 -1.00e+00 -1.00e+00 1.00e+00
IA_PBMSI_  ? Z ? P ? 20240726 0351 59.9042 GAU 1.00e-01 -1.00e+00 -1.00e+00 -1.00e+00 1.00e+00
IA_MTAI_   ? Z ? P ? 20240726 0352 00.7292 GAU 1.00e-01 -1.00e+00 -1.00e+00 -1.00e+00 1.00e+00
IA_WBNI_   ? Z ? P ? 20240726 0351 58.3042 GAU 1.00e-01 -1.00e+00 -1.00e+00 -1.00e+00 1.00e+00
IA_APSI_   ? Z ? P ? 20240726 0352 01.3642 GAU 1.00e-01 -1.00e+00 -1.00e+00 -1.00e+00 1.00e+00
IA_KBSSI_  ? Z ? P ? 20240726 0351 58.0642 GAU 1.00e-01 -1.00e+00 -1.00e+00 -1.00e+00 1.00e+00
IA_PPCM_00 ? Z ? P ? 20240726 0352 01.0542 GAU 1.00e-01 -1.00e+00 -1.00e+00 -1.00e+00 1.00e+00
IA_TOTSI_  ? Z ? P ? 20240726 0352 02.0642 GAU 1.00e-01 -1.00e+00 -1.00e+00 -1.00e+00 1.00e+00
IA_UTUSI_  ? Z ? P ? 20240726 0352 04.1042 GAU 1.00e-01 -1.00e+00 -1.00e+00 -1.00e+00 1.00e+00
IA_PUPSI_  ? Z ? P ? 20240726 0352 03.6042 GAU 1.00e-01 -1.00e+00 -1.00e+00 -1.00e+00 1.00e+00
IA_OBMPI_  ? Z ? P ? 20240726 0352 09.0042 GAU 1.00e-01 -1.00e+00 -1.00e+00 -1.00e+00 1.00e+00
IA_PBNI_   ? Z ? P ? 20240726 0352 03.7842 GAU 1.00e-01 -1.00e+00 -1.00e+00 -1.00e+00 1.00e+00
IA_GTOI_00 ? Z ? P ? 20240726 0352 07.3642 GAU 1.00e-01 -1.00e+00 -1.00e+00 -1.00e+00 1.00e+00
IA_EDMPI_  ? Z ? P ? 20240726 0352 12.2642 GAU 1.00e-01 -1.00e+00 -1.00e+00 -1.00e+00 1.00e+00
IA_MTMPI_  ? Z ? P ? 20240726 0352 12.2442 GAU 1.00e-01 -1.00e+00 -1.00e+00 -1.00e+00 1.00e+00
IA_WAMI_00 ? Z ? P ? 20240726 0352 12.8042 GAU 1.00e-01 -1.00e+00 -1.00e+00 -1.00e+00 1.00e+00
IA_TSNI_   ? Z ? P ? 20240726 0352 06.7792 GAU 1.00e-01 -1.00e+00 -1.00e+00 -1.00e+00 1.00e+00
IA_TAPSI_  ? Z ? P ? 20240726 0352 08.5242 GAU 1.00e-01 -1.00e+00 -1.00e+00 -1.00e+00 1.00e+00
IA_MMCI_00 ? Z ? P ? 20240726 0352 10.5042 GAU 1.00e-01 -1.00e+00 -1.00e+00 -1.00e+00 1.00e+00
IA_MRSI_   ? Z ? P ? 20240726 0352 11.8042 GAU 1.00e-01 -1.00e+00 -1.00e+00 -1.00e+00 1.00e+00
IA_SAPSI_  ? Z ? P ? 20240726 0352 12.6842 GAU 1.00e-01 -1.00e+00 -1.00e+00 -1.00e+00 1.00e+00
IA_PMSI_   ? Z ? P ? 20240726 0352 12.9792 GAU 1.00e-01 -1.00e+00 -1.00e+00 -1.00e+00 1.00e+00
IA_ESNI_   ? Z ? P ? 20240726 0352 10.3042 GAU 1.00e-01 -1.00e+00 -1.00e+00 -1.00e+00 1.00e+00
IA_SMSI_   ? Z ? P ? 20240726 0352 13.7792 GAU 1.00e-01 -1.00e+00 -1.00e+00 -1.00e+00 1.00e+00
IA_PLAI_   ? Z ? P ? 20240726 0352 12.4760 GAU 1.00e-01 -1.00e+00 -1.00e+00 -1.00e+00 1.00e+00
IA_SBSSI_  ? Z ? P ? 20240726 0352 16.3842 GAU 1.00e-01 -1.00e+00 -1.00e+00 -1.00e+00 1.00e+00
IA_TRPI_   ? Z ? P ? 20240726 0352 21.8542 GAU 1.00e-01 -1.00e+00 -1.00e+00 -1.00e+00 1.00e+00
IA_RSNI_   ? Z ? P ? 20240726 0352 16.1042 GAU 1.00e-01 -1.00e+00 -1.00e+00 -1.00e+00 1.00e+00
IA_TPCI_00 ? Z ? P ? 20240726 0352 18.5792 GAU 1.00e-01 -1.00e+00 -1.00e+00 -1.00e+00 1.00e+00
IA_SATPI_  ? Z ? P ? 20240726 0352 22.4442 GAU 1.00e-01 -1.00e+00 -1.00e+00 -1.00e+00 1.00e+00
IA_RDCM_00 ? Z ? P ? 20240726 0352 20.0292 GAU 1.00e-01 -1.00e+00 -1.00e+00 -1.00e+00 1.00e+00
IA_DOCM_00 ? Z ? P ? 20240726 0352 22.3292 GAU 1.00e-01 -1.00e+00 -1.00e+00 -1.00e+00 1.00e+00
IA_BBCI_00 ? Z ? P ? 20240726 0352 24.0542 GAU 1.00e-01 -1.00e+00 -1.00e+00 -1.00e+00 1.00e+00
IA_ELMPI_  ? Z ? P ? 20240726 0352 28.0442 GAU 1.00e-01 -1.00e+00 -1.00e+00 -1.00e+00 1.00e+00
IA_LSNI_   ? Z ? P ? 20240726 0352 21.4542 GAU 1.00e-01 -1.00e+00 -1.00e+00 -1.00e+00 1.00e+00
IA_TIPSI_  ? Z ? P ? 20240726 0352 24.8842 GAU 1.00e-01 -1.00e+00 -1.00e+00 -1.00e+00 1.00e+00
IA_BGCM_00 ? Z ? P ? 20240726 0352 26.0292 GAU 1.00e-01 -1.00e+00 -1.00e+00 -1.00e+00 1.00e+00
IA_BTSPI_  ? Z ? P ? 20240726 0352 29.8842 GAU 1.00e-01 -1.00e+00 -1.00e+00 -1.00e+00 1.00e+00
IA_MGAI_   ? Z ? P ? 20240726 0352 25.2042 GAU 1.00e-01 -1.00e+00 -1.00e+00 -1.00e+00 1.00e+00
IA_TOLI2_  ? Z ? P ? 20240726 0352 27.6126 GAU 1.00e-01 -1.00e+00 -1.00e+00 -1.00e+00 1.00e+00
IA_MPSI_   ? Z ? P ? 20240726 0352 28.5792 GAU 1.00e-01 -1.00e+00 -1.00e+00 -1.00e+00 1.00e+00
IA_LTNI_   ? Z ? P ? 20240726 0352 28.7642 GAU 1.00e-01 -1.00e+00 -1.00e+00 -1.00e+00 1.00e+00
IA_BYLI_00 ? Z ? P ? 20240726 0352 29.6292 GAU 1.00e-01 -1.00e+00 -1.00e+00 -1.00e+00 1.00e+00
IA_ARKPI_  ? Z ? P ? 20240726 0352 38.6042 GAU 1.00e-01 -1.00e+00 -1.00e+00 -1.00e+00 1.00e+00
IA_SJPM_   ? Z ? P ? 20240726 0352 38.9010 GAU 1.00e-01 -1.00e+00 -1.00e+00 -1.00e+00 1.00e+00
IA_KLNI_   ? Z ? P ? 20240726 0352 33.6642 GAU 1.00e-01 -1.00e+00 -1.00e+00 -1.00e+00 1.00e+00
IA_KMNI_   ? Z ? P ? 20240726 0352 34.4792 GAU 1.00e-01 -1.00e+00 -1.00e+00 -1.00e+00 1.00e+00
IA_MTJPI_  ? Z ? P ? 20240726 0352 42.1242 GAU 1.00e-01 -1.00e+00 -1.00e+00 -1.00e+00 1.00e+00
IA_MASSI_  ? Z ? P ? 20240726 0352 37.2642 GAU 1.00e-01 -1.00e+00 -1.00e+00 -1.00e+00 1.00e+00
IA_KHK_00  ? Z ? P ? 20240726 0352 39.7542 GAU 1.00e-01 -1.00e+00 -1.00e+00 -1.00e+00 1.00e+00
IA_NKBI_   ? Z ? P ? 20240726 0352 42.4260 GAU 1.00e-01 -1.00e+00 -1.00e+00 -1.00e+00 1.00e+00
IA_KBKI_   ? Z ? P ? 20240726 0352 48.2042 GAU 1.00e-01 -1.00e+00 -1.00e+00 -1.00e+00 1.00e+00
IA_SRBI_   ? Z ? P ? 20240726 0352 47.0842 GAU 1.00e-01 -1.00e+00 -1.00e+00 -1.00e+00 1.00e+00
IA_BDBI_   ? Z ? P ? 20240726 0352 48.6292 GAU 1.00e-01 -1.00e+00 -1.00e+00 -1.00e+00 1.00e+00
IA_BKB_    ? Z ? P ? 20240726 0352 55.4473 GAU 1.00e-01 -1.00e+00 -1.00e+00 -1.00e+00 0.00e+00
IA_SMKI_   ? Z ? P ? 20240726 0352 50.8642 GAU 1.00e-01 -1.00e+00 -1.00e+00 -1.00e+00 1.00e+00
IA_SGKI_   ? Z ? P ? 20240726 0352 58.7042 GAU 1.00e-01 -1.00e+00 -1.00e+00 -1.00e+00 1.00e+00
IA_PAKI_   ? Z ? P ? 20240726 0352 54.1242 GAU 1.00e-01 -1.00e+00 -1.00e+00 -1.00e+00 1.00e+00
IA_GEBBI_  ? Z ? P ? 20240726 0352 50.6442 GAU 1.00e-01 -1.00e+00 -1.00e+00 -1.00e+00 1.00e+00
IA_BUKI_   ? Z ? P ? 20240726 0352 47.2442 GAU 1.00e-01 -1.00e+00 -1.00e+00 -1.00e+00 1.00e+00
IA_ABJI_   ? Z ? P ? 20240726 0353 01.7792 GAU 1.00e-01 -1.00e+00 -1.00e+00 -1.00e+00 1.00e+00
IA_JAGI_   ? Z ? P ? 20240726 0352 56.4526 GAU 1.00e-01 -1.00e+00 -1.00e+00 -1.00e+00 1.00e+00
IA_KMMI_   ? Z ? P ? 20240726 0353 06.5842 GAU 1.00e-01 -1.00e+00 -1.00e+00 -1.00e+00 1.00e+00
IA_KKTKI_  ? Z ? P ? 20240726 0353 05.4792 GAU 1.00e-01 -1.00e+00 -1.00e+00 -1.00e+00 1.00e+00
IA_BLJI_   ? Z ? P ? 20240726 0353 07.1042 GAU 1.00e-01 -1.00e+00 -1.00e+00 -1.00e+00 1.00e+00
IA_DBKI_00 ? Z ? P ? 20240726 0353 09.4042 GAU 1.00e-01 -1.00e+00 -1.00e+00 -1.00e+00 1.00e+00
IA_KUKI_   ? Z ? P ? 20240726 0353 09.8792 GAU 1.00e-01 -1.00e+00 -1.00e+00 -1.00e+00 1.00e+00
IA_KLJI_   ? Z ? P ? 20240726 0353 12.2010 GAU 1.00e-01 -1.00e+00 -1.00e+00 -1.00e+00 1.00e+00
IA_MTKI_   ? Z ? P ? 20240726 0353 12.6842 GAU 1.00e-01 -1.00e+00 -1.00e+00 -1.00e+00 1.00e+00
IA_PRLJI_  ? Z ? P ? 20240726 0353 12.3792 GAU 1.00e-01 -1.00e+00 -1.00e+00 -1.00e+00 1.00e+00
IA_TARAI_00 ? Z ? P ? 20240726 0353 14.8542 GAU 1.00e-01 -1.00e+00 -1.00e+00 -1.00e+00 1.00e+00
IA_POKJI_  ? Z ? P ? 20240726 0353 16.0242 GAU 1.00e-01 -1.00e+00 -1.00e+00 -1.00e+00 1.00e+00
IA_BAJI_   ? Z ? P ? 20240726 0353 21.1760 GAU 1.00e-01 -1.00e+00 -1.00e+00 -1.00e+00 1.00e+00
IA_PPJI_00 ? Z ? P ? 20240726 0353 17.4442 GAU 1.00e-01 -1.00e+00 -1.00e+00 -1.00e+00 1.00e+00
IA_WGJM_00 ? Z ? P ? 20240726 0353 23.5792 GAU 1.00e-01 -1.00e+00 -1.00e+00 -1.00e+00 1.00e+00
IA_GRJI_   ? Z ? P ? 20240726 0353 22.5542 GAU 1.00e-01 -1.00e+00 -1.00e+00 -1.00e+00 1.00e+00
IA_KKKKI_  ? Z ? P ? 20240726 0353 24.4792 GAU 1.00e-01 -1.00e+00 -1.00e+00 -1.00e+00 1.00e+00
IA_KPJM_00 ? Z ? P ? 20240726 0353 27.9542 GAU 1.00e-01 -1.00e+00 -1.00e+00 -1.00e+00 1.00e+00
IA_PWJI_   ? Z ? P ? 20240726 0353 27.2292 GAU 1.00e-01 -1.00e+00 -1.00e+00 -1.00e+00 1.00e+00
IA_SWJI_   ? Z ? P ? 20240726 0353 27.7442 GAU 1.00e-01 -1.00e+00 -1.00e+00 -1.00e+00 1.00e+00
IA_SNJI_00 ? Z ? P ? 20240726 0353 28.5542 GAU 1.00e-01 -1.00e+00 -1.00e+00 -1.00e+00 1.00e+00
IA_BAPJI_  ? Z ? P ? 20240726 0353 32.5442 GAU 1.00e-01 -1.00e+00 -1.00e+00 -1.00e+00 1.00e+00
IA_PCJI_   ? Z ? P ? 20240726 0353 33.7292 GAU 1.00e-01 -1.00e+00 -1.00e+00 -1.00e+00 1.00e+00
IA_WOJI_   ? Z ? P ? 20240726 0353 37.1792 GAU 1.00e-01 -1.00e+00 -1.00e+00 -1.00e+00 1.00e+00
IA_BMBNG_  ? Z ? P ? 20240726 0353 38.2073 GAU 1.00e-01 -1.00e+00 -1.00e+00 -1.00e+00 1.00e+00
IA_TAGJI_  ? Z ? P ? 20240726 0353 42.2042 GAU 1.00e-01 -1.00e+00 -1.00e+00 -1.00e+00 1.00e+00
IA_UGM_    ? Z ? P ? 20240726 0353 43.0126 GAU 1.00e-01 -1.00e+00 -1.00e+00 -1.00e+00 1.00e+00
IA_SYJI_   ? Z ? P ? 20240726 0353 39.8642 GAU 1.00e-01 -1.00e+00 -1.00e+00 -1.00e+00 1.00e+00
IA_PGJM_   ? Z ? P ? 20240726 0353 43.9760 GAU 1.00e-01 -1.00e+00 -1.00e+00 -1.00e+00 1.00e+00
IA_GTJI_   ? Z ? P ? 20240726 0353 46.1273 GAU 1.00e-01 -1.00e+00 -1.00e+00 -1.00e+00 1.00e+00
IA_SAKJI_  ? Z ? P ? 20240726 0353 45.0442 GAU 1.00e-01 -1.00e+00 -1.00e+00 -1.00e+00 1.00e+00
IA_KKJM_00 ? Z ? P ? 20240726 0353 45.3792 GAU 1.00e-01 -1.00e+00 -1.00e+00 -1.00e+00 1.00e+00
IA_MBJI_00 ? Z ? P ? 20240726 0353 51.0842 GAU 1.00e-01 -1.00e+00 -1.00e+00 -1.00e+00 1.00e+00
IA_NKKI_00 ? Z ? P ? 20240726 0353 54.8042 GAU 1.00e-01 -1.00e+00 -1.00e+00 -1.00e+00 1.00e+00
IA_KPJI_   ? Z ? P ? 20240726 0353 57.9292 GAU 1.00e-01 -1.00e+00 -1.00e+00 -1.00e+00 1.00e+00
IA_SICJI_  ? Z ? P ? 20240726 0353 58.6042 GAU 1.00e-01 -1.00e+00 -1.00e+00 -1.00e+00 1.00e+00
IA_PCJM_00 ? Z ? P ? 20240726 0354 03.7292 GAU 1.00e-01 -1.00e+00 -1.00e+00 -1.00e+00 1.00e+00
IA_CMJI_   ? Z ? P ? 20240726 0354 02.2042 GAU 1.00e-01 -1.00e+00 -1.00e+00 -1.00e+00 1.00e+00
IA_PKJM_00 ? Z ? P ? 20240726 0354 04.9542 GAU 1.00e-01 -1.00e+00 -1.00e+00 -1.00e+00 1.00e+00
IA_CIJM_00 ? Z ? P ? 20240726 0354 07.8042 GAU 1.00e-01 -1.00e+00 -1.00e+00 -1.00e+00 1.00e+00
IA_ACBM_   ? Z ? P ? 20240726 0354 11.0542 GAU 1.00e-01 -1.00e+00 -1.00e+00 -1.00e+00 1.00e+00
IA_BBJI_   ? Z ? P ? 20240726 0354 10.1673 GAU 1.00e-01 -1.00e+00 -1.00e+00 -1.00e+00 1.00e+00
IA_CWJM_00 ? Z ? P ? 20240726 0354 14.6542 GAU 1.00e-01 -1.00e+00 -1.00e+00 -1.00e+00 1.00e+00
IA_SCJM_00 ? Z ? P ? 20240726 0354 15.6792 GAU 1.00e-01 -1.00e+00 -1.00e+00 -1.00e+00 1.00e+00
IA_CNJI_   ? Z ? P ? 20240726 0354 15.7292 GAU 1.00e-01 -1.00e+00 -1.00e+00 -1.00e+00 1.00e+00
IA_SSKI_   ? Z ? P ? 20240726 0354 18.0292 GAU 1.00e-01 -1.00e+00 -1.00e+00 -1.00e+00 1.00e+00
IA_TPI_00  ? Z ? P ? 20240726 0354 20.3142 GAU 1.00e-01 -1.00e+00 -1.00e+00 -1.00e+00 1.00e+00
IA_SSJM_00 ? Z ? P ? 20240726 0354 17.7542 GAU 1.00e-01 -1.00e+00 -1.00e+00 -1.00e+00 1.00e+00
IA_JTJM_00 ? Z ? P ? 20240726 0354 18.5042 GAU 1.00e-01 -1.00e+00 -1.00e+00 -1.00e+00 1.00e+00
IA_WSJM_00 ? Z ? P ? 20240726 0354 19.7292 GAU 1.00e-01 -1.00e+00 -1.00e+00 -1.00e+00 1.00e+00
IA_PSJM_00 ? Z ? P ? 20240726 0354 21.0792 GAU 1.00e-01 -1.00e+00 -1.00e+00 -1.00e+00 1.00e+00
IA_CSJI_   ? Z ? P ? 20240726 0354 23.3260 GAU 1.00e-01 -1.00e+00 -1.00e+00 -1.00e+00 1.00e+00
IA_CILJI_  ? Z ? P ? 20240726 0354 23.1042 GAU 1.00e-01 -1.00e+00 -1.00e+00 -1.00e+00 1.00e+00
IA_CGJI_   ? Z ? P ? 20240726 0354 29.5642 GAU 1.00e-01 -1.00e+00 -1.00e+00 -1.00e+00 1.00e+00
IA_SUPJI_  ? Z ? P ? 20240726 0354 33.5042 GAU 1.00e-01 -1.00e+00 -1.00e+00 -1.00e+00 1.00e+00
IA_SUSM_00 ? Z ? P ? 20240726 0354 43.9792 GAU 1.00e-01 -1.00e+00 -1.00e+00 -1.00e+00 1.00e+00
IA_BLSM_00 ? Z ? P ? 20240726 0355 00.5042 GAU 1.00e-01 -1.00e+00 -1.00e+00 -1.00e+00 1.00e+00
IA_UMKSI_  ? Z ? P ? 20240726 0355 03.6642 GAU 1.00e-01 -1.00e+00 -1.00e+00 -1.00e+00 1.00e+00
IA_SLSI_   ? Z ? P ? 20240726 0355 05.2642 GAU 1.00e-01 -1.00e+00 -1.00e+00 -1.00e+00 1.00e+00
IA_IHRSI_  ? Z ? P ? 20240726 0355 07.0842 GAU 1.00e-01 -1.00e+00 -1.00e+00 -1.00e+00 1.00e+00
IA_MBBI_   ? Z ? P ? 20240726 0355 11.9010 GAU 1.00e-01 -1.00e+00 -1.00e+00 -1.00e+00 1.00e+00
IA_PRSI_   ? Z ? P ? 20240726 0355 19.0792 GAU 1.00e-01 -1.00e+00 -1.00e+00 -1.00e+00 1.00e+00
IA_KRJI_   ? Z ? P ? 20240726 0355 15.5042 GAU 1.00e-01 -1.00e+00 -1.00e+00 -1.00e+00 1.00e+00
IA_SKSM_00 ? Z ? P ? 20240726 0355 15.8042 GAU 1.00e-01 -1.00e+00 -1.00e+00 -1.00e+00 1.00e+00
IA_GTSI_00 ? Z ? P ? 20240726 0355 19.3792 GAU 1.00e-01 -1.00e+00 -1.00e+00 -1.00e+00 1.00e+00
IA_SSSM_00 ? Z ? P ? 20240726 0355 17.3292 GAU 1.00e-01 -1.00e+00 -1.00e+00 -1.00e+00 1.00e+00
IA_BPSM_00 ? Z ? P ? 20240726 0355 22.5792 GAU 1.00e-01 -1.00e+00 -1.00e+00 -1.00e+00 1.00e+00
IA_LBTSI_  ? Z ? P ? 20240726 0355 25.1042 GAU 1.00e-01 -1.00e+00 -1.00e+00 -1.00e+00 1.00e+00
IA_PDSI_   ? Z ? P ? 20240726 0355 24.5642 GAU 1.00e-01 -1.00e+00 -1.00e+00 -1.00e+00 1.00e+00
IA_PPI_00  ? Z ? P ? 20240726 0355 26.6442 GAU 1.00e-01 -1.00e+00 -1.00e+00 -1.00e+00 1.00e+00
IA_PLSI_   ? Z ? P ? 20240726 0355 28.4760 GAU 1.00e-01 -1.00e+00 -1.00e+00 -1.00e+00 1.00e+00
IA_RRHRI_  ? Z ? P ? 20240726 0355 30.7292 GAU 1.00e-01 -1.00e+00 -1.00e+00 -1.00e+00 1.00e+00
IA_RRSI_00 ? Z ? P ? 20240726 0355 32.4792 GAU 1.00e-01 -1.00e+00 -1.00e+00 -1.00e+00 1.00e+00
IA_RHRSI_  ? Z ? P ? 20240726 0355 29.7042 GAU 1.00e-01 -1.00e+00 -1.00e+00 -1.00e+00 1.00e+00
IA_SBSM_00 ? Z ? P ? 20240726 0355 35.2042 GAU 1.00e-01 -1.00e+00 -1.00e+00 -1.00e+00 1.00e+00
IA_ONSM_00 ? Z ? P ? 20240726 0355 49.0792 GAU 1.00e-01 -1.00e+00 -1.00e+00 -1.00e+00 1.00e+00
IA_TSI_    ? Z ? P ? 20240726 0355 54.3442 GAU 1.00e-01 -1.00e+00 -1.00e+00 -1.00e+00 1.00e+00
IA_TKSM_00 ? Z ? P ? 20240726 0355 54.2792 GAU 1.00e-01 -1.00e+00 -1.00e+00 -1.00e+00 1.00e+00
IA_LDSI_   ? Z ? P ? 20240726 0355 54.4292 GAU 1.00e-01 -1.00e+00 -1.00e+00 -1.00e+00 1.00e+00
IA_GSI_    ? Z ? P ? 20240726 0355 55.5260 GAU 1.00e-01 -1.00e+00 -1.00e+00 -1.00e+00 1.00e+00
IA_SSSI_00 ? Z ? P ? 20240726 0355 55.1442 GAU 1.00e-01 -1.00e+00 -1.00e+00 -1.00e+00 1.00e+00
IA_KASAI_  ? Z ? P ? 20240726 0355 56.1792 GAU 1.00e-01 -1.00e+00 -1.00e+00 -1.00e+00 1.00e+00
IA_LTNSI_  ? Z ? P ? 20240726 0355 57.9042 GAU 1.00e-01 -1.00e+00 -1.00e+00 -1.00e+00 1.00e+00
IA_TPTI_00 ? Z ? P ? 20240726 0356 03.7442 GAU 1.00e-01 -1.00e+00 -1.00e+00 -1.00e+00 1.00e+00
IA_SNSI_   ? Z ? P ? 20240726 0356 09.6642 GAU 1.00e-01 -1.00e+00 -1.00e+00 -1.00e+00 1.00e+00
