NLLOC "/home/sysop/seiscomp/share/nll/data/output/NLL.20240822042801.237843.25898.20240815.150838.grid0" "LOCATED" "Location completed."
PUBLIC_ID None
SIGNATURE "Anthony Lomax   obs:-   NLLoc:v7.00.13(17Jan2022)   run:22Aug2024 11h28m02"
COMMENT "BMKG events"
GRID  361 181 601  -180 -90 0  1 1 1 PROB_DENSITY
SEARCH OCTREE nInitial 17628 nEvaluated 50004 smallestNodeSide 0.814417/0.814417/0.195312 oct_tree_integral 2.357486e+03 scatter_volume 2.357486e+03
HYPOCENTER  x 130.206 y -6.27319 z 146.777  OT 5.61921  ix -1 iy -1 iz -1 MAXIMUM_LIKELIHOOD
GEOGRAPHIC  OT 2024 08 15  15 08 5.619206  Lat -6.273193 Long 130.206299 Depth 146.777344
QUALITY  Pmax 4.20043e+135 MFmin 41.1392 MFmax 41.1789 RMS 1.09464 Nphs 50 Gap 84.118 Dist 1.77639 Mamp -9.90 0 Mdur -9.90 0
VPVSRATIO  VpVsRatio -1  Npair 0  Diff -2e+30
STATISTICS  ExpectX 130.210031 Y -6.246039 Z 145.758889  CovXX 16.6811 XY -10.2533 XZ 11.6526 YY 79.3691 YZ 27.1895 ZZ 167.409 EllAz1  258.636 Dip1  6.21576 Len1  6.85859 Az2  347.031 Dip2  -14.423 Len2  16.2228 Len3  2.489564e+01
STAT_GEOG  ExpectLat -6.246039 Long 130.210031 Depth 145.758889
TRANSFORM  GLOBAL
QML_OriginQuality  assocPhCt 192  usedPhCt 50  assocStaCt -1  usedStaCt 50  depthPhCt -1  stdErr 1.09464  azGap 84.118  secAzGap 154.498  gtLevel -  minDist 197.525 maxDist 943.51 medDist 715.196
QML_OriginUncertainty  horUnc -1  minHorUnc 5.88281  maxHorUnc 13.6495  azMaxHorUnc 170.943
QML_ConfidenceEllipsoid  semiMajorAxisLength 24.8956  semiMinorAxisLength 6.85859  semiIntermediateAxisLength 16.2228  majorAxisPlunge 74.2409  majorAxisAzimuth 11.3379  majorAxisRotation 207.018
FOCALMECH  Hyp  -6.273193 130.206299 146.777344 Mech  0 0 0 mf  0 nObs -1
PHASE ID Ins Cmp On Pha  FM Date     HrMn   Sec     Err  ErrMag    Coda      Amp       Per  >   TTpred    Res       Weight    StaLoc(X  Y         Z)        SDist    SAzim  RAz  RDip RQual    Tcorr 
IA_BND ?    Z    ? P      ? 20240815 1508   38.2121 GAU  1.00e-01 -1.00e+00 -1.00e+00 -1.00e+00 >   32.3145    0.2784    1.2905  129.9045   -4.5224   -0.0160    1.7764 350.25  -1.0  -1.0  0     0.0000
IA_SAU ?    Z    ? P      ? 20240815 1508   40.8521 GAU  1.00e-01 -1.00e+00 -1.00e+00 -1.00e+00 >   35.1742    0.0587    1.3109  131.2988   -7.9826   -0.1100    2.0241 147.68  -1.0  -1.0  0     0.0000
IA_KKM ?    Z    ? P      ? 20240815 1508   49.7587 GAU  1.00e-01 -1.00e+00 -1.00e+00 -1.00e+00 >   41.7214    2.4181    0.5193  132.7180   -5.6923   -0.0720    2.5647  77.04  -1.0  -1.0  0     0.0000
IA_TLE ?    Z    ? P      ? 20240815 1508   51.0837 GAU  1.00e-01 -1.00e+00 -1.00e+00 -1.00e+00 >   41.9598    3.5047    0.1199  132.7395   -5.6994   -0.0340    2.5839  77.30  -1.0  -1.0  0     0.0000
IA_MLM ?    Z    ? P      ? 20240815 1508   52.3637 GAU  1.00e-01 -1.00e+00 -1.00e+00 -1.00e+00 >   47.7227   -0.9782    1.0976  127.7920   -8.1480   -0.0080    3.0416 231.80  -1.0  -1.0  0     0.0000
IA_MSA ?    Z    ? P      ? 20240815 1508   56.0237 GAU  1.00e-01 -1.00e+00 -1.00e+00 -1.00e+00 >   49.6432    0.7613    1.1694  128.9285   -3.3461   -0.0085    3.1920 336.43  -1.0  -1.0  0     0.0000
IA_AAI ?    Z    ? P      ? 20240815 1508   56.3437 GAU  1.00e-01 -1.00e+00 -1.00e+00 -1.00e+00 >   50.6684    0.0561    1.3109  128.1943   -3.6871   -0.1572    3.2718 322.13  -1.0  -1.0  0     0.0000
IA_KRA ?    Z    ? P      ? 20240815 1508   59.7437 GAU  1.00e-01 -1.00e+00 -1.00e+00 -1.00e+00 >   53.1272    0.9973    1.0842  128.3948   -3.3183   -0.0596    3.4625 328.50  -1.0  -1.0  0     0.0000
IA_TTS ?    Z    ? P      ? 20240815 1509    4.1637 GAU  1.00e-01 -1.00e+00 -1.00e+00 -1.00e+00 >   56.3939    2.1506    0.6308  128.7270   -2.8640   -0.0110    3.7143 336.55  -1.0  -1.0  0     0.0000
IA_FAK ?    Z    ? P      ? 20240815 1509    3.5521 GAU  1.00e-01 -1.00e+00 -1.00e+00 -1.00e+00 >   59.2311   -1.2982    0.9472  132.2650   -2.9192    0.0000    3.9318  31.55  -1.0  -1.0  0     0.0000
IA_KMP ?    Z    ? P      ? 20240815 1509   10.6837 GAU  1.00e-01 -1.00e+00 -1.00e+00 -1.00e+00 >   64.7814    0.2831    1.2898  133.7044   -3.6616   -0.0900    4.3547  53.31  -1.0  -1.0  0     0.0000
IA_MBR ?    Z    ? P      ? 20240815 1509   11.7437 GAU  1.00e-01 -1.00e+00 -1.00e+00 -1.00e+00 >   66.7845   -0.6600    1.2114  130.4070   -1.7710   -0.0020    4.5066   2.55  -1.0  -1.0  0     0.0000
IA_BAT ?    Z    ? P      ? 20240815 1509   17.7237 GAU  1.00e-01 -1.00e+00 -1.00e+00 -1.00e+00 >   72.4360   -0.3315    1.2867  133.4455   -2.5427   -0.0170    4.9339  41.02  -1.0  -1.0  0     0.0000
IA_KOR ?    Z    ? P      ? 20240815 1509   18.8837 GAU  1.00e-01 -1.00e+00 -1.00e+00 -1.00e+00 >   75.0097   -1.7452    0.6850  129.8450   -1.1580   -0.0110    5.1279 355.96  -1.0  -1.0  0     0.0000
IA_TSP ?    Z    ? P      ? 20240815 1509   19.3337 GAU  1.00e-01 -1.00e+00 -1.00e+00 -1.00e+00 >   75.3625   -1.6480    0.7460  132.0898   -1.4733   -0.0620    5.1544  21.45  -1.0  -1.0  0     0.0000
IA_SWI ?    Z    ? P      ? 20240815 1509   23.9437 GAU  1.00e-01 -1.00e+00 -1.00e+00 -1.00e+00 >   80.1093   -1.7848    0.6597  131.2592   -0.8628   -0.1289    5.5114  11.03  -1.0  -1.0  0     0.0000
IA_GAR ?    Z    ? P      ? 20240815 1509   28.9837 GAU  1.00e-01 -1.00e+00 -1.00e+00 -1.00e+00 >   84.5744   -1.2099    0.9921  129.9000   -0.4346   -0.0490    5.8465 356.99  -1.0  -1.0  0     0.0000
IA_ALK ?    Z    ? P      ? 20240815 1509   30.4837 GAU  1.00e-01 -1.00e+00 -1.00e+00 -1.00e+00 >   84.9831   -0.1186    1.3093  124.5903   -8.1445   -0.7200    5.8772 251.10  -1.0  -1.0  0     0.0000
IA_SAN ?    Z    ? P      ? 20240815 1509   32.9521 GAU  1.00e-01 -1.00e+00 -1.00e+00 -1.00e+00 >   86.0964    1.2365    0.9909  125.9881   -2.0497   -0.0240    5.9606 314.94  -1.0  -1.0  0     0.0000
IA_NBP ?    Z    ? P      ? 20240815 1509   34.3237 GAU  1.00e-01 -1.00e+00 -1.00e+00 -1.00e+00 >   86.8922    1.8122    0.7655  135.4972   -3.3656   -0.0988    6.0203  61.37  -1.0  -1.0  0     0.0000
IA_UWN ?    Z    ? P      ? 20240815 1509   33.7837 GAU  1.00e-01 -1.00e+00 -1.00e+00 -1.00e+00 >   87.2245    0.9400    1.1058  135.5870   -3.4790   -0.1170    6.0452  62.72  -1.0  -1.0  0     0.0000
IA_ANA ?    Z    ? P      ? 20240815 1509   33.5237 GAU  1.00e-01 -1.00e+00 -1.00e+00 -1.00e+00 >   88.9974   -1.0929    1.0477  133.9120   -1.3230   -2.0130    6.1780  36.90  -1.0  -1.0  0     0.0000
IA_MTM ?    Z    ? P      ? 20240815 1509   33.2837 GAU  1.00e-01 -1.00e+00 -1.00e+00 -1.00e+00 >   89.6311   -1.9666    0.5425  124.8800   -9.5800   -0.0250    6.2255 237.57  -1.0  -1.0  0     0.0000
IA_KAR ?    Z    ? P      ? 20240815 1509   34.8037 GAU  1.00e-01 -1.00e+00 -1.00e+00 -1.00e+00 >   90.1105   -0.9260    1.1188  130.9910   -0.0610   -0.0210    6.2614   7.21  -1.0  -1.0  0     0.0000
IA_GHM ?    Z    ? P      ? 20240815 1509   36.6337 GAU  1.00e-01 -1.00e+00 -1.00e+00 -1.00e+00 >   91.3757   -0.3613    1.2818  127.8797   -0.3563   -0.0370    6.3561 338.49  -1.0  -1.0  0     0.0000
IA_MUM ?    Z    ? P      ? 20240815 1509   39.4637 GAU  1.00e-01 -1.00e+00 -1.00e+00 -1.00e+00 >   93.4017    0.4428    1.2599  125.4810   -1.7850   -0.0110    6.5077 313.41  -1.0  -1.0  0     0.0000
IA_WWC ?    Z    ? P      ? 20240815 1509   42.5337 GAU  1.00e-01 -1.00e+00 -1.00e+00 -1.00e+00 >   96.2670    0.6475    1.2057  123.5251   -5.2724   -0.0260    6.7221 278.22  -1.0  -1.0  0     0.0000
IA_ATK ?    Z    ? P      ? 20240815 1509   41.9837 GAU  1.00e-01 -1.00e+00 -1.00e+00 -1.00e+00 >   97.6956   -1.3311    0.9298  124.0900   -9.4250   -0.1680    6.8290 242.12  -1.0  -1.0  0     0.0000
IA_MIP ?    Z    ? P      ? 20240815 1509   45.3337 GAU  1.00e-01 -1.00e+00 -1.00e+00 -1.00e+00 >   98.3995    1.3150    0.9599  136.8935   -4.5301   -0.0300    6.8816  75.66  -1.0  -1.0  0     0.0000
IA_AST ?    Z    ? P      ? 20240815 1509   43.2837 GAU  1.00e-01 -1.00e+00 -1.00e+00 -1.00e+00 >   99.5783   -1.9138    0.5766  124.2990  -10.0680   -0.1800    6.9698 236.62  -1.0  -1.0  0     0.0000
IA_MSH ?    Z    ? P      ? 20240815 1509   46.7437 GAU  1.00e-01 -1.00e+00 -1.00e+00 -1.00e+00 >  101.6875   -0.5630    1.2384  128.4250    0.6290   -0.0290    7.1275 345.49  -1.0  -1.0  0     0.0000
IA_KUB ?    Z    ? P      ? 20240815 1509   48.3437 GAU  1.00e-01 -1.00e+00 -1.00e+00 -1.00e+00 >  101.9091    0.8154    1.1508  123.1868   -4.7812   -0.0590    7.1441 281.70  -1.0  -1.0  0     0.0000
IA_WTK ?    Z    ? P      ? 20240815 1509   50.4837 GAU  1.00e-01 -1.00e+00 -1.00e+00 -1.00e+00 >  104.1308    0.7337    1.1785  123.2200   -4.0300   -0.0210    7.3103 287.53  -1.0  -1.0  0     0.0000
IA_WWP ?    Z    ? P      ? 20240815 1509   52.0587 GAU  1.00e-01 -1.00e+00 -1.00e+00 -1.00e+00 >  104.2180    2.2215    0.6017  136.3773   -2.3130   -0.0160    7.3168  57.50  -1.0  -1.0  0     0.0000
IA_YBY ?    Z    ? P      ? 20240815 1509   50.5237 GAU  1.00e-01 -1.00e+00 -1.00e+00 -1.00e+00 >  104.5007    0.4038    1.2683  136.0630   -1.8310   -0.0320    7.3379  52.99  -1.0  -1.0  0     0.0000
IA_LRT ?    Z    ? P      ? 20240815 1509   50.5587 GAU  1.00e-01 -1.00e+00 -1.00e+00 -1.00e+00 >  105.6369   -0.6974    1.2000  123.0000   -8.2752   -0.0530    7.4229 253.92  -1.0  -1.0  0     0.0000
IA_LOM ?    Z    ? P      ? 20240815 1509   54.7437 GAU  1.00e-01 -1.00e+00 -1.00e+00 -1.00e+00 >  107.3739    1.7506    0.7895  122.7416   -4.9109   -0.0580    7.5528 280.01  -1.0  -1.0  0     0.0000
IA_BAT ?    Z    ? P      ? 20240815 1509   53.2237 GAU  1.00e-01 -1.00e+00 -1.00e+00 -1.00e+00 >  107.6731   -0.0686    1.3114  123.6633  -10.2065   -0.3561    7.5752 238.29  -1.0  -1.0  0     0.0000
IA_TNT ?    Z    ? P      ? 20240815 1509   52.9121 GAU  1.00e-01 -1.00e+00 -1.00e+00 -1.00e+00 >  107.9220   -0.6291    1.2204  127.3667    0.7718   -0.0430    7.5938 337.99  -1.0  -1.0  0     0.0000
IA_BBS ?    Z    ? P      ? 20240815 1509   55.6587 GAU  1.00e-01 -1.00e+00 -1.00e+00 -1.00e+00 >  108.4840    1.5555    0.8654  122.5706   -5.4879   -0.0950    7.6359 275.50  -1.0  -1.0  0     0.0000
IA_BAK ?    Z    ? P      ? 20240815 1509   57.8837 GAU  1.00e-01 -1.00e+00 -1.00e+00 -1.00e+00 >  110.3616    1.9029    0.7299  136.1070   -1.1914   -0.0890    7.7764  49.43  -1.0  -1.0  0     0.0000
IA_SUS ?    Z    ? P      ? 20240815 1509   56.3637 GAU  1.00e-01 -1.00e+00 -1.00e+00 -1.00e+00 >  110.9188   -0.1743    1.3055  135.7340   -0.7320   -0.0110    7.8181  45.08  -1.0  -1.0  0     0.0000
IA_JHM ?    Z    ? P      ? 20240815 1509   56.5087 GAU  1.00e-01 -1.00e+00 -1.00e+00 -1.00e+00 >  111.2551   -0.3657    1.2811  127.4783    1.0821   -0.0360    7.8432 339.59  -1.0  -1.0  0     0.0000
IA_KDI ?    Z    ? P      ? 20240815 1510    0.4237 GAU  1.00e-01 -1.00e+00 -1.00e+00 -1.00e+00 >  112.0556    2.7489    0.3797  122.6193   -3.9574   -0.0550    7.9031 286.67  -1.0  -1.0  0     0.0000
IA_PKC ?    Z    ? P      ? 20240815 1510    0.4837 GAU  1.00e-01 -1.00e+00 -1.00e+00 -1.00e+00 >  114.1656    0.6989    1.1898  122.3436   -4.3507   -0.2010    8.0611 283.41  -1.0  -1.0  0     0.0000
IA_BBL ?    Z    ? P      ? 20240815 1510    2.1087 GAU  1.00e-01 -1.00e+00 -1.00e+00 -1.00e+00 >  114.9534    1.5361    0.8730  123.5217   -1.6375   -0.1420    8.1201 304.54  -1.0  -1.0  0     0.0000
IA_POB ?    Z    ? P      ? 20240815 1510    3.5037 GAU  1.00e-01 -1.00e+00 -1.00e+00 -1.00e+00 >  117.4712    0.4133    1.2663  122.0021   -4.7398   -0.1260    8.3087 280.22  -1.0  -1.0  0     0.0000
IA_MAS ?    Z    ? P      ? 20240815 1510    3.2037 GAU  1.00e-01 -1.00e+00 -1.00e+00 -1.00e+00 >  118.8983   -1.3138    0.9389  122.0320   -8.5370   -0.0130    8.4157 253.89  -1.0  -1.0  0     0.0000
IA_LKU ?    Z    ? P      ? 20240815 1510    7.9805 GAU  1.00e-01 -1.00e+00 -1.00e+00 -1.00e+00 >  119.8258    2.5355    0.4694  122.2332   -3.2924   -0.1070    8.4852 290.20  -1.0  -1.0  0     0.0000
IA_BGC ?    Z    ? P      ? 20240815 1510   12.3087 GAU  1.00e-01 -1.00e+00 -1.00e+00 -1.00e+00 >  122.3913    4.2982    0.0000  123.3911   -0.8816   -0.0110    8.6776 308.15  -1.0  -1.0  0     0.0000
IA_MTA ?    Z    ? P      ? 20240815 1510    7.8837 GAU  1.00e-01 -1.00e+00 -1.00e+00 -1.00e+00 >  122.5263   -0.2618    1.2965  128.2758    2.1980   -0.0240    8.6877 347.12  -1.0  -1.0  0     0.0000
IA_MTM ?    Z    ? P      ? 20240815 1510   12.3237 GAU  1.00e-01 -1.00e+00 -1.00e+00 -1.00e+00 >  123.4594    3.2451    0.0000  138.0370   -2.3050   -0.0670    8.7577  63.40  -1.0  -1.0  0     0.0000
IA_EDF ?    Z    ? P      ? 20240815 1510    9.0337 GAU  1.00e-01 -1.00e+00 -1.00e+00 -1.00e+00 >  123.9936   -0.5792    0.0000  121.6903   -8.7497   -0.9143    8.7978 253.12  -1.0  -1.0  0     0.0000
IA_WAM ?    Z    ? P      ? 20240815 1510   14.6337 GAU  1.00e-01 -1.00e+00 -1.00e+00 -1.00e+00 >  126.3586    2.6559    0.0000  138.9500   -4.0959   -1.6730    8.9754  76.38  -1.0  -1.0  0     0.0000
IA_OBM ?    Z    ? P      ? 20240815 1510   11.0237 GAU  1.00e-01 -1.00e+00 -1.00e+00 -1.00e+00 >  127.2317   -1.8272    0.0000  139.3000   -6.5550   -0.0210    9.0410  92.29  -1.0  -1.0  0     0.0000
IA_PBC ?    Z    ? P      ? 20240815 1510   12.8837 GAU  1.00e-01 -1.00e+00 -1.00e+00 -1.00e+00 >  127.5618   -0.2973    0.0000  124.0396    0.3830   -0.0330    9.0659 317.02  -1.0  -1.0  0     0.0000
IA_NAN ?    Z    ? P      ? 20240815 1510   14.3837 GAU  1.00e-01 -1.00e+00 -1.00e+00 -1.00e+00 >  128.9575   -0.1931    0.0000  121.3020   -8.7610   -0.6440    9.1708 253.71  -1.0  -1.0  0     0.0000
IA_WKC ?    Z    ? P      ? 20240815 1510   15.9055 GAU  1.00e-01 -1.00e+00 -1.00e+00 -1.00e+00 >  129.3865    0.8998    0.0000  121.2993   -3.8259   -0.1160    9.2030 285.00  -1.0  -1.0  0     0.0000
IA_TOB ?    Z    ? P      ? 20240815 1510   18.2237 GAU  1.00e-01 -1.00e+00 -1.00e+00 -1.00e+00 >  130.5249    2.0795    0.0000  122.2500   -1.4460   -0.0430    9.2887 300.99  -1.0  -1.0  0     0.0000
IA_EDM ?    Z    ? P      ? 20240815 1510   17.8037 GAU  1.00e-01 -1.00e+00 -1.00e+00 -1.00e+00 >  131.4396    0.7449    0.0000  139.5850   -7.1750   -0.0150    9.3575  96.07  -1.0  -1.0  0     0.0000
IA_WMC ?    Z    ? P      ? 20240815 1510   21.1587 GAU  1.00e-01 -1.00e+00 -1.00e+00 -1.00e+00 >  132.9568    2.5827    0.0000  121.6220   -2.2162   -0.0070    9.4717 294.99  -1.0  -1.0  0     0.0000
IA_BUB ?    Z    ? P      ? 20240815 1510   22.5037 GAU  1.00e-01 -1.00e+00 -1.00e+00 -1.00e+00 >  135.2727    1.6118    0.0000  122.2070   -0.8550   -0.0390    9.6462 303.86  -1.0  -1.0  0     0.0000
IA_SAT ?    Z    ? P      ? 20240815 1510    5.3837 GAU  1.00e-01 -1.00e+00 -1.00e+00 -1.00e+00 >  135.3317  -15.5672    0.0000  138.8700   -1.9720   -0.0140    9.6507  63.90  -1.0  -1.0  0     0.0000
IA_BUM ?    Z    ? P      ? 20240815 1510   25.3087 GAU  1.00e-01 -1.00e+00 -1.00e+00 -1.00e+00 >  137.7647    1.9248    0.0000  121.3346   -1.9778   -0.1210    9.8342 295.52  -1.0  -1.0  0     0.0000
IA_LMT ?    Z    ? P      ? 20240815 1510   25.2337 GAU  1.00e-01 -1.00e+00 -1.00e+00 -1.00e+00 >  138.9460    0.6685    0.0000  120.4771   -8.6011   -1.1450    9.9234 255.83  -1.0  -1.0  0     0.0000
IA_BKS ?    Z    ? P      ? 20240815 1510   26.3587 GAU  1.00e-01 -1.00e+00 -1.00e+00 -1.00e+00 >  140.9806   -0.2411    0.0000  120.1224   -5.3219   -0.6060   10.0771 274.89  -1.0  -1.0  0     0.0000
IA_APS ?    Z    ? P      ? 20240815 1510   28.8637 GAU  1.00e-01 -1.00e+00 -1.00e+00 -1.00e+00 >  141.0453    2.1992    0.0000  121.6487   -0.9108   -0.1435   10.0820 301.80  -1.0  -1.0  0     0.0000
IA_UMS ?    Z    ? P      ? 20240815 1510   22.7037 GAU  1.00e-01 -1.00e+00 -1.00e+00 -1.00e+00 >  141.5435   -4.4590    0.0000  120.6610   -9.8970   -0.0500   10.1196 248.39  -1.0  -1.0  0     0.0000
IA_GTO ?    Z    ? P      ? 20240815 1510   28.8837 GAU  1.00e-01 -1.00e+00 -1.00e+00 -1.00e+00 >  142.0179    1.2466    0.0000  122.8700    0.7628   -0.3133   10.1555 313.60  -1.0  -1.0  0     0.0000
IA_BBC ?    Z    ? P      ? 20240815 1510   27.7837 GAU  1.00e-01 -1.00e+00 -1.00e+00 -1.00e+00 >  142.2583   -0.0939    0.0000  120.0580   -5.0392   -0.5460   10.1737 276.45  -1.0  -1.0  0     0.0000
IA_UTU ?    Z    ? P      ? 20240815 1510   30.1087 GAU  1.00e-01 -1.00e+00 -1.00e+00 -1.00e+00 >  142.2728    2.2167    0.0000  121.8606   -0.4274   -0.0760   10.1748 304.75  -1.0  -1.0  0     0.0000
IA_BNS ?    Z    ? P      ? 20240815 1510   30.2637 GAU  1.00e-01 -1.00e+00 -1.00e+00 -1.00e+00 >  142.9808    1.6637    0.0000  120.1065   -4.4006   -0.2610   10.2283 280.05  -1.0  -1.0  0     0.0000
IA_BTS ?    Z    ? P      ? 20240815 1510   31.8037 GAU  1.00e-01 -1.00e+00 -1.00e+00 -1.00e+00 >  143.1199    3.0646    0.0000  139.7042   -2.3779   -0.0320   10.2388  68.05  -1.0  -1.0  0     0.0000
IA_TOT ?    Z    ? P      ? 20240815 1510   30.8437 GAU  1.00e-01 -1.00e+00 -1.00e+00 -1.00e+00 >  143.5065    1.7180    0.0000  121.2842   -1.1529   -0.0240   10.2681 299.55  -1.0  -1.0  0     0.0000
IA_KJC ?    Z    ? P      ? 20240815 1510   30.2555 GAU  1.00e-01 -1.00e+00 -1.00e+00 -1.00e+00 >  144.8824   -0.2461    0.0000  119.8026   -5.5646   -0.1990   10.3722 273.37  -1.0  -1.0  0     0.0000
IA_LSC ?    Z    ? P      ? 20240815 1510   32.0587 GAU  1.00e-01 -1.00e+00 -1.00e+00 -1.00e+00 >  145.7571    0.6824    0.0000  119.8987   -4.3650   -0.1090   10.4385 280.03  -1.0  -1.0  0     0.0000
IA_LBF ?    Z    ? P      ? 20240815 1510   30.7837 GAU  1.00e-01 -1.00e+00 -1.00e+00 -1.00e+00 >  146.0845   -0.9200    0.0000  119.8921   -8.4800   -0.0750   10.4633 257.19  -1.0  -1.0  0     0.0000
IA_TTP ?    Z    ? P      ? 20240815 1510   32.2587 GAU  1.00e-01 -1.00e+00 -1.00e+00 -1.00e+00 >  146.5236    0.1159    0.0000  119.7617   -4.8184   -0.3650   10.4966 277.44  -1.0  -1.0  0     0.0000
IA_PUP ?    Z    ? P      ? 20240815 1510   34.3637 GAU  1.00e-01 -1.00e+00 -1.00e+00 -1.00e+00 >  147.0067    1.7378    0.0000  120.6760   -1.7330   -0.6700   10.5332 295.14  -1.0  -1.0  0     0.0000
IA_ELM ?    Z    ? P      ? 20240815 1510   32.8037 GAU  1.00e-01 -1.00e+00 -1.00e+00 -1.00e+00 >  147.5734   -0.3889    0.0000  140.7890   -7.4890   -0.0510   10.5762  97.22  -1.0  -1.0  0     0.0000
IA_MRS ?    Z    ? P      ? 20240815 1510   35.3587 GAU  1.00e-01 -1.00e+00 -1.00e+00 -1.00e+00 >  148.6775    1.0620    0.0000  121.9406    0.4771   -0.0990   10.6599 309.00  -1.0  -1.0  0     0.0000
IA_SMS ?    Z    ? P      ? 20240815 1510   36.0087 GAU  1.00e-01 -1.00e+00 -1.00e+00 -1.00e+00 >  148.9027    1.4868    0.0000  122.3654    0.9885   -0.0854   10.6770 312.59  -1.0  -1.0  0     0.0000
IA_PPC ?    Z    ? P      ? 20240815 1510   37.7587 GAU  1.00e-01 -1.00e+00 -1.00e+00 -1.00e+00 >  149.7931    2.3464    0.0000  119.7269   -3.7270   -0.0480   10.7446 283.21  -1.0  -1.0  0     0.0000
IA_KHS ?    Z    ? P      ? 20240815 1510   31.4037 GAU  1.00e-01 -1.00e+00 -1.00e+00 -1.00e+00 >  149.9128   -4.1283    0.0000  119.9450   -9.8010   -0.6080   10.7537 250.18  -1.0  -1.0  0     0.0000
IA_MGA ?    Z    ? P      ? 20240815 1510   35.8337 GAU  1.00e-01 -1.00e+00 -1.00e+00 -1.00e+00 >  151.4510   -1.2365    0.0000  126.6700    4.0079   -0.0910   10.8705 340.96  -1.0  -1.0  0     0.0000
IA_SJP ?    Z    ? P      ? 20240815 1510   43.8055 GAU  1.00e-01 -1.00e+00 -1.00e+00 -1.00e+00 >  151.9825    6.2038    0.0000  140.5020   -2.5698   -0.1920   10.9109  70.61  -1.0  -1.0  0     0.0000
IA_ARK ?    Z    ? P      ? 20240815 1510   40.6237 GAU  1.00e-01 -1.00e+00 -1.00e+00 -1.00e+00 >  152.1565    2.8480    0.0000  140.5920   -2.7830   -0.0750   10.9241  71.83  -1.0  -1.0  0     0.0000
IA_SAP ?    Z    ? P      ? 20240815 1510   42.1437 GAU  1.00e-01 -1.00e+00 -1.00e+00 -1.00e+00 >  153.9105    2.6140    0.0000  120.4640   -1.0000   -0.0250   11.0575 298.10  -1.0  -1.0  0     0.0000
IA_MMC ?    Z    ? P      ? 20240815 1510   44.7337 GAU  1.00e-01 -1.00e+00 -1.00e+00 -1.00e+00 >  157.1482    1.9663    0.0000  119.3631   -2.9560   -1.1670   11.3041 286.57  -1.0  -1.0  0     0.0000
IA_TAP ?    Z    ? P      ? 20240815 1510   43.8837 GAU  1.00e-01 -1.00e+00 -1.00e+00 -1.00e+00 >  157.1829    1.0816    0.0000  119.2490   -3.3320   -0.0560   11.3067 284.57  -1.0  -1.0  0     0.0000
