NLLOC "/home/sysop/seiscomp/share/nll/data/output/NLL.20240822042750.056626.25374.20240726.054640.grid0" "LOCATED" "Location completed."
PUBLIC_ID None
SIGNATURE "Anthony Lomax   obs:-   NLLoc:v7.00.13(17Jan2022)   run:22Aug2024 11h27m51"
COMMENT "BMKG events"
GRID  361 181 601  -180 -90 0  1 1 1 PROB_DENSITY
SEARCH OCTREE nInitial 17628 nEvaluated 50020 smallestNodeSide 0.814417/0.814417/0.195312 oct_tree_integral 3.427612e+03 scatter_volume 3.427612e+03
HYPOCENTER  x 100.994 y -5.19287 z 0.195312  OT 16.0535  ix -1 iy -1 iz -1 MAXIMUM_LIKELIHOOD
GEOGRAPHIC  OT 2024 07 26  05 46 16.053472  Lat -5.192871 Long 100.993652 Depth 0.195312
QUALITY  Pmax 6.19446e+146 MFmin 41.1337 MFmax 41.1693 RMS 0.617044 Nphs 50 Gap 219.931 Dist 2.12502 Mamp -9.90 0 Mdur -9.90 0
VPVSRATIO  VpVsRatio -1  Npair 0  Diff -2e+30
STATISTICS  ExpectX 100.994524 Y -5.186936 Z 33.165876  CovXX 13.5066 XY 12.1117 XZ 5.39536 YY 17.383 YZ 6.54586 ZZ 426.029 EllAz1  130.461 Dip1  0.0193404 Len1  3.34991 Az2  220.461 Dip2  1.21929 Len2  9.85805 Len3  3.878815e+01
STAT_GEOG  ExpectLat -5.186936 Long 100.994524 Depth 33.165876
TRANSFORM  GLOBAL
QML_OriginQuality  assocPhCt 207  usedPhCt 50  assocStaCt -1  usedStaCt 50  depthPhCt -1  stdErr 0.617044  azGap 219.931  secAzGap 221.624  gtLevel -  minDist 236.292 maxDist 739.496 medDist 530.866
QML_OriginUncertainty  horUnc -1  minHorUnc 2.70404  maxHorUnc 7.98338  azMaxHorUnc 40.4541
QML_ConfidenceEllipsoid  semiMajorAxisLength 38.7881  semiMinorAxisLength 3.34991  semiIntermediateAxisLength 9.85805  majorAxisPlunge 88.7806  majorAxisAzimuth 39.5522  majorAxisRotation 359.09
FOCALMECH  Hyp  -5.192871 100.993652 0.195312 Mech  0 0 0 mf  0 nObs -1
PHASE ID Ins Cmp On Pha  FM Date     HrMn   Sec     Err  ErrMag    Coda      Amp       Per  >   TTpred    Res       Weight    StaLoc(X  Y         Z)        SDist    SAzim  RAz  RDip RQual    Tcorr 
IA_EGS ?    Z    ? P      ? 20240726 0546   40.3714 GAU  1.00e-01 -1.00e+00 -1.00e+00 -1.00e+00 >   24.6840   -0.3660    0.0000  102.2767   -5.3526   -0.0357    1.2876  97.18  -1.0  -1.0  0     0.0000
IA_MNA ?    Z    ? P      ? 20240726 0546   52.7198 GAU  1.00e-01 -1.00e+00 -1.00e+00 -1.00e+00 >   36.7228   -0.0564    1.2732  102.9557   -4.3605   -0.1540    2.1250  67.02  -1.0  -1.0  0     0.0000
IA_UMK ?    Z    ? P      ? 20240726 0546   53.6114 GAU  1.00e-01 -1.00e+00 -1.00e+00 -1.00e+00 >   38.1603   -0.6024    1.1057  102.5480   -3.5900   -0.7090    2.2295  44.10  -1.0  -1.0  0     0.0000
IA_PAS ?    Z    ? P      ? 20240726 0546   56.3914 GAU  1.00e-01 -1.00e+00 -1.00e+00 -1.00e+00 >   40.0062    0.3317    1.1857  100.2028   -2.9646   -0.0390    2.3638 340.48  -1.0  -1.0  0     0.0000
IA_PPS ?    Z    ? P      ? 20240726 0546   59.9514 GAU  1.00e-01 -1.00e+00 -1.00e+00 -1.00e+00 >   43.4987    0.3992    1.1537  100.0100   -2.7660   -0.0060    2.6177 337.95  -1.0  -1.0  0     0.0000
IA_JMS ?    Z    ? P      ? 20240726 0546   59.7932 GAU  1.00e-01 -1.00e+00 -1.00e+00 -1.00e+00 >   44.7236   -0.9839    0.8514  101.8875   -2.6372   -1.2750    2.7068  19.27  -1.0  -1.0  0     0.0000
IA_BLS ?    Z    ? P      ? 20240726 0547    1.1964 GAU  1.00e-01 -1.00e+00 -1.00e+00 -1.00e+00 >   45.1225    0.0204    1.2700  102.8072   -3.1402   -0.0670    2.7358  41.46  -1.0  -1.0  0     0.0000
IA_MKB ?    Z    ? P      ? 20240726 0547    0.9914 GAU  1.00e-01 -1.00e+00 -1.00e+00 -1.00e+00 >   45.4060   -0.4680    1.1741  101.2396   -2.4474   -0.0482    2.7564   5.12  -1.0  -1.0  0     0.0000
IA_STS ?    Z    ? P      ? 20240726 0547    2.1432 GAU  1.00e-01 -1.00e+00 -1.00e+00 -1.00e+00 >   46.0693    0.0204    1.2700  101.0478   -2.3887   -0.0160    2.8047   1.11  -1.0  -1.0  0     0.0000
IA_PPS ?    Z    ? P      ? 20240726 0547    5.3714 GAU  1.00e-01 -1.00e+00 -1.00e+00 -1.00e+00 >   48.9186    0.3994    1.1536  104.0156   -5.3182   -0.0030    3.0118  92.52  -1.0  -1.0  0     0.0000
IA_KRJ ?    Z    ? P      ? 20240726 0547    6.4314 GAU  1.00e-01 -1.00e+00 -1.00e+00 -1.00e+00 >   50.6349   -0.2570    1.2482  101.4619   -2.0912   -0.8109    3.1367   8.58  -1.0  -1.0  0     0.0000
IA_SLS ?    Z    ? P      ? 20240726 0547    8.1114 GAU  1.00e-01 -1.00e+00 -1.00e+00 -1.00e+00 >   51.8224    0.2356    1.2234  102.5927   -2.3924   -0.0768    3.2230  29.73  -1.0  -1.0  0     0.0000
IA_SKS ?    Z    ? P      ? 20240726 0547    7.6214 GAU  1.00e-01 -1.00e+00 -1.00e+00 -1.00e+00 >   52.4168   -0.8489    0.9486  101.3497   -1.9460   -0.9560    3.2663   6.26  -1.0  -1.0  0     0.0000
IA_SUS ?    Z    ? P      ? 20240726 0547    8.9464 GAU  1.00e-01 -1.00e+00 -1.00e+00 -1.00e+00 >   52.7738    0.1191    1.2554  104.2945   -5.0212   -1.0550    3.2922  87.16  -1.0  -1.0  0     0.0000
IA_BMS ?    Z    ? P      ? 20240726 0547   11.1182 GAU  1.00e-01 -1.00e+00 -1.00e+00 -1.00e+00 >   54.1636    0.9011    0.8202  102.3154   -2.0664   -0.1350    3.3933  22.92  -1.0  -1.0  0     0.0000
IA_TRI ?    Z    ? P      ? 20240726 0547   10.9432 GAU  1.00e-01 -1.00e+00 -1.00e+00 -1.00e+00 >   54.7300    0.1597    1.2460   99.5830   -2.0601   -0.0880    3.4345 335.75  -1.0  -1.0  0     0.0000
IA_SSS ?    Z    ? P      ? 20240726 0547   13.2464 GAU  1.00e-01 -1.00e+00 -1.00e+00 -1.00e+00 >   57.5137   -0.3208    1.2306  101.2375   -1.5641   -0.5630    3.6370   3.85  -1.0  -1.0  0     0.0000
IA_JAS ?    Z    ? P      ? 20240726 0547   15.6932 GAU  1.00e-01 -1.00e+00 -1.00e+00 -1.00e+00 >   59.8477   -0.2080    1.2586  101.4584   -1.4145   -0.2530    3.8067   7.02  -1.0  -1.0  0     0.0000
IA_MBB ?    Z    ? P      ? 20240726 0547   16.1432 GAU  1.00e-01 -1.00e+00 -1.00e+00 -1.00e+00 >   59.9629    0.1268    1.2538  102.0984   -1.5406   -0.1130    3.8151  16.84  -1.0  -1.0  0     0.0000
IA_SIS ?    Z    ? P      ? 20240726 0547   16.2714 GAU  1.00e-01 -1.00e+00 -1.00e+00 -1.00e+00 >   60.8745   -0.6565    1.0742   99.1402   -1.7806   -0.0390    3.8814 331.47  -1.0  -1.0  0     0.0000
IA_BPS ?    Z    ? P      ? 20240726 0547   18.0714 GAU  1.00e-01 -1.00e+00 -1.00e+00 -1.00e+00 >   62.7898   -0.7719    1.0011  100.5900   -1.1924   -0.1100    4.0207 354.23  -1.0  -1.0  0     0.0000
IA_PDS ?    Z    ? P      ? 20240726 0547   21.8914 GAU  1.00e-01 -1.00e+00 -1.00e+00 -1.00e+00 >   66.8200   -0.9821    0.8527  100.4617   -0.9118   -0.2756    4.3139 352.91  -1.0  -1.0  0     0.0000
IA_SLS ?    Z    ? P      ? 20240726 0547   24.6464 GAU  1.00e-01 -1.00e+00 -1.00e+00 -1.00e+00 >   67.6568    0.9362    0.7940  100.6534   -0.8313   -0.3890    4.3748 355.54  -1.0  -1.0  0     0.0000
IA_SIU ?    Z    ? P      ? 20240726 0547   26.0714 GAU  1.00e-01 -1.00e+00 -1.00e+00 -1.00e+00 >   69.8806    0.1374    1.2514   98.9800   -1.1260   -0.0090    4.5365 333.63  -1.0  -1.0  0     0.0000
IA_GTS ?    Z    ? P      ? 20240726 0547    7.6964 GAU  1.00e-01 -1.00e+00 -1.00e+00 -1.00e+00 >   71.0455  -19.4025    0.0000  101.4888   -0.5981   -0.0090    4.6213   6.16  -1.0  -1.0  0     0.0000
IA_LBT ?    Z    ? P      ? 20240726 0547   28.3514 GAU  1.00e-01 -1.00e+00 -1.00e+00 -1.00e+00 >   72.5700   -0.2720    1.2444  100.6250   -0.4750   -0.4170    4.7322 355.53  -1.0  -1.0  0     0.0000
IA_SUP ?    Z    ? P      ? 20240726 0547   30.6714 GAU  1.00e-01 -1.00e+00 -1.00e+00 -1.00e+00 >   73.1402    1.4777    0.4194  105.5150   -6.7960   -0.0510    4.7737 109.85  -1.0  -1.0  0     0.0000
IA_PPI ?    Z    ? P      ? 20240726 0547   28.8914 GAU  1.00e-01 -1.00e+00 -1.00e+00 -1.00e+00 >   73.1537   -0.3158    1.2321  100.3972   -0.4555   -0.7836    4.7747 352.82  -1.0  -1.0  0     0.0000
IA_CGJ ?    Z    ? P      ? 20240726 0547   29.6914 GAU  1.00e-01 -1.00e+00 -1.00e+00 -1.00e+00 >   74.6358   -0.9979    0.8411  105.6900   -6.6134   -0.1820    4.8825 107.15  -1.0  -1.0  0     0.0000
IA_RGR ?    Z    ? P      ? 20240726 0547   33.2214 GAU  1.00e-01 -1.00e+00 -1.00e+00 -1.00e+00 >   76.5970    0.5709    1.0547  102.3338   -0.3491   -0.0409    5.0252  15.49  -1.0  -1.0  0     0.0000
IA_SBJ ?    Z    ? P      ? 20240726 0547   35.8314 GAU  1.00e-01 -1.00e+00 -1.00e+00 -1.00e+00 >   78.9301    0.8479    0.8600  106.1318   -6.1117   -0.0645    5.1950 100.43  -1.0  -1.0  0     0.0000
IA_LKS ?    Z    ? P      ? 20240726 0547   33.1714 GAU  1.00e-01 -1.00e+00 -1.00e+00 -1.00e+00 >   81.6327   -4.5147    0.0000  100.6007    0.1845   -0.1860    5.3917 355.81  -1.0  -1.0  0     0.0000
IA_PLS ?    Z    ? P      ? 20240726 0547   38.4932 GAU  1.00e-01 -1.00e+00 -1.00e+00 -1.00e+00 >   82.4051    0.0347    1.2686  100.5540    0.2373   -0.1330    5.4479 355.36  -1.0  -1.0  0     0.0000
IA_CIL ?    Z    ? P      ? 20240726 0547   38.5314 GAU  1.00e-01 -1.00e+00 -1.00e+00 -1.00e+00 >   83.6427   -1.1648    0.7161  106.3160   -6.8220   -0.3320    5.5380 107.37  -1.0  -1.0  0     0.0000
IA_SBS ?    Z    ? P      ? 20240726 0547   39.8714 GAU  1.00e-01 -1.00e+00 -1.00e+00 -1.00e+00 >   84.8742   -1.0563    0.7976   99.3775    0.1983   -0.0010    5.6276 343.29  -1.0  -1.0  0     0.0000
IA_IHR ?    Z    ? P      ? 20240726 0547   26.4914 GAU  1.00e-01 -1.00e+00 -1.00e+00 -1.00e+00 >   85.1518  -14.7138    0.0000  103.1700    0.0200    0.0000    5.6478  22.70  -1.0  -1.0  0     0.0000
IA_PRS ?    Z    ? P      ? 20240726 0547   41.3714 GAU  1.00e-01 -1.00e+00 -1.00e+00 -1.00e+00 >   85.6709   -0.3529    1.2201  102.1700    0.3700    0.0000    5.6856  11.96  -1.0  -1.0  0     0.0000
IA_RRH ?    Z    ? P      ? 20240726 0547   42.9464 GAU  1.00e-01 -1.00e+00 -1.00e+00 -1.00e+00 >   87.1319   -0.2390    1.2523  100.4274    0.5714   -0.0920    5.7919 354.38  -1.0  -1.0  0     0.0000
IA_PSJ ?    Z    ? P      ? 20240726 0547   43.5464 GAU  1.00e-01 -1.00e+00 -1.00e+00 -1.00e+00 >   87.2744    0.2186    1.2291  106.5491   -6.9686   -0.2050    5.8023 108.10  -1.0  -1.0  0     0.0000
IA_PBS ?    Z    ? P      ? 20240726 0547   43.9964 GAU  1.00e-01 -1.00e+00 -1.00e+00 -1.00e+00 >   87.3663    0.5766    1.0510   98.2800   -0.0547   -0.0470    5.8090 332.11  -1.0  -1.0  0     0.0000
IA_CSJ ?    Z    ? P      ? 20240726 0547   43.2682 GAU  1.00e-01 -1.00e+00 -1.00e+00 -1.00e+00 >   88.5496   -1.3349    0.5895  106.5210   -7.3302   -0.1530    5.8951 111.54  -1.0  -1.0  0     0.0000
IA_WSJ ?    Z    ? P      ? 20240726 0547   45.3464 GAU  1.00e-01 -1.00e+00 -1.00e+00 -1.00e+00 >   89.5864   -0.2935    1.2387  106.7247   -6.9747   -0.3100    5.9706 107.65  -1.0  -1.0  0     0.0000
IA_JTJ ?    Z    ? P      ? 20240726 0547   46.0714 GAU  1.00e-01 -1.00e+00 -1.00e+00 -1.00e+00 >   90.9236   -0.9056    0.9084  106.8015   -7.0573   -0.5280    6.0679 108.19  -1.0  -1.0  0     0.0000
IA_RRS ?    Z    ? P      ? 20240726 0547   47.2714 GAU  1.00e-01 -1.00e+00 -1.00e+00 -1.00e+00 >   90.9299    0.2880    1.2041  100.3461    0.8410   -0.0780    6.0684 353.86  -1.0  -1.0  0     0.0000
IA_SIR ?    Z    ? P      ? 20240726 0547   47.7714 GAU  1.00e-01 -1.00e+00 -1.00e+00 -1.00e+00 >   91.2178    0.5001    1.0982  101.6600    0.8600    0.0000    6.0894   6.29  -1.0  -1.0  0     0.0000
IA_SSJ ?    Z    ? P      ? 20240726 0547   48.5214 GAU  1.00e-01 -1.00e+00 -1.00e+00 -1.00e+00 >   92.3620    0.1060    1.2580  106.9626   -6.8872   -0.8410    6.1726 106.23  -1.0  -1.0  0     0.0000
IA_SCJ ?    Z    ? P      ? 20240726 0547   52.2464 GAU  1.00e-01 -1.00e+00 -1.00e+00 -1.00e+00 >   95.6231    0.5698    1.0554  107.2221   -6.8437   -0.3270    6.4101 105.24  -1.0  -1.0  0     0.0000
IA_CNJ ?    Z    ? P      ? 20240726 0547   51.4214 GAU  1.00e-01 -1.00e+00 -1.00e+00 -1.00e+00 >   96.2503   -0.8824    0.9250  107.1296   -7.3090   -0.5890    6.4557 109.45  -1.0  -1.0  0     0.0000
IA_CWJ ?    Z    ? P      ? 20240726 0547   55.9714 GAU  1.00e-01 -1.00e+00 -1.00e+00 -1.00e+00 >   98.2377    1.6803    0.3088  107.4449   -6.7424   -0.6490    6.6005 103.90  -1.0  -1.0  0     0.0000
IA_RHR ?    Z    ? P      ? 20240726 0547   56.5714 GAU  1.00e-01 -1.00e+00 -1.00e+00 -1.00e+00 >   98.9240    1.5939    0.3536  100.5100    1.4400    0.0000    6.6504 355.82  -1.0  -1.0  0     0.0000
IA_ACB ?    Z    ? P      ? 20240726 0547   58.9214 GAU  1.00e-01 -1.00e+00 -1.00e+00 -1.00e+00 >  102.3485    0.5195    1.0867  107.6828   -7.0298   -0.7660    6.8998 105.78  -1.0  -1.0  0     0.0000
IA_TSJ ?    Z    ? P      ? 20240726 0548    0.3714 GAU  1.00e-01 -1.00e+00 -1.00e+00 -1.00e+00 >  103.0729    1.2450    0.5690  107.8109   -6.7319   -0.4200    6.9526 103.13  -1.0  -1.0  0     0.0000
IA_BBJ ?    Z    ? P      ? 20240726 0547   57.9545 GAU  1.00e-01 -1.00e+00 -1.00e+00 -1.00e+00 >  103.6393   -1.7383    0.3225  107.6500   -7.4626   -0.6150    6.9938 109.28  -1.0  -1.0  0     0.0000
IA_TPI ?    Z    ? P      ? 20240726 0548    2.0114 GAU  1.00e-01 -1.00e+00 -1.00e+00 -1.00e+00 >  104.7671    1.1909    0.0000  107.6535   -2.7563   -0.0250    7.0760  70.11  -1.0  -1.0  0     0.0000
IA_CIJ ?    Z    ? P      ? 20240726 0548    4.5214 GAU  1.00e-01 -1.00e+00 -1.00e+00 -1.00e+00 >  107.4458    1.0222    0.0000  108.1852   -6.4925   -0.0430    7.2711 100.65  -1.0  -1.0  0     0.0000
IA_TOJ ?    Z    ? P      ? 20240726 0548    5.5182 GAU  1.00e-01 -1.00e+00 -1.00e+00 -1.00e+00 >  107.4711    1.9936    0.0000  108.1344   -6.7621   -0.0730    7.2730 102.82  -1.0  -1.0  0     0.0000
IA_GSI ?    Z    ? P      ? 20240726 0548    5.2432 GAU  1.00e-01 -1.00e+00 -1.00e+00 -1.00e+00 >  108.3823    0.8074    0.0000   97.5755    1.3039   -0.1070    7.3393 332.19  -1.0  -1.0  0     0.0000
IA_PTS ?    Z    ? P      ? 20240726 0548    5.3214 GAU  1.00e-01 -1.00e+00 -1.00e+00 -1.00e+00 >  109.6606   -0.3926    0.0000   99.1660    2.0119   -1.1960    7.4325 345.74  -1.0  -1.0  0     0.0000
IA_LTN ?    Z    ? P      ? 20240726 0548    7.1114 GAU  1.00e-01 -1.00e+00 -1.00e+00 -1.00e+00 >  110.4430    0.6150    0.0000   97.3200    1.3360   -0.0520    7.4895 330.56  -1.0  -1.0  0     0.0000
IA_PKJ ?    Z    ? P      ? 20240726 0548    8.6964 GAU  1.00e-01 -1.00e+00 -1.00e+00 -1.00e+00 >  111.6400    1.0029    0.0000  108.4399   -6.7958   -0.2900    7.5767 102.59  -1.0  -1.0  0     0.0000
IA_ONS ?    Z    ? P      ? 20240726 0548    8.2214 GAU  1.00e-01 -1.00e+00 -1.00e+00 -1.00e+00 >  113.6423   -1.4744    0.0000   98.6301    2.1599   -1.1580    7.7226 342.14  -1.0  -1.0  0     0.0000
IA_MUT ?    Z    ? P      ? 20240726 0548    8.9914 GAU  1.00e-01 -1.00e+00 -1.00e+00 -1.00e+00 >  114.1848   -1.2468    0.0000   98.9650    2.3000   -1.5710    7.7621 344.82  -1.0  -1.0  0     0.0000
IA_CMJ ?    Z    ? P      ? 20240726 0548   10.4464 GAU  1.00e-01 -1.00e+00 -1.00e+00 -1.00e+00 >  115.3502   -0.9573    0.0000  108.4490   -7.7840   -0.0780    7.8470 109.67  -1.0  -1.0  0     0.0000
IA_PCJ ?    Z    ? P      ? 20240726 0548   13.0964 GAU  1.00e-01 -1.00e+00 -1.00e+00 -1.00e+00 >  115.6962    1.3467    0.0000  108.7191   -6.9129   -0.6460    7.8722 103.01  -1.0  -1.0  0     0.0000
IA_SIC ?    Z    ? P      ? 20240726 0548   15.7114 GAU  1.00e-01 -1.00e+00 -1.00e+00 -1.00e+00 >  118.7336    0.9244    0.0000  108.8080   -7.4720   -0.0680    8.0936 106.76  -1.0  -1.0  0     0.0000
IA_KPJ ?    Z    ? P      ? 20240726 0548   16.8964 GAU  1.00e-01 -1.00e+00 -1.00e+00 -1.00e+00 >  119.8453    0.9976    0.0000  108.9310   -7.3333   -0.1110    8.1746 105.59  -1.0  -1.0  0     0.0000
IA_KAS ?    Z    ? P      ? 20240726 0548   16.1714 GAU  1.00e-01 -1.00e+00 -1.00e+00 -1.00e+00 >  121.5457   -1.4278    0.0000   97.8582    2.4919   -0.0040    8.2986 337.75  -1.0  -1.0  0     0.0000
IA_BTJ ?    Z    ? P      ? 20240726 0548   19.2182 GAU  1.00e-01 -1.00e+00 -1.00e+00 -1.00e+00 >  122.4691    0.6956    0.0000  109.1641   -7.1972   -0.9420    8.3659 104.28  -1.0  -1.0  0     0.0000
IA_SSS ?    Z    ? P      ? 20240726 0548   18.4614 GAU  1.00e-01 -1.00e+00 -1.00e+00 -1.00e+00 >  123.3131   -0.9052    0.0000   97.9708    2.6749   -0.0560    8.4274 338.93  -1.0  -1.0  0     0.0000
IA_LDS ?    Z    ? P      ? 20240726 0548   19.4464 GAU  1.00e-01 -1.00e+00 -1.00e+00 -1.00e+00 >  125.1515   -1.7586    0.0000   98.1570    2.8860   -0.8190    8.5614 340.61  -1.0  -1.0  0     0.0000
IA_TKS ?    Z    ? P      ? 20240726 0548   22.1714 GAU  1.00e-01 -1.00e+00 -1.00e+00 -1.00e+00 >  127.6915   -1.5735    0.0000   98.3244    3.1374   -0.7200    8.7466 342.19  -1.0  -1.0  0     0.0000
IA_MBJ ?    Z    ? P      ? 20240726 0548   25.7214 GAU  1.00e-01 -1.00e+00 -1.00e+00 -1.00e+00 >  129.4801    0.1879    0.0000  109.6324   -7.4489   -0.0490    8.8771 105.17  -1.0  -1.0  0     0.0000
IA_SNS ?    Z    ? P      ? 20240726 0548   27.2714 GAU  1.00e-01 -1.00e+00 -1.00e+00 -1.00e+00 >  130.0353    1.1827    0.0000   96.3267    2.4089   -0.0145    8.9175 328.37  -1.0  -1.0  0     0.0000
IA_GTJ ?    Z    ? P      ? 20240726 0548   32.8145 GAU  1.00e-01 -1.00e+00 -1.00e+00 -1.00e+00 >  135.9139    0.8471    0.0000  110.1837   -7.1638   -0.7490    9.3463 102.64  -1.0  -1.0  0     0.0000
IA_KKJ ?    Z    ? P      ? 20240726 0548   31.6964 GAU  1.00e-01 -1.00e+00 -1.00e+00 -1.00e+00 >  136.4587   -0.8158    0.0000  110.0572   -7.8434   -0.1150    9.3861 106.88  -1.0  -1.0  0     0.0000
IA_SAK ?    Z    ? P      ? 20240726 0548   32.8314 GAU  1.00e-01 -1.00e+00 -1.00e+00 -1.00e+00 >  137.1696   -0.3917    0.0000  110.1550   -7.6860   -0.7060    9.4379 105.80  -1.0  -1.0  0     0.0000
IA_PGJ ?    Z    ? P      ? 20240726 0548   37.0932 GAU  1.00e-01 -1.00e+00 -1.00e+00 -1.00e+00 >  141.7442   -0.7045    0.0000  110.4140   -8.0102   -0.3610    9.7717 107.26  -1.0  -1.0  0     0.0000
IA_SYJ ?    Z    ? P      ? 20240726 0548   37.1914 GAU  1.00e-01 -1.00e+00 -1.00e+00 -1.00e+00 >  141.8055   -0.6676    0.0000  110.4914   -7.7483    0.0000    9.7762 105.65  -1.0  -1.0  0     0.0000
IA_UGM ?    Z    ? P      ? 20240726 0548   37.7798 GAU  1.00e-01 -1.00e+00 -1.00e+00 -1.00e+00 >  142.8040   -1.0777    0.0000  110.5231   -7.9125   -0.3500    9.8491 106.54  -1.0  -1.0  0     0.0000
IA_JAA ?    Z    ? P      ? 20240726 0548   40.6714 GAU  1.00e-01 -1.00e+00 -1.00e+00 -1.00e+00 >  143.2475    1.3704    0.0000   96.8200    3.7660   -0.0120    9.8814 334.96  -1.0  -1.0  0     0.0000
IA_BGA ?    Z    ? P      ? 20240726 0548   41.5314 GAU  1.00e-01 -1.00e+00 -1.00e+00 -1.00e+00 >  143.2864    2.1915    0.0000   97.3150    3.9830   -1.0780    9.8843 338.11  -1.0  -1.0  0     0.0000
IA_BMB ?    Z    ? P      ? 20240726 0548   41.8145 GAU  1.00e-01 -1.00e+00 -1.00e+00 -1.00e+00 >  144.1359    1.6251    0.0000  110.8839   -6.6635   -1.0290    9.9463  98.99  -1.0  -1.0  0     0.0000
IA_SSK ?    Z    ? P      ? 20240726 0548   41.2464 GAU  1.00e-01 -1.00e+00 -1.00e+00 -1.00e+00 >  144.5947    0.5982    0.0000  108.9703    0.8172   -0.0200    9.9797  53.19  -1.0  -1.0  0     0.0000
IA_WOJ ?    Z    ? P      ? 20240726 0548   42.9964 GAU  1.00e-01 -1.00e+00 -1.00e+00 -1.00e+00 >  147.7904   -0.8475    0.0000  110.9236   -7.8372   -0.1836   10.2130 105.53  -1.0  -1.0  0     0.0000
IA_NKK ?    Z    ? P      ? 20240726 0548   45.5464 GAU  1.00e-01 -1.00e+00 -1.00e+00 -1.00e+00 >  147.9175    1.5754    0.0000  110.5671   -1.5605   -0.0690   10.2223  69.52  -1.0  -1.0  0     0.0000
IA_PCJ ?    Z    ? P      ? 20240726 0548   46.7964 GAU  1.00e-01 -1.00e+00 -1.00e+00 -1.00e+00 >  152.3888   -1.6459    0.0000  111.1771   -8.1947   -0.7023   10.5488 107.08  -1.0  -1.0  0     0.0000
IA_JBJ ?    Z    ? P      ? 20240726 0548   50.7714 GAU  1.00e-01 -1.00e+00 -1.00e+00 -1.00e+00 >  152.4972    2.2207    0.0000  111.4587   -6.9729   -0.0980   10.5567 100.24  -1.0  -1.0  0     0.0000
IA_BAP ?    Z    ? P      ? 20240726 0548   47.7514 GAU  1.00e-01 -1.00e+00 -1.00e+00 -1.00e+00 >  153.0573   -1.3594    0.0000  111.3050   -7.9120   -0.2440   10.5976 105.42  -1.0  -1.0  0     0.0000
IA_SWJ ?    Z    ? P      ? 20240726 0548   54.4114 GAU  1.00e-01 -1.00e+00 -1.00e+00 -1.00e+00 >  158.5854   -0.2275    0.0000  111.7669   -7.7349   -0.7233   11.0014 103.93  -1.0  -1.0  0     0.0000
IA_SNJ ?    Z    ? P      ? 20240726 0548   54.3214 GAU  1.00e-01 -1.00e+00 -1.00e+00 -1.00e+00 >  158.6218   -0.3539    0.0000  111.7591   -7.7808   -1.3410   11.0040 104.17  -1.0  -1.0  0     0.0000
