IA_SNBI_00 ? Z ? P ? 20240726 0516 24.6096 GAU 1.00e-01 -1.00e+00 -1.00e+00 -1.00e+00 1.00e+00
IA_SNBI_00 ? N ? S ? 20240726 0516 39.0040 GAU 1.00e-01 -1.00e+00 -1.00e+00 -1.00e+00 1.00e+00
IA_TDNI_   ? Z ? P ? 20240726 0516 26.7968 GAU 1.00e-01 -1.00e+00 -1.00e+00 -1.00e+00 1.00e+00
IA_LTNSI_  ? N ? S ? 20240726 0516 43.9886 GAU 1.00e-01 -1.00e+00 -1.00e+00 -1.00e+00 1.00e+00
IA_LTNSI_  ? Z ? P ? 20240726 0516 27.4071 GAU 1.00e-01 -1.00e+00 -1.00e+00 -1.00e+00 1.00e+00
IA_PBSI_   ? Z ? P ? 20240726 0516 32.8544 GAU 1.00e-01 -1.00e+00 -1.00e+00 -1.00e+00 1.00e+00
IA_SNSI_   ? Z ? P ? 20240726 0516 39.6144 GAU 1.00e-01 -1.00e+00 -1.00e+00 -1.00e+00 1.00e+00
IA_KASAI_  ? Z ? P ? 20240726 0516 45.5544 GAU 1.00e-01 -1.00e+00 -1.00e+00 -1.00e+00 1.00e+00
IA_SIUMI_  ? Z ? P ? 20240726 0516 46.5344 GAU 1.00e-01 -1.00e+00 -1.00e+00 -1.00e+00 1.00e+00
IA_SBSM_00 ? Z ? P ? 20240726 0516 46.8544 GAU 1.00e-01 -1.00e+00 -1.00e+00 -1.00e+00 0.00e+00
IA_SSSI_00 ? Z ? P ? 20240726 0516 48.4044 GAU 1.00e-01 -1.00e+00 -1.00e+00 -1.00e+00 1.00e+00
IA_ONSM_00 ? Z ? P ? 20240726 0516 47.9794 GAU 1.00e-01 -1.00e+00 -1.00e+00 -1.00e+00 1.00e+00
IA_LDSI_   ? Z ? P ? 20240726 0516 51.6294 GAU 1.00e-01 -1.00e+00 -1.00e+00 -1.00e+00 1.00e+00
IA_SISMI_  ? Z ? P ? 20240726 0516 53.7544 GAU 1.00e-01 -1.00e+00 -1.00e+00 -1.00e+00 1.00e+00
IA_PTSM_00 ? Z ? P ? 20240726 0516 53.1794 GAU 1.00e-01 -1.00e+00 -1.00e+00 -1.00e+00 1.00e+00
IA_MUTSI_  ? Z ? P ? 20240726 0516 53.5144 GAU 1.00e-01 -1.00e+00 -1.00e+00 -1.00e+00 1.00e+00
IA_TKSM_00 ? Z ? P ? 20240726 0516 56.2044 GAU 1.00e-01 -1.00e+00 -1.00e+00 -1.00e+00 1.00e+00
IA_JAASI_  ? Z ? P ? 20240726 0516 53.1744 GAU 1.00e-01 -1.00e+00 -1.00e+00 -1.00e+00 0.00e+00
IA_TRIYO_  ? Z ? P ? 20240726 0517 00.0013 GAU 1.00e-01 -1.00e+00 -1.00e+00 -1.00e+00 1.00e+00
IA_BGASI_  ? Z ? P ? 20240726 0517 02.1944 GAU 1.00e-01 -1.00e+00 -1.00e+00 -1.00e+00 1.00e+00
IA_RRSI_00 ? Z ? P ? 20240726 0517 02.3794 GAU 1.00e-01 -1.00e+00 -1.00e+00 -1.00e+00 1.00e+00
IA_PPI_00  ? Z ? P ? 20240726 0517 02.5144 GAU 1.00e-01 -1.00e+00 -1.00e+00 -1.00e+00 1.00e+00
IA_RRHRI_  ? Z ? P ? 20240726 0517 02.6794 GAU 1.00e-01 -1.00e+00 -1.00e+00 -1.00e+00 1.00e+00
IA_PLSI_   ? Z ? P ? 20240726 0517 04.3513 GAU 1.00e-01 -1.00e+00 -1.00e+00 -1.00e+00 1.00e+00
IA_PDSI_   ? Z ? P ? 20240726 0517 04.0744 GAU 1.00e-01 -1.00e+00 -1.00e+00 -1.00e+00 1.00e+00
IA_LKSM_00 ? Z ? P ? 20240726 0517 05.4044 GAU 1.00e-01 -1.00e+00 -1.00e+00 -1.00e+00 1.00e+00
IA_LBTSI_  ? Z ? P ? 20240726 0517 05.7944 GAU 1.00e-01 -1.00e+00 -1.00e+00 -1.00e+00 1.00e+00
IA_RHRSI_  ? Z ? P ? 20240726 0517 12.8744 GAU 1.00e-01 -1.00e+00 -1.00e+00 -1.00e+00 0.00e+00
IA_SLSM_00 ? Z ? P ? 20240726 0517 07.5044 GAU 1.00e-01 -1.00e+00 -1.00e+00 -1.00e+00 1.00e+00
IA_BPSM_00 ? Z ? P ? 20240726 0517 06.8294 GAU 1.00e-01 -1.00e+00 -1.00e+00 -1.00e+00 1.00e+00
IA_CASI_00 ? Z ? P ? 20240726 0517 06.5044 GAU 1.00e-01 -1.00e+00 -1.00e+00 -1.00e+00 0.00e+00
IA_PPSI_   ? Z ? P ? 20240726 0517 10.3144 GAU 1.00e-01 -1.00e+00 -1.00e+00 -1.00e+00 1.00e+00
IA_GESM_00 ? Z ? P ? 20240726 0517 12.1794 GAU 1.00e-01 -1.00e+00 -1.00e+00 -1.00e+00 1.00e+00
IA_GPSM_00 ? Z ? P ? 20240726 0517 12.4544 GAU 1.00e-01 -1.00e+00 -1.00e+00 -1.00e+00 1.00e+00
IA_PASMI_  ? Z ? P ? 20240726 0517 14.0144 GAU 1.00e-01 -1.00e+00 -1.00e+00 -1.00e+00 1.00e+00
IA_SSSM_00 ? Z ? P ? 20240726 0517 17.7044 GAU 1.00e-01 -1.00e+00 -1.00e+00 -1.00e+00 1.00e+00
IA_GTSI_00 ? Z ? P ? 20240726 0517 17.6794 GAU 1.00e-01 -1.00e+00 -1.00e+00 -1.00e+00 1.00e+00
IA_LHMI_   ? Z ? P ? 20240726 0517 23.0428 GAU 1.00e-01 -1.00e+00 -1.00e+00 -1.00e+00 0.00e+00
IA_STSI_   ? Z ? P ? 20240726 0517 19.6513 GAU 1.00e-01 -1.00e+00 -1.00e+00 -1.00e+00 1.00e+00
IA_JASI_   ? Z ? P ? 20240726 0517 20.1763 GAU 1.00e-01 -1.00e+00 -1.00e+00 -1.00e+00 1.00e+00
IA_SIRSI_  ? Z ? P ? 20240726 0517 13.8544 GAU 1.00e-01 -1.00e+00 -1.00e+00 -1.00e+00 0.00e+00
IA_SKSM_00 ? Z ? P ? 20240726 0517 20.6794 GAU 1.00e-01 -1.00e+00 -1.00e+00 -1.00e+00 1.00e+00
IA_MKBI_   ? Z ? P ? 20240726 0517 21.6344 GAU 1.00e-01 -1.00e+00 -1.00e+00 -1.00e+00 1.00e+00
IA_KRJI_   ? Z ? P ? 20240726 0517 24.2144 GAU 1.00e-01 -1.00e+00 -1.00e+00 -1.00e+00 1.00e+00
IA_SAASI_  ? Z ? P ? 20240726 0517 24.0344 GAU 1.00e-01 -1.00e+00 -1.00e+00 -1.00e+00 1.00e+00
IA_PAASI_  ? Z ? P ? 20240726 0517 23.3744 GAU 1.00e-01 -1.00e+00 -1.00e+00 -1.00e+00 0.00e+00
IA_PRSI_   ? Z ? P ? 20240726 0517 22.1544 GAU 1.00e-01 -1.00e+00 -1.00e+00 -1.00e+00 0.00e+00
IA_RGRI_   ? Z ? P ? 20240726 0517 29.3544 GAU 1.00e-01 -1.00e+00 -1.00e+00 -1.00e+00 1.00e+00
IA_JMSI_   ? Z ? P ? 20240726 0517 32.3513 GAU 1.00e-01 -1.00e+00 -1.00e+00 -1.00e+00 1.00e+00
IA_BMSI_   ? Z ? P ? 20240726 0517 34.6263 GAU 1.00e-01 -1.00e+00 -1.00e+00 -1.00e+00 1.00e+00
IA_IHRSI_  ? Z ? P ? 20240726 0517 35.7544 GAU 1.00e-01 -1.00e+00 -1.00e+00 -1.00e+00 0.00e+00
IA_UMKSI_  ? Z ? P ? 20240726 0517 45.8544 GAU 1.00e-01 -1.00e+00 -1.00e+00 -1.00e+00 1.00e+00
IA_BLSM_00 ? Z ? P ? 20240726 0517 46.3294 GAU 1.00e-01 -1.00e+00 -1.00e+00 -1.00e+00 1.00e+00
IA_MNAI_   ? Z ? P ? 20240726 0517 56.0028 GAU 1.00e-01 -1.00e+00 -1.00e+00 -1.00e+00 1.00e+00
IA_EGSI_   ? Z ? P ? 20240726 0517 56.8344 GAU 1.00e-01 -1.00e+00 -1.00e+00 -1.00e+00 1.00e+00
IA_SUSM_00 ? Z ? P ? 20240726 0518 16.4044 GAU 1.00e-01 -1.00e+00 -1.00e+00 -1.00e+00 1.00e+00
IA_CGJI_   ? Z ? P ? 20240726 0518 40.8744 GAU 1.00e-01 -1.00e+00 -1.00e+00 -1.00e+00 0.00e+00
IA_TPI_00  ? Z ? P ? 20240726 0518 47.5944 GAU 1.00e-01 -1.00e+00 -1.00e+00 -1.00e+00 1.00e+00
IA_PSJM_00 ? Z ? P ? 20240726 0518 56.8044 GAU 1.00e-01 -1.00e+00 -1.00e+00 -1.00e+00 1.00e+00
IA_SSKI_   ? Z ? P ? 20240726 0519 00.8544 GAU 1.00e-01 -1.00e+00 -1.00e+00 -1.00e+00 0.00e+00
IA_SSJM_00 ? Z ? P ? 20240726 0519 04.9544 GAU 1.00e-01 -1.00e+00 -1.00e+00 -1.00e+00 0.00e+00
IA_BBJI_   ? Z ? P ? 20240726 0519 11.0976 GAU 1.00e-01 -1.00e+00 -1.00e+00 -1.00e+00 0.00e+00
IA_NKKI_00 ? Z ? P ? 20240726 0519 22.9544 GAU 1.00e-01 -1.00e+00 -1.00e+00 -1.00e+00 0.00e+00
IA_MBJI_00 ? Z ? P ? 20240726 0519 33.8544 GAU 1.00e-01 -1.00e+00 -1.00e+00 -1.00e+00 0.00e+00
IA_GTJI_   ? Z ? P ? 20240726 0519 42.6976 GAU 1.00e-01 -1.00e+00 -1.00e+00 -1.00e+00 0.00e+00
IA_SAKJI_  ? Z ? P ? 20240726 0519 41.0744 GAU 1.00e-01 -1.00e+00 -1.00e+00 -1.00e+00 0.00e+00
IA_BMBNG_  ? Z ? P ? 20240726 0519 44.0976 GAU 1.00e-01 -1.00e+00 -1.00e+00 -1.00e+00 0.00e+00
IA_SNJI_00 ? Z ? P ? 20240726 0520 03.1044 GAU 1.00e-01 -1.00e+00 -1.00e+00 -1.00e+00 0.00e+00
IA_MTKI_   ? Z ? P ? 20240726 0520 16.4344 GAU 1.00e-01 -1.00e+00 -1.00e+00 -1.00e+00 0.00e+00
IA_KUKI_   ? Z ? P ? 20240726 0520 26.1294 GAU 1.00e-01 -1.00e+00 -1.00e+00 -1.00e+00 0.00e+00
IA_KKTKI_  ? Z ? P ? 20240726 0520 40.1794 GAU 1.00e-01 -1.00e+00 -1.00e+00 -1.00e+00 0.00e+00
IA_BUKI_   ? Z ? P ? 20240726 0521 00.5744 GAU 1.00e-01 -1.00e+00 -1.00e+00 -1.00e+00 0.00e+00
IA_RSNI_   ? Z ? P ? 20240726 0521 04.7294 GAU 1.00e-01 -1.00e+00 -1.00e+00 -1.00e+00 0.00e+00
IA_TAPSI_  ? Z ? P ? 20240726 0521 06.0744 GAU 1.00e-01 -1.00e+00 -1.00e+00 -1.00e+00 0.00e+00
IA_MMCI_00 ? Z ? P ? 20240726 0521 07.8044 GAU 1.00e-01 -1.00e+00 -1.00e+00 -1.00e+00 0.00e+00
IA_RDCM_00 ? Z ? P ? 20240726 0521 09.5294 GAU 1.00e-01 -1.00e+00 -1.00e+00 -1.00e+00 0.00e+00
IA_DOCM_00 ? Z ? P ? 20240726 0521 10.6294 GAU 1.00e-01 -1.00e+00 -1.00e+00 -1.00e+00 0.00e+00
IA_BGCM_00 ? Z ? P ? 20240726 0521 10.7544 GAU 1.00e-01 -1.00e+00 -1.00e+00 -1.00e+00 0.00e+00
IA_MPSI_   ? Z ? P ? 20240726 0521 11.0044 GAU 1.00e-01 -1.00e+00 -1.00e+00 -1.00e+00 0.00e+00
IA_TSNI_   ? Z ? P ? 20240726 0521 14.8294 GAU 1.00e-01 -1.00e+00 -1.00e+00 -1.00e+00 0.00e+00
IA_SBSSI_  ? Z ? P ? 20240726 0521 12.8144 GAU 1.00e-01 -1.00e+00 -1.00e+00 -1.00e+00 0.00e+00
IA_PBNI_   ? Z ? P ? 20240726 0521 14.6544 GAU 1.00e-01 -1.00e+00 -1.00e+00 -1.00e+00 0.00e+00
IA_LSCM_00 ? Z ? P ? 20240726 0521 14.9044 GAU 1.00e-01 -1.00e+00 -1.00e+00 -1.00e+00 0.00e+00
IA_LUCM_00 ? Z ? P ? 20240726 0521 18.9044 GAU 1.00e-01 -1.00e+00 -1.00e+00 -1.00e+00 0.00e+00
IA_TIPSI_  ? Z ? P ? 20240726 0521 16.0744 GAU 1.00e-01 -1.00e+00 -1.00e+00 -1.00e+00 0.00e+00
IA_SAPSI_  ? Z ? P ? 20240726 0521 19.3144 GAU 1.00e-01 -1.00e+00 -1.00e+00 -1.00e+00 0.00e+00
IA_BNSI_   ? Z ? P ? 20240726 0521 17.8944 GAU 1.00e-01 -1.00e+00 -1.00e+00 -1.00e+00 0.00e+00
IA_BBCM_00 ? Z ? P ? 20240726 0521 18.0544 GAU 1.00e-01 -1.00e+00 -1.00e+00 -1.00e+00 0.00e+00
IA_BKSI_   ? Z ? P ? 20240726 0521 19.2044 GAU 1.00e-01 -1.00e+00 -1.00e+00 -1.00e+00 0.00e+00
IA_PUPSI_  ? Z ? P ? 20240726 0521 20.1544 GAU 1.00e-01 -1.00e+00 -1.00e+00 -1.00e+00 0.00e+00
IA_TOLI2_  ? Z ? P ? 20240726 0521 19.0828 GAU 1.00e-01 -1.00e+00 -1.00e+00 -1.00e+00 0.00e+00
IA_TOTSI_  ? Z ? P ? 20240726 0521 23.7544 GAU 1.00e-01 -1.00e+00 -1.00e+00 -1.00e+00 0.00e+00
IA_BUMSI_  ? Z ? P ? 20240726 0521 26.9294 GAU 1.00e-01 -1.00e+00 -1.00e+00 -1.00e+00 0.00e+00
IA_WKCM_   ? Z ? P ? 20240726 0521 28.0013 GAU 1.00e-01 -1.00e+00 -1.00e+00 -1.00e+00 0.00e+00
IA_PSJCM_  ? Z ? P ? 20240726 0521 30.7263 GAU 1.00e-01 -1.00e+00 -1.00e+00 -1.00e+00 0.00e+00
IA_APSI_   ? Z ? P ? 20240726 0521 28.5344 GAU 1.00e-01 -1.00e+00 -1.00e+00 -1.00e+00 0.00e+00
IA_UTUSI_  ? Z ? P ? 20240726 0521 28.2544 GAU 1.00e-01 -1.00e+00 -1.00e+00 -1.00e+00 0.00e+00
IA_MRSI_   ? Z ? P ? 20240726 0521 30.3794 GAU 1.00e-01 -1.00e+00 -1.00e+00 -1.00e+00 0.00e+00
IA_TIKSI_  ? Z ? P ? 20240726 0521 32.8744 GAU 1.00e-01 -1.00e+00 -1.00e+00 -1.00e+00 0.00e+00
IA_BUBSI_  ? Z ? P ? 20240726 0521 33.5544 GAU 1.00e-01 -1.00e+00 -1.00e+00 -1.00e+00 0.00e+00
IA_TOBSI_  ? Z ? P ? 20240726 0521 35.5544 GAU 1.00e-01 -1.00e+00 -1.00e+00 -1.00e+00 0.00e+00
IA_SMSI_   ? Z ? P ? 20240726 0521 33.6294 GAU 1.00e-01 -1.00e+00 -1.00e+00 -1.00e+00 0.00e+00
IA_POBSI_  ? Z ? P ? 20240726 0521 35.8744 GAU 1.00e-01 -1.00e+00 -1.00e+00 -1.00e+00 0.00e+00
IA_BBSI_   ? Z ? P ? 20240726 0521 43.0544 GAU 1.00e-01 -1.00e+00 -1.00e+00 -1.00e+00 0.00e+00
IA_LOMSI_  ? Z ? P ? 20240726 0521 44.7944 GAU 1.00e-01 -1.00e+00 -1.00e+00 -1.00e+00 0.00e+00
IA_MASFI_  ? Z ? P ? 20240726 0521 47.6544 GAU 1.00e-01 -1.00e+00 -1.00e+00 -1.00e+00 0.00e+00
IA_BBLSI_  ? Z ? P ? 20240726 0521 45.4544 GAU 1.00e-01 -1.00e+00 -1.00e+00 -1.00e+00 0.00e+00
IA_KUBSI_  ? Z ? P ? 20240726 0521 48.4544 GAU 1.00e-01 -1.00e+00 -1.00e+00 -1.00e+00 0.00e+00
IA_WWCI_00 ? Z ? P ? 20240726 0521 48.4294 GAU 1.00e-01 -1.00e+00 -1.00e+00 -1.00e+00 0.00e+00
IA_LRTI_   ? Z ? P ? 20240726 0521 54.7294 GAU 1.00e-01 -1.00e+00 -1.00e+00 -1.00e+00 0.00e+00
IA_SWI_    ? Z ? P ? 20240726 0522 52.1344 GAU 1.00e-01 -1.00e+00 -1.00e+00 -1.00e+00 0.00e+00
IA_TSPI_00 ? Z ? P ? 20240726 0522 59.1794 GAU 1.00e-01 -1.00e+00 -1.00e+00 -1.00e+00 0.00e+00
IA_ANAPI_  ? Z ? P ? 20240726 0523 15.3544 GAU 1.00e-01 -1.00e+00 -1.00e+00 -1.00e+00 0.00e+00
IA_MTMPI_  ? Z ? P ? 20240726 0523 56.8144 GAU 1.00e-01 -1.00e+00 -1.00e+00 -1.00e+00 0.00e+00
IA_TRPI_   ? Z ? P ? 20240726 0524 10.3794 GAU 1.00e-01 -1.00e+00 -1.00e+00 -1.00e+00 0.00e+00
