NLLOC "/home/sysop/seiscomp/share/nll/data/output/NLL.20240822045228.099348.26701.20240726.054640.grid0" "LOCATED" "Location completed."
PUBLIC_ID None
SIGNATURE "Anthony Lomax   obs:-   NLLoc:v7.00.13(17Jan2022)   run:22Aug2024 11h52m29"
COMMENT "BMKG events"
GRID  361 181 601  -180 -90 0  1 1 1 PROB_DENSITY
SEARCH OCTREE nInitial 17628 nEvaluated 50004 smallestNodeSide 0.814417/0.814417/0.195312 oct_tree_integral 9.203218e+02 scatter_volume 9.203218e+02
HYPOCENTER  x 101.019 y -5.18188 z 0.0976562  OT 16.0873  ix -1 iy -1 iz -1 MAXIMUM_LIKELIHOOD
GEOGRAPHIC  OT 2024 07 26  05 46 16.087296  Lat -5.181885 Long 101.019287 Depth 0.097656
QUALITY  Pmax 6.0355e+148 MFmin 41.1326 MFmax 41.1659 RMS 0.554882 Nphs 50 Gap 219.333 Dist 1.26369 Mamp -9.90 0 Mdur -9.90 0
VPVSRATIO  VpVsRatio -1  Npair 1  Diff 0
STATISTICS  ExpectX 101.020999 Y -5.185628 Z 29.228738  CovXX 9.95908 XY 8.59408 XZ -1.32091 YY 12.2626 YZ -2.46032 ZZ 280.374 EllAz1  311.204 Dip1  0.129232 Len1  2.93394 Az2  221.205 Dip2  -0.598217 Len2  8.35041 Len3  3.146147e+01
STAT_GEOG  ExpectLat -5.185628 Long 101.020999 Depth 29.228738
TRANSFORM  GLOBAL
QML_OriginQuality  assocPhCt 210  usedPhCt 50  assocStaCt -1  usedStaCt 49  depthPhCt -1  stdErr 0.554882  azGap 219.333  secAzGap 220.988  gtLevel -  minDist 140.516 maxDist 710.355 medDist 485.464
QML_OriginUncertainty  horUnc -1  minHorUnc 2.36894  maxHorUnc 6.74523  azMaxHorUnc 41.1833
QML_ConfidenceEllipsoid  semiMajorAxisLength 31.4615  semiMinorAxisLength 2.93394  semiIntermediateAxisLength 8.35041  majorAxisPlunge -89.388  majorAxisAzimuth 29.0139  majorAxisRotation 192.193
FOCALMECH  Hyp  -5.181885 101.019287 0.097656 Mech  0 0 0 mf  0 nObs -1
PHASE ID Ins Cmp On Pha  FM Date     HrMn   Sec     Err  ErrMag    Coda      Amp       Per  >   TTpred    Res       Weight    StaLoc(X  Y         Z)        SDist    SAzim  RAz  RDip RQual    Tcorr 
IA_EGS ?    Z    ? P      ? 20240726 0546   40.3714 GAU  1.00e-01 -1.00e+00 -1.00e+00 -1.00e+00 >   24.2263    0.0578    1.2384  102.2767   -5.3526   -0.0357    1.2637  97.82  -1.0  -1.0  0     0.0000
IA_EGS ?    N    ? S      ? 20240726 0546   56.1119 GAU  1.00e-01 -1.00e+00 -1.00e+00 -1.00e+00 >   40.6105   -0.5859    1.0533  102.2767   -5.3526   -0.0357    1.2637  97.82  -1.0  -1.0  0     0.0000
IA_UTS ?    Z    ? P      ? 20240726 0546   51.0303 GAU  1.00e-01 -1.00e+00 -1.00e+00 -1.00e+00 >   35.3871   -0.4440    1.1341  102.7285   -4.0834   -0.1130    2.0270  57.26  -1.0  -1.0  0     0.0000
IA_MNA ?    Z    ? P      ? 20240726 0546   52.7198 GAU  1.00e-01 -1.00e+00 -1.00e+00 -1.00e+00 >   36.3523    0.2803    1.1837  102.9557   -4.3605   -0.1540    2.0972  67.03  -1.0  -1.0  0     0.0000
IA_ABS ?    Z    ? P      ? 20240726 0546   52.6603 GAU  1.00e-01 -1.00e+00 -1.00e+00 -1.00e+00 >   37.0800   -0.5070    1.1006  102.2630   -3.4254   -0.3800    2.1501  35.27  -1.0  -1.0  0     0.0000
IA_UMK ?    Z    ? P      ? 20240726 0546   53.6114 GAU  1.00e-01 -1.00e+00 -1.00e+00 -1.00e+00 >   37.8195   -0.2954    1.1968  102.5480   -3.5900   -0.7090    2.2039  43.82  -1.0  -1.0  0     0.0000
IA_PAS ?    Z    ? P      ? 20240726 0546   56.3914 GAU  1.00e-01 -1.00e+00 -1.00e+00 -1.00e+00 >   39.9951    0.3090    1.1724  100.2028   -2.9646   -0.0390    2.3621 339.80  -1.0  -1.0  0     0.0000
IA_PPS ?    Z    ? P      ? 20240726 0546   59.9514 GAU  1.00e-01 -1.00e+00 -1.00e+00 -1.00e+00 >   43.5042    0.3599    1.1503  100.0100   -2.7660   -0.0060    2.6173 337.34  -1.0  -1.0  0     0.0000
IA_JMS ?    Z    ? P      ? 20240726 0546   59.7932 GAU  1.00e-01 -1.00e+00 -1.00e+00 -1.00e+00 >   44.4779   -0.7720    0.9235  101.8875   -2.6372   -1.2750    2.6881  18.83  -1.0  -1.0  0     0.0000
IA_BLS ?    Z    ? P      ? 20240726 0547    1.1964 GAU  1.00e-01 -1.00e+00 -1.00e+00 -1.00e+00 >   44.7890    0.3201    1.1678  102.8072   -3.1402   -0.0670    2.7107  41.20  -1.0  -1.0  0     0.0000
IA_MKB ?    Z    ? P      ? 20240726 0547    0.9914 GAU  1.00e-01 -1.00e+00 -1.00e+00 -1.00e+00 >   45.2374   -0.3333    1.1831  101.2396   -2.4474   -0.0482    2.7433   4.60  -1.0  -1.0  0     0.0000
IA_STS ?    Z    ? P      ? 20240726 0547    2.1432 GAU  1.00e-01 -1.00e+00 -1.00e+00 -1.00e+00 >   45.9248    0.1311    1.2271  101.0478   -2.3887   -0.0160    2.7933   0.59  -1.0  -1.0  0     0.0000
IA_PPS ?    Z    ? P      ? 20240726 0547    5.3714 GAU  1.00e-01 -1.00e+00 -1.00e+00 -1.00e+00 >   48.5865    0.6976    0.9464  104.0156   -5.3182   -0.0030    2.9869  92.75  -1.0  -1.0  0     0.0000
IA_KRJ ?    Z    ? P      ? 20240726 0547    6.4314 GAU  1.00e-01 -1.00e+00 -1.00e+00 -1.00e+00 >   50.4461   -0.1020    1.2392  101.4619   -2.0912   -0.8109    3.1221   8.15  -1.0  -1.0  0     0.0000
IA_SLS ?    Z    ? P      ? 20240726 0547    8.1114 GAU  1.00e-01 -1.00e+00 -1.00e+00 -1.00e+00 >   51.5294    0.4947    1.0794  102.5927   -2.3924   -0.0768    3.2009  29.43  -1.0  -1.0  0     0.0000
IA_SKS ?    Z    ? P      ? 20240726 0547    7.6214 GAU  1.00e-01 -1.00e+00 -1.00e+00 -1.00e+00 >   52.2413   -0.7072    0.9712  101.3497   -1.9460   -0.9560    3.2526   5.83  -1.0  -1.0  0     0.0000
IA_SUS ?    Z    ? P      ? 20240726 0547    8.9464 GAU  1.00e-01 -1.00e+00 -1.00e+00 -1.00e+00 >   52.4276    0.4315    1.1147  104.2945   -5.0212   -1.0550    3.2662  87.33  -1.0  -1.0  0     0.0000
IA_BMS ?    Z    ? P      ? 20240726 0547   11.1182 GAU  1.00e-01 -1.00e+00 -1.00e+00 -1.00e+00 >   53.9002    1.1307    0.6210  102.3154   -2.0664   -0.1350    3.3733  22.59  -1.0  -1.0  0     0.0000
IA_TRI ?    Z    ? P      ? 20240726 0547   10.9432 GAU  1.00e-01 -1.00e+00 -1.00e+00 -1.00e+00 >   54.7497    0.1062    1.2317   99.5830   -2.0601   -0.0880    3.4351 335.29  -1.0  -1.0  0     0.0000
IA_SSS ?    Z    ? P      ? 20240726 0547   13.2464 GAU  1.00e-01 -1.00e+00 -1.00e+00 -1.00e+00 >   57.3524   -0.1933    1.2250  101.2375   -1.5641   -0.5630    3.6244   3.45  -1.0  -1.0  0     0.0000
IA_JAS ?    Z    ? P      ? 20240726 0547   15.6932 GAU  1.00e-01 -1.00e+00 -1.00e+00 -1.00e+00 >   59.6677   -0.0618    1.2421  101.4584   -1.4145   -0.2530    3.7928   6.65  -1.0  -1.0  0     0.0000
IA_MBB ?    Z    ? P      ? 20240726 0547   16.1432 GAU  1.00e-01 -1.00e+00 -1.00e+00 -1.00e+00 >   59.7292    0.3267    1.1650  102.0984   -1.5406   -0.1130    3.7972  16.52  -1.0  -1.0  0     0.0000
IA_SIS ?    Z    ? P      ? 20240726 0547   16.2714 GAU  1.00e-01 -1.00e+00 -1.00e+00 -1.00e+00 >   60.9225   -0.7384    0.9486   99.1402   -1.7806   -0.0390    3.8840 331.06  -1.0  -1.0  0     0.0000
IA_BPS ?    Z    ? P      ? 20240726 0547   18.0714 GAU  1.00e-01 -1.00e+00 -1.00e+00 -1.00e+00 >   62.6877   -0.7036    0.9738  100.5900   -1.1924   -0.1100    4.0124 353.85  -1.0  -1.0  0     0.0000
IA_PDS ?    Z    ? P      ? 20240726 0547   21.8914 GAU  1.00e-01 -1.00e+00 -1.00e+00 -1.00e+00 >   66.7263   -0.9222    0.8057  100.4617   -0.9118   -0.2756    4.3062 352.55  -1.0  -1.0  0     0.0000
IA_SLS ?    Z    ? P      ? 20240726 0547   24.6464 GAU  1.00e-01 -1.00e+00 -1.00e+00 -1.00e+00 >   67.5463    1.0128    0.7095  100.6534   -0.8313   -0.3890    4.3659 355.19  -1.0  -1.0  0     0.0000
IA_SIU ?    Z    ? P      ? 20240726 0547   26.0714 GAU  1.00e-01 -1.00e+00 -1.00e+00 -1.00e+00 >   69.9140    0.0701    1.2370   98.9800   -1.1260   -0.0090    4.5381 333.28  -1.0  -1.0  0     0.0000
IA_GTS ?    Z    ? P      ? 20240726 0547    7.6964 GAU  1.00e-01 -1.00e+00 -1.00e+00 -1.00e+00 >   70.8703  -19.2612    0.0000  101.4888   -0.5981   -0.0090    4.6077   5.85  -1.0  -1.0  0     0.0000
IA_LBT ?    Z    ? P      ? 20240726 0547   28.3514 GAU  1.00e-01 -1.00e+00 -1.00e+00 -1.00e+00 >   72.4595   -0.1954    1.2245  100.6250   -0.4750   -0.4170    4.7233 355.21  -1.0  -1.0  0     0.0000
IA_SUP ?    Z    ? P      ? 20240726 0547   30.6714 GAU  1.00e-01 -1.00e+00 -1.00e+00 -1.00e+00 >   72.8737    1.7104    0.2666  105.5150   -6.7960   -0.0510    4.7535 110.07  -1.0  -1.0  0     0.0000
IA_PPI ?    Z    ? P      ? 20240726 0547   28.8914 GAU  1.00e-01 -1.00e+00 -1.00e+00 -1.00e+00 >   73.0606   -0.2564    1.2090  100.3972   -0.4555   -0.7836    4.7670 352.49  -1.0  -1.0  0     0.0000
IA_CGJ ?    Z    ? P      ? 20240726 0547   29.6914 GAU  1.00e-01 -1.00e+00 -1.00e+00 -1.00e+00 >   74.3573   -0.7532    0.9376  105.6900   -6.6134   -0.1820    4.8614 107.36  -1.0  -1.0  0     0.0000
IA_RGR ?    Z    ? P      ? 20240726 0547   33.2214 GAU  1.00e-01 -1.00e+00 -1.00e+00 -1.00e+00 >   76.3702    0.7639    0.8983  102.3338   -0.3491   -0.0409    5.0079  15.24  -1.0  -1.0  0     0.0000
IA_SBJ ?    Z    ? P      ? 20240726 0547   35.8314 GAU  1.00e-01 -1.00e+00 -1.00e+00 -1.00e+00 >   78.6244    1.1197    0.6291  106.1318   -6.1117   -0.0645    5.1719 100.60  -1.0  -1.0  0     0.0000
IA_LKS ?    Z    ? P      ? 20240726 0547   33.1714 GAU  1.00e-01 -1.00e+00 -1.00e+00 -1.00e+00 >   81.5203   -4.4362    0.0000  100.6007    0.1845   -0.1860    5.3826 355.53  -1.0  -1.0  0     0.0000
IA_PLS ?    Z    ? P      ? 20240726 0547   38.4932 GAU  1.00e-01 -1.00e+00 -1.00e+00 -1.00e+00 >   82.2956    0.1103    1.2310  100.5540    0.2373   -0.1330    5.4391 355.09  -1.0  -1.0  0     0.0000
IA_CIL ?    Z    ? P      ? 20240726 0547   38.5314 GAU  1.00e-01 -1.00e+00 -1.00e+00 -1.00e+00 >   83.3651   -0.9210    0.8067  106.3160   -6.8220   -0.3320    5.5169 107.56  -1.0  -1.0  0     0.0000
IA_SBS ?    Z    ? P      ? 20240726 0547   39.8714 GAU  1.00e-01 -1.00e+00 -1.00e+00 -1.00e+00 >   84.8432   -1.0591    0.6939   99.3775    0.1983   -0.0010    5.6245 343.00  -1.0  -1.0  0     0.0000
IA_IHR ?    Z    ? P      ? 20240726 0547   26.4914 GAU  1.00e-01 -1.00e+00 -1.00e+00 -1.00e+00 >   84.8894  -14.4853    0.0000  103.1700    0.0200    0.0000    5.6278  22.50  -1.0  -1.0  0     0.0000
IA_PRS ?    Z    ? P      ? 20240726 0547   41.3714 GAU  1.00e-01 -1.00e+00 -1.00e+00 -1.00e+00 >   85.4629   -0.1788    1.2280  102.1700    0.3700    0.0000    5.6696  11.73  -1.0  -1.0  0     0.0000
IA_PSJ ?    Z    ? P      ? 20240726 0547   43.5464 GAU  1.00e-01 -1.00e+00 -1.00e+00 -1.00e+00 >   87.0000    0.4591    1.0997  106.5491   -6.9686   -0.2050    5.7815 108.28  -1.0  -1.0  0     0.0000
IA_RRH ?    Z    ? P      ? 20240726 0547   42.9464 GAU  1.00e-01 -1.00e+00 -1.00e+00 -1.00e+00 >   87.0286   -0.1695    1.2297  100.4274    0.5714   -0.0920    5.7836 354.12  -1.0  -1.0  0     0.0000
IA_PBS ?    Z    ? P      ? 20240726 0547   43.9964 GAU  1.00e-01 -1.00e+00 -1.00e+00 -1.00e+00 >   87.4096    0.4995    1.0766   98.2800   -0.0547   -0.0470    5.8113 331.84  -1.0  -1.0  0     0.0000
IA_CSJ ?    Z    ? P      ? 20240726 0547   43.2682 GAU  1.00e-01 -1.00e+00 -1.00e+00 -1.00e+00 >   88.2910   -1.1101    0.6522  106.5210   -7.3302   -0.1530    5.8754 111.73  -1.0  -1.0  0     0.0000
IA_WSJ ?    Z    ? P      ? 20240726 0547   45.3464 GAU  1.00e-01 -1.00e+00 -1.00e+00 -1.00e+00 >   89.3101   -0.0510    1.2426  106.7247   -6.9747   -0.3100    5.9496 107.83  -1.0  -1.0  0     0.0000
IA_JTJ ?    Z    ? P      ? 20240726 0547   46.0714 GAU  1.00e-01 -1.00e+00 -1.00e+00 -1.00e+00 >   90.6496   -0.6655    1.0006  106.8015   -7.0573   -0.5280    6.0471 108.36  -1.0  -1.0  0     0.0000
IA_RRS ?    Z    ? P      ? 20240726 0547   47.2714 GAU  1.00e-01 -1.00e+00 -1.00e+00 -1.00e+00 >   90.8299    0.3542    1.1529  100.3461    0.8410   -0.0780    6.0603 353.61  -1.0  -1.0  0     0.0000
IA_SIR ?    Z    ? P      ? 20240726 0547   47.7714 GAU  1.00e-01 -1.00e+00 -1.00e+00 -1.00e+00 >   91.0418    0.6423    0.9851  101.6600    0.8600    0.0000    6.0757   6.06  -1.0  -1.0  0     0.0000
IA_SSJ ?    Z    ? P      ? 20240726 0547   48.5214 GAU  1.00e-01 -1.00e+00 -1.00e+00 -1.00e+00 >   92.0795    0.3546    1.1527  106.9626   -6.8872   -0.8410    6.1512 106.39  -1.0  -1.0  0     0.0000
IA_SCJ ?    Z    ? P      ? 20240726 0547   52.2464 GAU  1.00e-01 -1.00e+00 -1.00e+00 -1.00e+00 >   95.3365    0.8226    0.8545  107.2221   -6.8437   -0.3270    6.3884 105.39  -1.0  -1.0  0     0.0000
IA_CNJ ?    Z    ? P      ? 20240726 0547   51.4214 GAU  1.00e-01 -1.00e+00 -1.00e+00 -1.00e+00 >   95.9820   -0.6479    1.0127  107.1296   -7.3090   -0.5890    6.4354 109.61  -1.0  -1.0  0     0.0000
IA_CWJ ?    Z    ? P      ? 20240726 0547   55.9714 GAU  1.00e-01 -1.00e+00 -1.00e+00 -1.00e+00 >   97.9456    1.9385    0.1748  107.4449   -6.7424   -0.6490    6.5783 104.04  -1.0  -1.0  0     0.0000
IA_RHR ?    Z    ? P      ? 20240726 0547   56.5714 GAU  1.00e-01 -1.00e+00 -1.00e+00 -1.00e+00 >   98.8116    1.6725    0.0000  100.5100    1.4400    0.0000    6.6414 355.59  -1.0  -1.0  0     0.0000
IA_ACB ?    Z    ? P      ? 20240726 0547   58.9214 GAU  1.00e-01 -1.00e+00 -1.00e+00 -1.00e+00 >  102.0642    0.7699    0.0000  107.6828   -7.0298   -0.7660    6.8783 105.92  -1.0  -1.0  0     0.0000
IA_TSJ ?    Z    ? P      ? 20240726 0548    0.3714 GAU  1.00e-01 -1.00e+00 -1.00e+00 -1.00e+00 >  102.7778    1.5063    0.0000  107.8109   -6.7319   -0.4200    6.9302 103.26  -1.0  -1.0  0     0.0000
IA_BBJ ?    Z    ? P      ? 20240726 0547   57.9545 GAU  1.00e-01 -1.00e+00 -1.00e+00 -1.00e+00 >  103.3704   -1.5032    0.0000  107.6500   -7.4626   -0.6150    6.9734 109.43  -1.0  -1.0  0     0.0000
IA_TPI ?    Z    ? P      ? 20240726 0548    2.0114 GAU  1.00e-01 -1.00e+00 -1.00e+00 -1.00e+00 >  104.3979    1.5262    0.0000  107.6535   -2.7563   -0.0250    7.0482  70.12  -1.0  -1.0  0     0.0000
IA_CIJ ?    Z    ? P      ? 20240726 0548    4.5214 GAU  1.00e-01 -1.00e+00 -1.00e+00 -1.00e+00 >  107.1412    1.2929    0.0000  108.1852   -6.4925   -0.0430    7.2481 100.77  -1.0  -1.0  0     0.0000
IA_TOJ ?    Z    ? P      ? 20240726 0548    5.5182 GAU  1.00e-01 -1.00e+00 -1.00e+00 -1.00e+00 >  107.1748    2.2561    0.0000  108.1344   -6.7621   -0.0730    7.2505 102.94  -1.0  -1.0  0     0.0000
IA_GSI ?    Z    ? P      ? 20240726 0548    5.2432 GAU  1.00e-01 -1.00e+00 -1.00e+00 -1.00e+00 >  108.4249    0.7310    0.0000   97.5755    1.3039   -0.1070    7.3416 331.97  -1.0  -1.0  0     0.0000
IA_PTS ?    Z    ? P      ? 20240726 0548    5.3214 GAU  1.00e-01 -1.00e+00 -1.00e+00 -1.00e+00 >  109.6132   -0.3791    0.0000   99.1660    2.0119   -1.1960    7.4281 345.52  -1.0  -1.0  0     0.0000
IA_LTN ?    Z    ? P      ? 20240726 0548    7.1114 GAU  1.00e-01 -1.00e+00 -1.00e+00 -1.00e+00 >  110.4963    0.5278    0.0000   97.3200    1.3360   -0.0520    7.4925 330.35  -1.0  -1.0  0     0.0000
IA_PKJ ?    Z    ? P      ? 20240726 0548    8.6964 GAU  1.00e-01 -1.00e+00 -1.00e+00 -1.00e+00 >  111.3429    1.2662    0.0000  108.4399   -6.7958   -0.2900    7.5542 102.71  -1.0  -1.0  0     0.0000
IA_ONS ?    Z    ? P      ? 20240726 0548    8.2214 GAU  1.00e-01 -1.00e+00 -1.00e+00 -1.00e+00 >  113.6187   -1.4846    0.0000   98.6301    2.1599   -1.1580    7.7200 341.93  -1.0  -1.0  0     0.0000
IA_MUT ?    Z    ? P      ? 20240726 0548    8.9914 GAU  1.00e-01 -1.00e+00 -1.00e+00 -1.00e+00 >  114.1434   -1.2393    0.0000   98.9650    2.3000   -1.5710    7.7582 344.61  -1.0  -1.0  0     0.0000
IA_CMJ ?    Z    ? P      ? 20240726 0548   10.4464 GAU  1.00e-01 -1.00e+00 -1.00e+00 -1.00e+00 >  115.0831   -0.7240    0.0000  108.4490   -7.7840   -0.0780    7.8267 109.81  -1.0  -1.0  0     0.0000
IA_PCJ ?    Z    ? P      ? 20240726 0548   13.0964 GAU  1.00e-01 -1.00e+00 -1.00e+00 -1.00e+00 >  115.4008    1.6083    0.0000  108.7191   -6.9129   -0.6460    7.8498 103.13  -1.0  -1.0  0     0.0000
IA_SIC ?    Z    ? P      ? 20240726 0548   15.7114 GAU  1.00e-01 -1.00e+00 -1.00e+00 -1.00e+00 >  118.4537    1.1705    0.0000  108.8080   -7.4720   -0.0680    8.0723 106.88  -1.0  -1.0  0     0.0000
IA_KPJ ?    Z    ? P      ? 20240726 0548   16.8964 GAU  1.00e-01 -1.00e+00 -1.00e+00 -1.00e+00 >  119.5604    1.2487    0.0000  108.9310   -7.3333   -0.1110    8.1530 105.71  -1.0  -1.0  0     0.0000
IA_KAS ?    Z    ? P      ? 20240726 0548   16.1714 GAU  1.00e-01 -1.00e+00 -1.00e+00 -1.00e+00 >  121.5512   -1.4671    0.0000   97.8582    2.4919   -0.0040    8.2981 337.56  -1.0  -1.0  0     0.0000
IA_BTJ ?    Z    ? P      ? 20240726 0548   19.2182 GAU  1.00e-01 -1.00e+00 -1.00e+00 -1.00e+00 >  122.1789    0.9520    0.0000  109.1641   -7.1972   -0.9420    8.3439 104.39  -1.0  -1.0  0     0.0000
IA_SSS ?    Z    ? P      ? 20240726 0548   18.4614 GAU  1.00e-01 -1.00e+00 -1.00e+00 -1.00e+00 >  123.3108   -0.9367    0.0000   97.9708    2.6749   -0.0560    8.4264 338.74  -1.0  -1.0  0     0.0000
IA_LDS ?    Z    ? P      ? 20240726 0548   19.4464 GAU  1.00e-01 -1.00e+00 -1.00e+00 -1.00e+00 >  125.1380   -1.7789    0.0000   98.1570    2.8860   -0.8190    8.5596 340.42  -1.0  -1.0  0     0.0000
IA_TKS ?    Z    ? P      ? 20240726 0548   22.1714 GAU  1.00e-01 -1.00e+00 -1.00e+00 -1.00e+00 >  127.6675   -1.5834    0.0000   98.3244    3.1374   -0.7200    8.7440 342.01  -1.0  -1.0  0     0.0000
IA_MBJ ?    Z    ? P      ? 20240726 0548   25.7214 GAU  1.00e-01 -1.00e+00 -1.00e+00 -1.00e+00 >  129.1936    0.4405    0.0000  109.6324   -7.4489   -0.0490    8.8553 105.28  -1.0  -1.0  0     0.0000
IA_SNS ?    Z    ? P      ? 20240726 0548   27.2714 GAU  1.00e-01 -1.00e+00 -1.00e+00 -1.00e+00 >  130.1029    1.0812    0.0000   96.3267    2.4089   -0.0145    8.9216 328.19  -1.0  -1.0  0     0.0000
IA_GTJ ?    Z    ? P      ? 20240726 0548   32.8145 GAU  1.00e-01 -1.00e+00 -1.00e+00 -1.00e+00 >  135.6173    1.1099    0.0000  110.1837   -7.1638   -0.7490    9.3238 102.74  -1.0  -1.0  0     0.0000
IA_KKJ ?    Z    ? P      ? 20240726 0548   31.6964 GAU  1.00e-01 -1.00e+00 -1.00e+00 -1.00e+00 >  136.1796   -0.5705    0.0000  110.0572   -7.8434   -0.1150    9.3648 106.99  -1.0  -1.0  0     0.0000
IA_SAK ?    Z    ? P      ? 20240726 0548   32.8314 GAU  1.00e-01 -1.00e+00 -1.00e+00 -1.00e+00 >  136.8859   -0.1418    0.0000  110.1550   -7.6860   -0.7060    9.4164 105.90  -1.0  -1.0  0     0.0000
IA_PGJ ?    Z    ? P      ? 20240726 0548   37.0932 GAU  1.00e-01 -1.00e+00 -1.00e+00 -1.00e+00 >  141.4668   -0.4609    0.0000  110.4140   -8.0102   -0.3610    9.7506 107.36  -1.0  -1.0  0     0.0000
IA_SYJ ?    Z    ? P      ? 20240726 0548   37.1914 GAU  1.00e-01 -1.00e+00 -1.00e+00 -1.00e+00 >  141.5212   -0.4171    0.0000  110.4914   -7.7483    0.0000    9.7546 105.75  -1.0  -1.0  0     0.0000
IA_UGM ?    Z    ? P      ? 20240726 0548   37.7798 GAU  1.00e-01 -1.00e+00 -1.00e+00 -1.00e+00 >  142.5235   -0.8310    0.0000  110.5231   -7.9125   -0.3500    9.8277 106.64  -1.0  -1.0  0     0.0000
IA_JAA ?    Z    ? P      ? 20240726 0548   40.6714 GAU  1.00e-01 -1.00e+00 -1.00e+00 -1.00e+00 >  143.2714    1.3127    0.0000   96.8200    3.7660   -0.0120    9.8823 334.80  -1.0  -1.0  0     0.0000
IA_BGA ?    Z    ? P      ? 20240726 0548   41.5314 GAU  1.00e-01 -1.00e+00 -1.00e+00 -1.00e+00 >  143.2895    2.1546    0.0000   97.3150    3.9830   -1.0780    9.8836 337.95  -1.0  -1.0  0     0.0000
IA_BMB ?    Z    ? P      ? 20240726 0548   41.8145 GAU  1.00e-01 -1.00e+00 -1.00e+00 -1.00e+00 >  143.8259    1.9013    0.0000  110.8839   -6.6635   -1.0290    9.9228  99.08  -1.0  -1.0  0     0.0000
IA_SSK ?    Z    ? P      ? 20240726 0548   41.2464 GAU  1.00e-01 -1.00e+00 -1.00e+00 -1.00e+00 >  144.2363    0.9228    0.0000  108.9703    0.8172   -0.0200    9.9527  53.15  -1.0  -1.0  0     0.0000
IA_WOJ ?    Z    ? P      ? 20240726 0548   42.9964 GAU  1.00e-01 -1.00e+00 -1.00e+00 -1.00e+00 >  147.5057   -0.5966    0.0000  110.9236   -7.8372   -0.1836   10.1914 105.63  -1.0  -1.0  0     0.0000
IA_NKK ?    Z    ? P      ? 20240726 0548   45.5464 GAU  1.00e-01 -1.00e+00 -1.00e+00 -1.00e+00 >  147.5490    1.9101    0.0000  110.5671   -1.5605   -0.0690   10.1945  69.52  -1.0  -1.0  0     0.0000
IA_PCJ ?    Z    ? P      ? 20240726 0548   46.7964 GAU  1.00e-01 -1.00e+00 -1.00e+00 -1.00e+00 >  152.1108   -1.4017    0.0000  111.1771   -8.1947   -0.7023   10.5276 107.18  -1.0  -1.0  0     0.0000
IA_JBJ ?    Z    ? P      ? 20240726 0548   50.7714 GAU  1.00e-01 -1.00e+00 -1.00e+00 -1.00e+00 >  152.1918    2.4923    0.0000  111.4587   -6.9729   -0.0980   10.5335 100.32  -1.0  -1.0  0     0.0000
