NLLOC "/home/sysop/seiscomp/share/nll/data/output/NLL.20240822044155.288947.25969.20240728.141320.grid0" "LOCATED" "Location completed."
PUBLIC_ID None
SIGNATURE "Anthony Lomax   obs:-   NLLoc:v7.00.13(17Jan2022)   run:22Aug2024 11h41m56"
COMMENT "BMKG events"
GRID  361 181 601  -180 -90 0  1 1 1 PROB_DENSITY
SEARCH OCTREE nInitial 17628 nEvaluated 50012 smallestNodeSide 0.814417/0.814417/0.195312 oct_tree_integral 1.622226e+03 scatter_volume 1.622226e+03
HYPOCENTER  x 130.276 y -6.3208 z 143.555  OT 46.3346  ix -1 iy -1 iz -1 MAXIMUM_LIKELIHOOD
GEOGRAPHIC  OT 2024 07 28  14 12 46.334594  Lat -6.320801 Long 130.275879 Depth 143.554688
QUALITY  Pmax 8.95613e+134 MFmin 41.1394 MFmax 41.1795 RMS 1.14258 Nphs 50 Gap 141.291 Dist 1.83601 Mamp -9.90 0 Mdur -9.90 0
VPVSRATIO  VpVsRatio -1  Npair 0  Diff -2e+30
STATISTICS  ExpectX 130.270853 Y -6.318890 Z 135.312471  CovXX 27.5845 XY -15.1298 XZ 52.8905 YY 17.0187 YZ -25.442 ZZ 412.758 EllAz1  218.705 Dip1  1.86116 Len1  4.5847 Az2  308.983 Dip2  8.48069 Len2  10.2364 Len3  3.858344e+01
STAT_GEOG  ExpectLat -6.318890 Long 130.270853 Depth 135.312471
TRANSFORM  GLOBAL
QML_OriginQuality  assocPhCt 187  usedPhCt 50  assocStaCt -1  usedStaCt 50  depthPhCt -1  stdErr 1.14258  azGap 141.291  secAzGap 157.391  gtLevel -  minDist 204.155 maxDist 997.436 medDist 789.093
QML_OriginUncertainty  horUnc -1  minHorUnc 3.79931  maxHorUnc 9.38897  azMaxHorUnc 125.376
QML_ConfidenceEllipsoid  semiMajorAxisLength 38.5834  semiMinorAxisLength 4.5847  semiIntermediateAxisLength 10.2364  majorAxisPlunge 81.3145  majorAxisAzimuth 116.424  majorAxisRotation 347.007
FOCALMECH  Hyp  -6.320801 130.275879 143.554688 Mech  0 0 0 mf  0 nObs -1
PHASE ID Ins Cmp On Pha  FM Date     HrMn   Sec     Err  ErrMag    Coda      Amp       Per  >   TTpred    Res       Weight    StaLoc(X  Y         Z)        SDist    SAzim  RAz  RDip RQual    Tcorr 
IA_BND ?    Z    ? P      ? 20240728 1413   20.0696 GAU  1.00e-01 -1.00e+00 -1.00e+00 -1.00e+00 >   32.7884    0.9466    1.1370  129.9045   -4.5224   -0.0160    1.8360 348.36  -1.0  -1.0  0     0.0000
IA_TLE ?    Z    ? P      ? 20240728 1413   32.9412 GAU  1.00e-01 -1.00e+00 -1.00e+00 -1.00e+00 >   41.1138    5.4928    0.0661  132.7395   -5.6994   -0.0340    2.5277  75.90  -1.0  -1.0  0     0.0000
IA_MLM ?    Z    ? P      ? 20240728 1413   34.2212 GAU  1.00e-01 -1.00e+00 -1.00e+00 -1.00e+00 >   47.9353   -0.0487    1.4630  127.7920   -8.1480   -0.0080    3.0676 233.29  -1.0  -1.0  0     0.0000
IA_AAI ?    Z    ? P      ? 20240728 1413   38.2012 GAU  1.00e-01 -1.00e+00 -1.00e+00 -1.00e+00 >   51.5950    0.2716    1.4461  128.1943   -3.6871   -0.1572    3.3520 321.69  -1.0  -1.0  0     0.0000
IA_TTS ?    Z    ? P      ? 20240728 1413   46.0212 GAU  1.00e-01 -1.00e+00 -1.00e+00 -1.00e+00 >   57.2377    2.4489    0.5120  128.7270   -2.8640   -0.0110    3.7858 335.87  -1.0  -1.0  0     0.0000
IA_FAK ?    Z    ? P      ? 20240728 1413   45.4096 GAU  1.00e-01 -1.00e+00 -1.00e+00 -1.00e+00 >   59.2185   -0.1435    1.4459  132.2650   -2.9192    0.0000    3.9371  30.32  -1.0  -1.0  0     0.0000
IA_MBR ?    Z    ? P      ? 20240728 1413   53.6012 GAU  1.00e-01 -1.00e+00 -1.00e+00 -1.00e+00 >   67.3171   -0.0505    1.4628  130.4070   -1.7710   -0.0020    4.5517   1.65  -1.0  -1.0  0     0.0000
IA_BAT ?    Z    ? P      ? 20240728 1413   59.5812 GAU  1.00e-01 -1.00e+00 -1.00e+00 -1.00e+00 >   72.2683    0.9783    1.1180  133.4455   -2.5427   -0.0170    4.9251  40.05  -1.0  -1.0  0     0.0000
IA_TSP ?    Z    ? P      ? 20240728 1414    1.1912 GAU  1.00e-01 -1.00e+00 -1.00e+00 -1.00e+00 >   75.5785   -0.7219    1.1386  132.0898   -1.4733   -0.0620    5.1741  20.54  -1.0  -1.0  0     0.0000
IA_KOR ?    Z    ? P      ? 20240728 1414    0.7412 GAU  1.00e-01 -1.00e+00 -1.00e+00 -1.00e+00 >   75.6657   -1.2591    0.6809  129.8450   -1.1580   -0.0110    5.1807 355.22  -1.0  -1.0  0     0.0000
IA_SWI ?    Z    ? P      ? 20240728 1414    5.8012 GAU  1.00e-01 -1.00e+00 -1.00e+00 -1.00e+00 >   80.5265   -1.0599    0.8548  131.2592   -0.8628   -0.1289    5.5455  10.23  -1.0  -1.0  0     0.0000
IA_GAR ?    Z    ? P      ? 20240728 1414   10.8412 GAU  1.00e-01 -1.00e+00 -1.00e+00 -1.00e+00 >   85.2343   -0.7276    1.1341  129.9000   -0.4346   -0.0490    5.8981 356.34  -1.0  -1.0  0     0.0000
IA_ALK ?    Z    ? P      ? 20240728 1414   12.3412 GAU  1.00e-01 -1.00e+00 -1.00e+00 -1.00e+00 >   85.6282    0.3784    1.4172  124.5903   -8.1445   -0.7200    5.9276 251.74  -1.0  -1.0  0     0.0000
IA_NBP ?    Z    ? P      ? 20240728 1414   16.1812 GAU  1.00e-01 -1.00e+00 -1.00e+00 -1.00e+00 >   86.3674    3.4793    0.3594  135.4972   -3.3656   -0.0988    5.9829  60.64  -1.0  -1.0  0     0.0000
IA_UWN ?    Z    ? P      ? 20240728 1414   15.6412 GAU  1.00e-01 -1.00e+00 -1.00e+00 -1.00e+00 >   86.6764    2.6302    0.4863  135.5870   -3.4790   -0.1170    6.0060  62.01  -1.0  -1.0  0     0.0000
IA_SAN ?    Z    ? P      ? 20240728 1414   14.8096 GAU  1.00e-01 -1.00e+00 -1.00e+00 -1.00e+00 >   87.1743    1.3007    0.9246  125.9881   -2.0497   -0.0240    6.0432 314.79  -1.0  -1.0  0     0.0000
IA_ANA ?    Z    ? P      ? 20240728 1414   15.3812 GAU  1.00e-01 -1.00e+00 -1.00e+00 -1.00e+00 >   88.9377    0.1089    1.4686  133.9120   -1.3230   -2.0130    6.1751  36.12  -1.0  -1.0  0     0.0000
IA_MTM ?    Z    ? P      ? 20240728 1414   15.1412 GAU  1.00e-01 -1.00e+00 -1.00e+00 -1.00e+00 >   90.0566   -1.2500    0.6887  124.8800   -9.5800   -0.0250    6.2588 238.27  -1.0  -1.0  0     0.0000
IA_KAR ?    Z    ? P      ? 20240728 1414   16.6612 GAU  1.00e-01 -1.00e+00 -1.00e+00 -1.00e+00 >   90.6127   -0.2861    1.4010  130.9910   -0.0610   -0.0210    6.3003   6.53  -1.0  -1.0  0     0.0000
IA_GHM ?    Z    ? P      ? 20240728 1414   18.4912 GAU  1.00e-01 -1.00e+00 -1.00e+00 -1.00e+00 >   92.2929   -0.1363    1.4476  127.8797   -0.3563   -0.0370    6.4259 338.06  -1.0  -1.0  0     0.0000
IA_MUM ?    Z    ? P      ? 20240728 1414   21.3212 GAU  1.00e-01 -1.00e+00 -1.00e+00 -1.00e+00 >   94.4984    0.4882    1.3775  125.4810   -1.7850   -0.0110    6.5907 313.29  -1.0  -1.0  0     0.0000
IA_WWC ?    Z    ? P      ? 20240728 1414   24.3912 GAU  1.00e-01 -1.00e+00 -1.00e+00 -1.00e+00 >   97.2667    0.7899    1.2285  123.5251   -5.2724   -0.0260    6.7975 278.52  -1.0  -1.0  0     0.0000
IA_MIP ?    Z    ? P      ? 20240728 1414   27.1912 GAU  1.00e-01 -1.00e+00 -1.00e+00 -1.00e+00 >   97.6584    3.1982    0.4086  136.8935   -4.5301   -0.0300    6.8267  75.12  -1.0  -1.0  0     0.0000
IA_ATK ?    Z    ? P      ? 20240728 1414   23.8412 GAU  1.00e-01 -1.00e+00 -1.00e+00 -1.00e+00 >   98.2146   -0.7080    1.1492  124.0900   -9.4250   -0.1680    6.8682 242.73  -1.0  -1.0  0     0.0000
IA_AST ?    Z    ? P      ? 20240728 1414   25.1412 GAU  1.00e-01 -1.00e+00 -1.00e+00 -1.00e+00 >  100.0029   -1.1963    0.7353  124.2990  -10.0680   -0.1800    7.0018 237.25  -1.0  -1.0  0     0.0000
IA_MSH ?    Z    ? P      ? 20240728 1414   28.6012 GAU  1.00e-01 -1.00e+00 -1.00e+00 -1.00e+00 >  102.5393   -0.2726    1.4062  128.4250    0.6290   -0.0290    7.1912 345.05  -1.0  -1.0  0     0.0000
IA_KUB ?    Z    ? P      ? 20240728 1414   30.2012 GAU  1.00e-01 -1.00e+00 -1.00e+00 -1.00e+00 >  102.9463    0.9203    1.1528  123.1868   -4.7812   -0.0590    7.2216 281.95  -1.0  -1.0  0     0.0000
IA_WWP ?    Z    ? P      ? 20240728 1414   33.9162 GAU  1.00e-01 -1.00e+00 -1.00e+00 -1.00e+00 >  103.7887    3.7929    0.2978  136.3773   -2.3130   -0.0160    7.2845  56.89  -1.0  -1.0  0     0.0000
IA_YBY ?    Z    ? P      ? 20240728 1414   32.3812 GAU  1.00e-01 -1.00e+00 -1.00e+00 -1.00e+00 >  104.1549    1.8917    0.6447  136.0630   -1.8310   -0.0320    7.3118  52.36  -1.0  -1.0  0     0.0000
IA_WTK ?    Z    ? P      ? 20240728 1414   32.3412 GAU  1.00e-01 -1.00e+00 -1.00e+00 -1.00e+00 >  105.2101    0.7965    1.2248  123.2200   -4.0300   -0.0210    7.3906 287.71  -1.0  -1.0  0     0.0000
IA_LRT ?    Z    ? P      ? 20240728 1414   32.4162 GAU  1.00e-01 -1.00e+00 -1.00e+00 -1.00e+00 >  106.3599   -0.2783    1.4040  123.0000   -8.2752   -0.0530    7.4765 254.40  -1.0  -1.0  0     0.0000
IA_BAT ?    Z    ? P      ? 20240728 1414   35.0812 GAU  1.00e-01 -1.00e+00 -1.00e+00 -1.00e+00 >  108.1401    0.6065    1.3249  123.6633  -10.2065   -0.3561    7.6094 238.86  -1.0  -1.0  0     0.0000
IA_LOM ?    Z    ? P      ? 20240728 1414   36.6012 GAU  1.00e-01 -1.00e+00 -1.00e+00 -1.00e+00 >  108.4064    1.8602    0.6559  122.7416   -4.9109   -0.0580    7.6293 280.26  -1.0  -1.0  0     0.0000
IA_TNT ?    Z    ? P      ? 20240728 1414   34.7696 GAU  1.00e-01 -1.00e+00 -1.00e+00 -1.00e+00 >  108.8716   -0.4366    1.3297  127.3667    0.7718   -0.0430    7.6640 337.63  -1.0  -1.0  0     0.0000
IA_BBS ?    Z    ? P      ? 20240728 1414   37.5162 GAU  1.00e-01 -1.00e+00 -1.00e+00 -1.00e+00 >  109.4787    1.7030    0.7183  122.5706   -5.4879   -0.0950    7.7094 275.80  -1.0  -1.0  0     0.0000
IA_BAK ?    Z    ? P      ? 20240728 1414   39.7412 GAU  1.00e-01 -1.00e+00 -1.00e+00 -1.00e+00 >  110.0921    3.3145    0.3893  136.1070   -1.1914   -0.0890    7.7552  48.83  -1.0  -1.0  0     0.0000
IA_SUS ?    Z    ? P      ? 20240728 1414   38.2212 GAU  1.00e-01 -1.00e+00 -1.00e+00 -1.00e+00 >  110.7336    1.1530    1.0121  135.7340   -0.7320   -0.0110    7.8032  44.47  -1.0  -1.0  0     0.0000
IA_JHM ?    Z    ? P      ? 20240728 1414   38.3662 GAU  1.00e-01 -1.00e+00 -1.00e+00 -1.00e+00 >  112.1920   -0.1603    1.4418  127.4783    1.0821   -0.0360    7.9121 339.24  -1.0  -1.0  0     0.0000
IA_KDI ?    Z    ? P      ? 20240728 1414   42.2812 GAU  1.00e-01 -1.00e+00 -1.00e+00 -1.00e+00 >  113.1415    2.8051    0.4639  122.6193   -3.9574   -0.0550    7.9831 286.85  -1.0  -1.0  0     0.0000
IA_PKC ?    Z    ? P      ? 20240728 1414   42.3412 GAU  1.00e-01 -1.00e+00 -1.00e+00 -1.00e+00 >  115.2333    0.7733    1.2378  122.3436   -4.3507   -0.2010    8.1395 283.61  -1.0  -1.0  0     0.0000
IA_BBL ?    Z    ? P      ? 20240728 1414   43.9662 GAU  1.00e-01 -1.00e+00 -1.00e+00 -1.00e+00 >  116.0969    1.5347    0.7973  123.5217   -1.6375   -0.1420    8.2041 304.53  -1.0  -1.0  0     0.0000
IA_POB ?    Z    ? P      ? 20240728 1414   45.3612 GAU  1.00e-01 -1.00e+00 -1.00e+00 -1.00e+00 >  118.5193    0.5073    1.3696  122.0021   -4.7398   -0.1260    8.3853 280.45  -1.0  -1.0  0     0.0000
IA_MAS ?    Z    ? P      ? 20240728 1414   45.0612 GAU  1.00e-01 -1.00e+00 -1.00e+00 -1.00e+00 >  119.6397   -0.9131    0.9823  122.0320   -8.5370   -0.0130    8.4691 254.32  -1.0  -1.0  0     0.0000
IA_LKU ?    Z    ? P      ? 20240728 1414   49.8380 GAU  1.00e-01 -1.00e+00 -1.00e+00 -1.00e+00 >  120.9408    2.5626    0.4954  122.2332   -3.2924   -0.1070    8.5665 290.33  -1.0  -1.0  0     0.0000
IA_MTM ?    Z    ? P      ? 20240728 1414   54.1812 GAU  1.00e-01 -1.00e+00 -1.00e+00 -1.00e+00 >  122.9566    4.8900    0.1293  138.0370   -2.3050   -0.0670    8.7175  62.91  -1.0  -1.0  0     0.0000
IA_MTA ?    Z    ? P      ? 20240728 1414   49.7412 GAU  1.00e-01 -1.00e+00 -1.00e+00 -1.00e+00 >  123.3862    0.0204    1.4689  128.2758    2.1980   -0.0240    8.7497 346.75  -1.0  -1.0  0     0.0000
IA_BGC ?    Z    ? P      ? 20240728 1414   54.1662 GAU  1.00e-01 -1.00e+00 -1.00e+00 -1.00e+00 >  123.5417    4.2899    0.2063  123.3911   -0.8816   -0.0110    8.7614 308.10  -1.0  -1.0  0     0.0000
IA_EDF ?    Z    ? P      ? 20240728 1414   50.8912 GAU  1.00e-01 -1.00e+00 -1.00e+00 -1.00e+00 >  124.7298   -0.1732    1.4385  121.6903   -8.7497   -0.9143    8.8504 253.54  -1.0  -1.0  0     0.0000
IA_WAM ?    Z    ? P      ? 20240728 1414   56.4912 GAU  1.00e-01 -1.00e+00 -1.00e+00 -1.00e+00 >  125.6529    4.5037    0.0000  138.9500   -4.0959   -1.6730    8.9197  75.98  -1.0  -1.0  0     0.0000
IA_OBM ?    Z    ? P      ? 20240728 1414   52.8812 GAU  1.00e-01 -1.00e+00 -1.00e+00 -1.00e+00 >  126.3260    0.2206    1.4561  139.3000   -6.5550   -0.0210    8.9701  92.00  -1.0  -1.0  0     0.0000
IA_PBC ?    Z    ? P      ? 20240728 1414   54.7412 GAU  1.00e-01 -1.00e+00 -1.00e+00 -1.00e+00 >  128.6939   -0.2873    1.4005  124.0396    0.3830   -0.0330    9.1479 316.90  -1.0  -1.0  0     0.0000
IA_NAN ?    Z    ? P      ? 20240728 1414   56.2412 GAU  1.00e-01 -1.00e+00 -1.00e+00 -1.00e+00 >  129.7084    0.1982    0.0000  121.3020   -8.7610   -0.6440    9.2240 254.10  -1.0  -1.0  0     0.0000
IA_WKC ?    Z    ? P      ? 20240728 1414   57.7630 GAU  1.00e-01 -1.00e+00 -1.00e+00 -1.00e+00 >  130.4827    0.9457    0.0000  121.2993   -3.8259   -0.1160    9.2822 285.16  -1.0  -1.0  0     0.0000
IA_EDM ?    Z    ? P      ? 20240728 1414   59.6612 GAU  1.00e-01 -1.00e+00 -1.00e+00 -1.00e+00 >  130.5038    2.8228    0.0000  139.5850   -7.1750   -0.0150    9.2838  95.82  -1.0  -1.0  0     0.0000
IA_TOB ?    Z    ? P      ? 20240728 1415    0.0812 GAU  1.00e-01 -1.00e+00 -1.00e+00 -1.00e+00 >  131.6839    2.0627    0.0000  122.2500   -1.4460   -0.0430    9.3725 301.01  -1.0  -1.0  0     0.0000
IA_WMC ?    Z    ? P      ? 20240728 1415    3.0162 GAU  1.00e-01 -1.00e+00 -1.00e+00 -1.00e+00 >  134.1049    2.5767    0.0000  121.6220   -2.2162   -0.0070    9.5545 295.07  -1.0  -1.0  0     0.0000
IA_SAT ?    Z    ? P      ? 20240728 1414   47.2412 GAU  1.00e-01 -1.00e+00 -1.00e+00 -1.00e+00 >  134.8392  -13.9326    0.0000  138.8700   -1.9720   -0.0140    9.6098  63.46  -1.0  -1.0  0     0.0000
IA_BUB ?    Z    ? P      ? 20240728 1415    4.3612 GAU  1.00e-01 -1.00e+00 -1.00e+00 -1.00e+00 >  136.4380    1.5886    0.0000  122.2070   -0.8550   -0.0390    9.7302 303.86  -1.0  -1.0  0     0.0000
IA_BUM ?    Z    ? P      ? 20240728 1415    7.1662 GAU  1.00e-01 -1.00e+00 -1.00e+00 -1.00e+00 >  138.9184    1.9132    0.0000  121.3346   -1.9778   -0.1210    9.9171 295.59  -1.0  -1.0  0     0.0000
IA_LMT ?    Z    ? P      ? 20240728 1415    7.0912 GAU  1.00e-01 -1.00e+00 -1.00e+00 -1.00e+00 >  139.7384    1.0182    0.0000  120.4771   -8.6011   -1.1450    9.9790 256.19  -1.0  -1.0  0     0.0000
IA_BKS ?    Z    ? P      ? 20240728 1415    8.2162 GAU  1.00e-01 -1.00e+00 -1.00e+00 -1.00e+00 >  142.0059   -0.1243    0.0000  120.1224   -5.3219   -0.6060   10.1501 275.12  -1.0  -1.0  0     0.0000
IA_APS ?    Z    ? P      ? 20240728 1415   10.7212 GAU  1.00e-01 -1.00e+00 -1.00e+00 -1.00e+00 >  142.2138    2.1728    0.0000  121.6487   -0.9108   -0.1435   10.1658 301.81  -1.0  -1.0  0     0.0000
IA_UMS ?    Z    ? P      ? 20240728 1415    4.5612 GAU  1.00e-01 -1.00e+00 -1.00e+00 -1.00e+00 >  142.2245   -3.9979    0.0000  120.6610   -9.8970   -0.0500   10.1666 248.78  -1.0  -1.0  0     0.0000
IA_BTS ?    Z    ? P      ? 20240728 1415   13.6612 GAU  1.00e-01 -1.00e+00 -1.00e+00 -1.00e+00 >  142.5702    4.7564    0.0000  139.7042   -2.3779   -0.0320   10.1927  67.66  -1.0  -1.0  0     0.0000
IA_GTO ?    Z    ? P      ? 20240728 1415   10.7412 GAU  1.00e-01 -1.00e+00 -1.00e+00 -1.00e+00 >  143.1747    1.2319    0.0000  122.8700    0.7628   -0.3133   10.2384 313.52  -1.0  -1.0  0     0.0000
IA_BBC ?    Z    ? P      ? 20240728 1415    9.6412 GAU  1.00e-01 -1.00e+00 -1.00e+00 -1.00e+00 >  143.2991    0.0075    0.0000  120.0580   -5.0392   -0.5460   10.2478 276.66  -1.0  -1.0  0     0.0000
IA_UTU ?    Z    ? P      ? 20240728 1415   11.9662 GAU  1.00e-01 -1.00e+00 -1.00e+00 -1.00e+00 >  143.4436    2.1881    0.0000  121.8606   -0.4274   -0.0760   10.2587 304.74  -1.0  -1.0  0     0.0000
IA_BNS ?    Z    ? P      ? 20240728 1415   12.1212 GAU  1.00e-01 -1.00e+00 -1.00e+00 -1.00e+00 >  144.0530    1.7336    0.0000  120.1065   -4.4006   -0.2610   10.3048 280.23  -1.0  -1.0  0     0.0000
IA_TOT ?    Z    ? P      ? 20240728 1415   12.7012 GAU  1.00e-01 -1.00e+00 -1.00e+00 -1.00e+00 >  144.6739    1.6927    0.0000  121.2842   -1.1529   -0.0240   10.3517 299.59  -1.0  -1.0  0     0.0000
IA_KJC ?    Z    ? P      ? 20240728 1415   12.1130 GAU  1.00e-01 -1.00e+00 -1.00e+00 -1.00e+00 >  145.8959   -0.1175    0.0000  119.8026   -5.5646   -0.1990   10.4442 273.60  -1.0  -1.0  0     0.0000
IA_ELM ?    Z    ? P      ? 20240728 1415   14.6612 GAU  1.00e-01 -1.00e+00 -1.00e+00 -1.00e+00 >  146.6554    1.6712    0.0000  140.7890   -7.4890   -0.0510   10.5016  97.00  -1.0  -1.0  0     0.0000
IA_LSC ?    Z    ? P      ? 20240728 1415   13.9162 GAU  1.00e-01 -1.00e+00 -1.00e+00 -1.00e+00 >  146.8310    0.7506    0.0000  119.8987   -4.3650   -0.1090   10.5149 280.21  -1.0  -1.0  0     0.0000
IA_LBF ?    Z    ? P      ? 20240728 1415   12.6412 GAU  1.00e-01 -1.00e+00 -1.00e+00 -1.00e+00 >  146.9026   -0.5960    0.0000  119.8921   -8.4800   -0.0750   10.5204 257.52  -1.0  -1.0  0     0.0000
IA_TTP ?    Z    ? P      ? 20240728 1415   14.1162 GAU  1.00e-01 -1.00e+00 -1.00e+00 -1.00e+00 >  147.5763    0.2053    0.0000  119.7617   -4.8184   -0.3650   10.5714 277.64  -1.0  -1.0  0     0.0000
IA_PUP ?    Z    ? P      ? 20240728 1415   16.2212 GAU  1.00e-01 -1.00e+00 -1.00e+00 -1.00e+00 >  148.1659    1.7207    0.0000  120.6760   -1.7330   -0.6700   10.6160 295.20  -1.0  -1.0  0     0.0000
IA_MRS ?    Z    ? P      ? 20240728 1415   17.2162 GAU  1.00e-01 -1.00e+00 -1.00e+00 -1.00e+00 >  149.8492    1.0324    0.0000  121.9406    0.4771   -0.0990   10.7436 308.96  -1.0  -1.0  0     0.0000
IA_SMS ?    Z    ? P      ? 20240728 1415   17.8662 GAU  1.00e-01 -1.00e+00 -1.00e+00 -1.00e+00 >  150.0670    1.4646    0.0000  122.3654    0.9885   -0.0854   10.7601 312.52  -1.0  -1.0  0     0.0000
IA_KHS ?    Z    ? P      ? 20240728 1415   13.2612 GAU  1.00e-01 -1.00e+00 -1.00e+00 -1.00e+00 >  150.6296   -3.7030    0.0000  119.9450   -9.8010   -0.6080   10.8028 250.53  -1.0  -1.0  0     0.0000
IA_PPC ?    Z    ? P      ? 20240728 1415   19.6162 GAU  1.00e-01 -1.00e+00 -1.00e+00 -1.00e+00 >  150.8935    2.3881    0.0000  119.7269   -3.7270   -0.0480   10.8228 283.36  -1.0  -1.0  0     0.0000
IA_SJP ?    Z    ? P      ? 20240728 1415   25.6630 GAU  1.00e-01 -1.00e+00 -1.00e+00 -1.00e+00 >  151.4053    7.9231    0.0000  140.5020   -2.5698   -0.1920   10.8617  70.25  -1.0  -1.0  0     0.0000
IA_ARK ?    Z    ? P      ? 20240728 1415   22.4812 GAU  1.00e-01 -1.00e+00 -1.00e+00 -1.00e+00 >  151.5606    4.5860    0.0000  140.5920   -2.7830   -0.0750   10.8735  71.48  -1.0  -1.0  0     0.0000
IA_MGA ?    Z    ? P      ? 20240728 1415   17.6912 GAU  1.00e-01 -1.00e+00 -1.00e+00 -1.00e+00 >  152.4132   -1.0566    0.0000  126.6700    4.0079   -0.0910   10.9382 340.69  -1.0  -1.0  0     0.0000
IA_SAP ?    Z    ? P      ? 20240728 1415   24.0012 GAU  1.00e-01 -1.00e+00 -1.00e+00 -1.00e+00 >  155.0815    2.5851    0.0000  120.4640   -1.0000   -0.0250   11.1409 298.14  -1.0  -1.0  0     0.0000
IA_MMC ?    Z    ? P      ? 20240728 1415   26.5912 GAU  1.00e-01 -1.00e+00 -1.00e+00 -1.00e+00 >  158.2744    1.9822    0.0000  119.3631   -2.9560   -1.1670   11.3840 286.70  -1.0  -1.0  0     0.0000
IA_TAP ?    Z    ? P      ? 20240728 1415   25.7412 GAU  1.00e-01 -1.00e+00 -1.00e+00 -1.00e+00 >  158.2967    1.1099    0.0000  119.2490   -3.3320   -0.0560   11.3857 284.70  -1.0  -1.0  0     0.0000
IA_TPC ?    Z    ? P      ? 20240728 1415   11.2162 GAU  1.00e-01 -1.00e+00 -1.00e+00 -1.00e+00 >  158.4913  -13.6097    0.0000  121.0993    0.4675   -0.0130   11.4005 306.22  -1.0  -1.0  0     0.0000
IA_WBN ?    Z    ? P      ? 20240728 1415   25.4912 GAU  1.00e-01 -1.00e+00 -1.00e+00 -1.00e+00 >  159.3731   -0.2165    0.0000  118.8872   -8.3026    0.0000   11.4677 259.35  -1.0  -1.0  0     0.0000
IA_SBS ?    Z    ? P      ? 20240728 1415   28.7612 GAU  1.00e-01 -1.00e+00 -1.00e+00 -1.00e+00 >  160.5130    1.9136    0.0000  119.8890   -1.2060   -0.2210   11.5547 295.85  -1.0  -1.0  0     0.0000
IA_BBC ?    Z    ? P      ? 20240728 1415   26.6162 GAU  1.00e-01 -1.00e+00 -1.00e+00 -1.00e+00 >  160.6785   -0.3969    0.0000  121.4362    1.1580   -0.0080   11.5673 309.99  -1.0  -1.0  0     0.0000
IA_KBS ?    Z    ? P      ? 20240728 1415   26.8612 GAU  1.00e-01 -1.00e+00 -1.00e+00 -1.00e+00 >  161.6526   -1.1260    0.0000  118.9930   -9.5930   -0.0220   11.6416 252.95  -1.0  -1.0  0     0.0000
