IA_CSJI_   ? Z ? P ? 20211110 0250 22.4004 GAU 1.00e-01 -1.00e+00 -1.00e+00 -1.00e+00 1.00e+00
IA_CSJI_   ? R ? S ? 20211110 0250 31.2206 GAU 1.00e-01 -1.00e+00 -1.00e+00 -1.00e+00 1.00e+00
IA_WLJI_   ? Z ? P ? 20211110 0250 24.6990 GAU 1.00e-01 -1.00e+00 -1.00e+00 -1.00e+00 1.00e+00
IA_WLJI_   ? R ? S ? 20211110 0250 35.1262 GAU 1.00e-01 -1.00e+00 -1.00e+00 -1.00e+00 1.00e+00
IA_SKJI_   ? Z ? P ? 20211110 0250 25.5722 GAU 1.00e-01 -1.00e+00 -1.00e+00 -1.00e+00 1.00e+00
IA_SKJI_   ? R ? S ? 20211110 0250 37.5230 GAU 1.00e-01 -1.00e+00 -1.00e+00 -1.00e+00 1.00e+00
IA_PSJM_00 ? Z ? P ? 20211110 0250 25.9956 GAU 1.00e-01 -1.00e+00 -1.00e+00 -1.00e+00 1.00e+00
IA_PSJM_00 ? R ? S ? 20211110 0250 38.4226 GAU 1.00e-01 -1.00e+00 -1.00e+00 -1.00e+00 1.00e+00
IA_CGJI_   ? Z ? P ? 20211110 0250 27.8817 GAU 1.00e-01 -1.00e+00 -1.00e+00 -1.00e+00 1.00e+00
IA_CGJI_   ? R ? S ? 20211110 0250 39.2611 GAU 1.00e-01 -1.00e+00 -1.00e+00 -1.00e+00 1.00e+00
IA_WSJM_00 ? Z ? P ? 20211110 0250 27.9406 GAU 1.00e-01 -1.00e+00 -1.00e+00 -1.00e+00 1.00e+00
IA_WSJM_00 ? R ? S ? 20211110 0250 40.9389 GAU 1.00e-01 -1.00e+00 -1.00e+00 -1.00e+00 1.00e+00
IA_JTJM_00 ? Z ? P ? 20211110 0250 28.1174 GAU 1.00e-01 -1.00e+00 -1.00e+00 -1.00e+00 1.00e+00
IA_JTJM_00 ? R ? S ? 20211110 0250 41.3062 GAU 1.00e-01 -1.00e+00 -1.00e+00 -1.00e+00 1.00e+00
IA_CNJI_   ? Z ? P ? 20211110 0250 30.8286 GAU 1.00e-01 -1.00e+00 -1.00e+00 -1.00e+00 1.00e+00
IA_CNJI_   ? R ? S ? 20211110 0250 46.5885 GAU 1.00e-01 -1.00e+00 -1.00e+00 -1.00e+00 1.00e+00
IA_SSJM_00 ? Z ? P ? 20211110 0250 31.3591 GAU 1.00e-01 -1.00e+00 -1.00e+00 -1.00e+00 1.00e+00
IA_SSJM_00 ? R ? S ? 20211110 0250 49.1663 GAU 1.00e-01 -1.00e+00 -1.00e+00 -1.00e+00 1.00e+00
IA_CBJI_   ? Z ? P ? 20211110 0250 33.3635 GAU 1.00e-01 -1.00e+00 -1.00e+00 -1.00e+00 1.00e+00
IA_CBJI_   ? T ? S ? 20211110 0250 49.0757 GAU 1.00e-01 -1.00e+00 -1.00e+00 -1.00e+00 1.00e+00
IA_CCJM_00 ? Z ? P ? 20211110 0250 32.9472 GAU 1.00e-01 -1.00e+00 -1.00e+00 -1.00e+00 1.00e+00
IA_CCJM_00 ? R ? S ? 20211110 0250 49.4212 GAU 1.00e-01 -1.00e+00 -1.00e+00 -1.00e+00 1.00e+00
IA_SBJI_   ? Z ? P ? 20211110 0250 35.6831 GAU 1.00e-01 -1.00e+00 -1.00e+00 -1.00e+00 1.00e+00
IA_SCJM_00 ? Z ? P ? 20211110 0250 35.2491 GAU 1.00e-01 -1.00e+00 -1.00e+00 -1.00e+00 1.00e+00
IA_SCJM_00 ? T ? S ? 20211110 0250 55.5321 GAU 1.00e-01 -1.00e+00 -1.00e+00 -1.00e+00 1.00e+00
IA_PTJI_   ? Z ? P ? 20211110 0250 36.6347 GAU 1.00e-01 -1.00e+00 -1.00e+00 -1.00e+00 1.00e+00
IA_PTJI_   ? R ? S ? 20211110 0250 56.1559 GAU 1.00e-01 -1.00e+00 -1.00e+00 -1.00e+00 1.00e+00
IA_TNGI_00 ? Z ? P ? 20211110 0250 37.5863 GAU 1.00e-01 -1.00e+00 -1.00e+00 -1.00e+00 1.00e+00
IA_CBJM_00 ? Z ? P ? 20211110 0250 36.2778 GAU 1.00e-01 -1.00e+00 -1.00e+00 -1.00e+00 1.00e+00
IA_PSLI_   ? Z ? P ? 20211110 0250 38.4416 GAU 1.00e-01 -1.00e+00 -1.00e+00 -1.00e+00 1.00e+00
IA_PBJI_   ? Z ? P ? 20211110 0250 37.1105 GAU 1.00e-01 -1.00e+00 -1.00e+00 -1.00e+00 1.00e+00
IA_BBJI_   ? Z ? P ? 20211110 0250 38.0781 GAU 1.00e-01 -1.00e+00 -1.00e+00 -1.00e+00 1.00e+00
IA_CWJM_00 ? Z ? P ? 20211110 0250 40.3448 GAU 1.00e-01 -1.00e+00 -1.00e+00 -1.00e+00 1.00e+00
IA_LEM_    ? Z ? P ? 20211110 0250 41.8912 GAU 1.00e-01 -1.00e+00 -1.00e+00 -1.00e+00 1.00e+00
IA_PPLI_   ? Z ? P ? 20211110 0250 41.4297 GAU 1.00e-01 -1.00e+00 -1.00e+00 -1.00e+00 1.00e+00
IA_PSSM_00 ? Z ? P ? 20211110 0250 42.9125 GAU 1.00e-01 -1.00e+00 -1.00e+00 -1.00e+00 1.00e+00
IA_TSJM_00 ? Z ? P ? 20211110 0250 44.6271 GAU 1.00e-01 -1.00e+00 -1.00e+00 -1.00e+00 1.00e+00
IA_LLSM_00 ? Z ? P ? 20211110 0250 45.2218 GAU 1.00e-01 -1.00e+00 -1.00e+00 -1.00e+00 0.00e+00
IA_LLSM_00 ? R ? S ? 20211110 0251 11.9802 GAU 1.00e-01 -1.00e+00 -1.00e+00 -1.00e+00 0.00e+00
IA_CSJM_00 ? Z ? P ? 20211110 0250 47.4834 GAU 1.00e-01 -1.00e+00 -1.00e+00 -1.00e+00 0.00e+00
IA_CIJI_   ? Z ? P ? 20211110 0250 47.7214 GAU 1.00e-01 -1.00e+00 -1.00e+00 -1.00e+00 0.00e+00
IA_CIJI_   ? R ? S ? 20211110 0251 14.8606 GAU 1.00e-01 -1.00e+00 -1.00e+00 -1.00e+00 0.00e+00
IA_TOJI_   ? Z ? P ? 20211110 0250 48.9109 GAU 1.00e-01 -1.00e+00 -1.00e+00 -1.00e+00 0.00e+00
IA_CIJM_00 ? Z ? P ? 20211110 0250 50.6951 GAU 1.00e-01 -1.00e+00 -1.00e+00 -1.00e+00 0.00e+00
IA_CMJI_   ? Z ? P ? 20211110 0250 48.7904 GAU 1.00e-01 -1.00e+00 -1.00e+00 -1.00e+00 0.00e+00
IA_UTSI_   ? Z ? P ? 20211110 0250 51.3138 GAU 1.00e-01 -1.00e+00 -1.00e+00 -1.00e+00 0.00e+00
IA_BKJI_   ? Z ? P ? 20211110 0250 52.1226 GAU 1.00e-01 -1.00e+00 -1.00e+00 -1.00e+00 0.00e+00
IA_PKJM_00 ? Z ? P ? 20211110 0250 53.1931 GAU 1.00e-01 -1.00e+00 -1.00e+00 -1.00e+00 0.00e+00
IA_PPSM_00 ? Z ? P ? 20211110 0250 56.8806 GAU 1.00e-01 -1.00e+00 -1.00e+00 -1.00e+00 0.00e+00
IA_KLI_    ? Z ? P ? 20211110 0250 55.8101 GAU 1.00e-01 -1.00e+00 -1.00e+00 -1.00e+00 0.00e+00
IA_SUSM_00 ? Z ? P ? 20211110 0250 56.9996 GAU 1.00e-01 -1.00e+00 -1.00e+00 -1.00e+00 0.00e+00
IA_KPJI_   ? Z ? P ? 20211110 0250 58.0701 GAU 1.00e-01 -1.00e+00 -1.00e+00 -1.00e+00 0.00e+00
IA_KLSI_00 ? Z ? P ? 20211110 0250 58.1891 GAU 1.00e-01 -1.00e+00 -1.00e+00 -1.00e+00 0.00e+00
IA_BOSM_00 ? Z ? P ? 20211110 0251 00.2113 GAU 1.00e-01 -1.00e+00 -1.00e+00 -1.00e+00 0.00e+00
IA_SCJI_   ? Z ? P ? 20211110 0251 00.3302 GAU 1.00e-01 -1.00e+00 -1.00e+00 -1.00e+00 0.00e+00
IA_LESM_00 ? Z ? P ? 20211110 0251 00.9250 GAU 1.00e-01 -1.00e+00 -1.00e+00 -1.00e+00 0.00e+00
IA_MDSI_   ? Z ? P ? 20211110 0251 03.3040 GAU 1.00e-01 -1.00e+00 -1.00e+00 -1.00e+00 0.00e+00
IA_BUJI_   ? Z ? P ? 20211110 0251 03.8988 GAU 1.00e-01 -1.00e+00 -1.00e+00 -1.00e+00 0.00e+00
IA_PKJI_   ? Z ? P ? 20211110 0251 08.1810 GAU 1.00e-01 -1.00e+00 -1.00e+00 -1.00e+00 0.00e+00
IA_MBJI_00 ? Z ? P ? 20211110 0251 06.6191 GAU 1.00e-01 -1.00e+00 -1.00e+00 -1.00e+00 0.00e+00
IA_UGM_    ? Z ? P ? 20211110 0251 18.6660 GAU 1.00e-01 -1.00e+00 -1.00e+00 -1.00e+00 0.00e+00
IA_GKJM_00 ? Z ? P ? 20211110 0251 23.2723 GAU 1.00e-01 -1.00e+00 -1.00e+00 -1.00e+00 0.00e+00
IA_BOJI_   ? Z ? P ? 20211110 0251 22.1156 GAU 1.00e-01 -1.00e+00 -1.00e+00 -1.00e+00 0.00e+00
IA_ULSM_00 ? Z ? P ? 20211110 0251 21.9967 GAU 1.00e-01 -1.00e+00 -1.00e+00 -1.00e+00 0.00e+00
IA_PRJI_   ? Z ? P ? 20211110 0251 22.7104 GAU 1.00e-01 -1.00e+00 -1.00e+00 -1.00e+00 0.00e+00
IA_WOJI_   ? Z ? P ? 20211110 0251 24.0188 GAU 1.00e-01 -1.00e+00 -1.00e+00 -1.00e+00 0.00e+00
IA_TPI_00  ? Z ? P ? 20211110 0251 26.3650 GAU 1.00e-01 -1.00e+00 -1.00e+00 -1.00e+00 0.00e+00
IA_PCJI_   ? Z ? P ? 20211110 0251 27.7063 GAU 1.00e-01 -1.00e+00 -1.00e+00 -1.00e+00 0.00e+00
IA_BLSM_00 ? Z ? P ? 20211110 0251 28.3011 GAU 1.00e-01 -1.00e+00 -1.00e+00 -1.00e+00 0.00e+00
IA_ABSM_00 ? Z ? P ? 20211110 0251 28.2665 GAU 1.00e-01 -1.00e+00 -1.00e+00 -1.00e+00 0.00e+00
IA_SNJI_00 ? Z ? P ? 20211110 0251 36.4742 GAU 1.00e-01 -1.00e+00 -1.00e+00 -1.00e+00 0.00e+00
IA_MBSM_00 ? Z ? P ? 20211110 0251 34.8434 GAU 1.00e-01 -1.00e+00 -1.00e+00 -1.00e+00 0.00e+00
IA_SLSI_   ? Z ? P ? 20211110 0251 38.2098 GAU 1.00e-01 -1.00e+00 -1.00e+00 -1.00e+00 0.00e+00
IA_JMSI_   ? Z ? P ? 20211110 0251 39.0861 GAU 1.00e-01 -1.00e+00 -1.00e+00 -1.00e+00 0.00e+00
IA_JASI_   ? Z ? P ? 20211110 0251 56.4676 GAU 1.00e-01 -1.00e+00 -1.00e+00 -1.00e+00 0.00e+00
IA_BLJI_   ? Z ? P ? 20211110 0252 04.0221 GAU 1.00e-01 -1.00e+00 -1.00e+00 -1.00e+00 0.00e+00
IA_BPSM_00 ? Z ? P ? 20211110 0252 05.3506 GAU 1.00e-01 -1.00e+00 -1.00e+00 -1.00e+00 0.00e+00
IA_JAGI_   ? Z ? P ? 20211110 0252 09.6324 GAU 1.00e-01 -1.00e+00 -1.00e+00 -1.00e+00 0.00e+00
IA_ABJI_   ? Z ? P ? 20211110 0252 12.5508 GAU 1.00e-01 -1.00e+00 -1.00e+00 -1.00e+00 0.00e+00
IA_TRIYO_  ? Z ? P ? 20211110 0252 06.7222 GAU 1.00e-01 -1.00e+00 -1.00e+00 -1.00e+00 0.00e+00
IA_NKBI_   ? Z ? P ? 20211110 0252 26.7757 GAU 1.00e-01 -1.00e+00 -1.00e+00 -1.00e+00 0.00e+00
IA_KHK_00  ? Z ? P ? 20211110 0252 28.8216 GAU 1.00e-01 -1.00e+00 -1.00e+00 -1.00e+00 0.00e+00
IA_MPSM_00 ? Z ? P ? 20211110 0252 28.5848 GAU 1.00e-01 -1.00e+00 -1.00e+00 -1.00e+00 0.00e+00
