NLLOC "/home/sysop/seiscomp/share/nll/data/output/NLL.20240822045159.16984.26695.20240726.054640.grid0" "LOCATED" "Location completed."
PUBLIC_ID None
SIGNATURE "Anthony Lomax   obs:-   NLLoc:v7.00.13(17Jan2022)   run:22Aug2024 11h52m00"
COMMENT "BMKG events"
GRID  361 181 601  -180 -90 0  1 1 1 PROB_DENSITY
SEARCH OCTREE nInitial 17628 nEvaluated 50004 smallestNodeSide 0.814417/0.814417/0.195312 oct_tree_integral 1.623643e+03 scatter_volume 1.623643e+03
HYPOCENTER  x 100.99 y -5.20386 z 0.0976562  OT 15.8697  ix -1 iy -1 iz -1 MAXIMUM_LIKELIHOOD
GEOGRAPHIC  OT 2024 07 26  05 46 15.869713  Lat -5.203857 Long 100.989990 Depth 0.097656
QUALITY  Pmax 2.92612e+147 MFmin 41.1333 MFmax 41.1641 RMS 0.592665 Nphs 50 Gap 220.167 Dist 1.28986 Mamp -9.90 0 Mdur -9.90 0
VPVSRATIO  VpVsRatio -1  Npair 0  Diff -2e+30
STATISTICS  ExpectX 100.992223 Y -5.204325 Z 28.422353  CovXX 12.9076 XY 11.1424 XZ 2.97253 YY 15.0537 YZ 3.04487 ZZ 355.233 EllAz1  132.245 Dip1  -0.024942 Len1  3.13634 Az2  222.245 Dip2  0.738037 Len2  9.41664 Len3  3.541422e+01
STAT_GEOG  ExpectLat -5.204325 Long 100.992223 Depth 28.422353
TRANSFORM  GLOBAL
QML_OriginQuality  assocPhCt 207  usedPhCt 50  assocStaCt -1  usedStaCt 50  depthPhCt -1  stdErr 0.592665  azGap 220.167  secAzGap 221.887  gtLevel -  minDist 143.426 maxDist 740.685 medDist 529.082
QML_OriginUncertainty  horUnc -1  minHorUnc 2.53166  maxHorUnc 7.60931  azMaxHorUnc 42.2496
QML_ConfidenceEllipsoid  semiMajorAxisLength 35.4142  semiMinorAxisLength 3.13634  semiIntermediateAxisLength 9.41664  majorAxisPlunge 89.2615  majorAxisAzimuth 44.1803  majorAxisRotation 1.93627
FOCALMECH  Hyp  -5.203857 100.989990 0.097656 Mech  0 0 0 mf  0 nObs -1
PHASE ID Ins Cmp On Pha  FM Date     HrMn   Sec     Err  ErrMag    Coda      Amp       Per  >   TTpred    Res       Weight    StaLoc(X  Y         Z)        SDist    SAzim  RAz  RDip RQual    Tcorr 
IA_EGS ?    Z    ? P      ? 20240726 0546   40.3714 GAU  1.00e-01 -1.00e+00 -1.00e+00 -1.00e+00 >   24.7280   -0.2263    1.2429  102.2767   -5.3526   -0.0357    1.2899  96.68  -1.0  -1.0  0     0.0000
IA_MNA ?    Z    ? P      ? 20240726 0546   52.7198 GAU  1.00e-01 -1.00e+00 -1.00e+00 -1.00e+00 >   36.8399    0.0102    1.2627  102.9557   -4.3605   -0.1540    2.1327  66.79  -1.0  -1.0  0     0.0000
IA_UMK ?    Z    ? P      ? 20240726 0546   53.6114 GAU  1.00e-01 -1.00e+00 -1.00e+00 -1.00e+00 >   38.3155   -0.5738    1.1001  102.5480   -3.5900   -0.7090    2.2400  43.97  -1.0  -1.0  0     0.0000
IA_PAS ?    Z    ? P      ? 20240726 0546   56.3914 GAU  1.00e-01 -1.00e+00 -1.00e+00 -1.00e+00 >   40.1437    0.3780    1.1598  100.2028   -2.9646   -0.0390    2.3729 340.65  -1.0  -1.0  0     0.0000
IA_PPS ?    Z    ? P      ? 20240726 0546   59.9514 GAU  1.00e-01 -1.00e+00 -1.00e+00 -1.00e+00 >   43.6318    0.4499    1.1227  100.0100   -2.7660   -0.0060    2.6265 338.11  -1.0  -1.0  0     0.0000
IA_JMS ?    Z    ? P      ? 20240726 0546   59.7932 GAU  1.00e-01 -1.00e+00 -1.00e+00 -1.00e+00 >   44.8945   -0.9710    0.8246  101.8875   -2.6372   -1.2750    2.7184  19.26  -1.0  -1.0  0     0.0000
IA_BLS ?    Z    ? P      ? 20240726 0547    1.1964 GAU  1.00e-01 -1.00e+00 -1.00e+00 -1.00e+00 >   45.2807    0.0459    1.2597  102.8072   -3.1402   -0.0670    2.7465  41.36  -1.0  -1.0  0     0.0000
IA_MKB ?    Z    ? P      ? 20240726 0547    0.9914 GAU  1.00e-01 -1.00e+00 -1.00e+00 -1.00e+00 >   45.5727   -0.4510    1.1642  101.2396   -2.4474   -0.0482    2.7677   5.17  -1.0  -1.0  0     0.0000
IA_STS ?    Z    ? P      ? 20240726 0547    2.1432 GAU  1.00e-01 -1.00e+00 -1.00e+00 -1.00e+00 >   46.2331    0.0404    1.2603  101.0478   -2.3887   -0.0160    2.8157   1.18  -1.0  -1.0  0     0.0000
IA_PPS ?    Z    ? P      ? 20240726 0547    5.3714 GAU  1.00e-01 -1.00e+00 -1.00e+00 -1.00e+00 >   48.9740    0.5277    1.0777  104.0156   -5.3182   -0.0030    3.0150  92.31  -1.0  -1.0  0     0.0000
IA_KRJ ?    Z    ? P      ? 20240726 0547    6.4314 GAU  1.00e-01 -1.00e+00 -1.00e+00 -1.00e+00 >   50.8035   -0.2418    1.2393  101.4619   -2.0912   -0.8109    3.1481   8.62  -1.0  -1.0  0     0.0000
IA_SLS ?    Z    ? P      ? 20240726 0547    8.1114 GAU  1.00e-01 -1.00e+00 -1.00e+00 -1.00e+00 >   51.9902    0.2515    1.2125  102.5927   -2.3924   -0.0768    3.2344  29.69  -1.0  -1.0  0     0.0000
IA_SKS ?    Z    ? P      ? 20240726 0547    7.6214 GAU  1.00e-01 -1.00e+00 -1.00e+00 -1.00e+00 >   52.5842   -0.8325    0.9291  101.3497   -1.9460   -0.9560    3.2776   6.30  -1.0  -1.0  0     0.0000
IA_SUS ?    Z    ? P      ? 20240726 0547    8.9464 GAU  1.00e-01 -1.00e+00 -1.00e+00 -1.00e+00 >   52.8433    0.2334    1.2187  104.2945   -5.0212   -1.0550    3.2964  86.97  -1.0  -1.0  0     0.0000
IA_BMS ?    Z    ? P      ? 20240726 0547   11.1182 GAU  1.00e-01 -1.00e+00 -1.00e+00 -1.00e+00 >   54.3340    0.9145    0.8046  102.3154   -2.0664   -0.1350    3.4048  22.91  -1.0  -1.0  0     0.0000
IA_TRI ?    Z    ? P      ? 20240726 0547   10.9432 GAU  1.00e-01 -1.00e+00 -1.00e+00 -1.00e+00 >   54.8590    0.2145    1.2247   99.5830   -2.0601   -0.0880    3.4430 335.88  -1.0  -1.0  0     0.0000
IA_SSS ?    Z    ? P      ? 20240726 0547   13.2464 GAU  1.00e-01 -1.00e+00 -1.00e+00 -1.00e+00 >   57.6796   -0.3029    1.2222  101.2375   -1.5641   -0.5630    3.6482   3.89  -1.0  -1.0  0     0.0000
IA_JAS ?    Z    ? P      ? 20240726 0547   15.6932 GAU  1.00e-01 -1.00e+00 -1.00e+00 -1.00e+00 >   60.0155   -0.1920    1.2500  101.4584   -1.4145   -0.2530    3.8181   7.05  -1.0  -1.0  0     0.0000
IA_MBB ?    Z    ? P      ? 20240726 0547   16.1432 GAU  1.00e-01 -1.00e+00 -1.00e+00 -1.00e+00 >   60.1337    0.1397    1.2444  102.0984   -1.5406   -0.1130    3.8267  16.84  -1.0  -1.0  0     0.0000
IA_SIS ?    Z    ? P      ? 20240726 0547   16.2714 GAU  1.00e-01 -1.00e+00 -1.00e+00 -1.00e+00 >   60.9951   -0.5934    1.0887   99.1402   -1.7806   -0.0390    3.8893 331.60  -1.0  -1.0  0     0.0000
IA_BPS ?    Z    ? P      ? 20240726 0547   18.0714 GAU  1.00e-01 -1.00e+00 -1.00e+00 -1.00e+00 >   62.9468   -0.7451    0.9912  100.5900   -1.1924   -0.1100    4.0313 354.30  -1.0  -1.0  0     0.0000
IA_PDS ?    Z    ? P      ? 20240726 0547   21.8914 GAU  1.00e-01 -1.00e+00 -1.00e+00 -1.00e+00 >   66.9755   -0.9538    0.8379  100.4617   -0.9118   -0.2756    4.3243 352.98  -1.0  -1.0  0     0.0000
IA_SLS ?    Z    ? P      ? 20240726 0547   24.6464 GAU  1.00e-01 -1.00e+00 -1.00e+00 -1.00e+00 >   67.8152    0.9615    0.7689  100.6534   -0.8313   -0.3890    4.3854 355.59  -1.0  -1.0  0     0.0000
IA_SIU ?    Z    ? P      ? 20240726 0547   26.0714 GAU  1.00e-01 -1.00e+00 -1.00e+00 -1.00e+00 >   70.0054    0.1963    1.2301   98.9800   -1.1260   -0.0090    4.5448 333.73  -1.0  -1.0  0     0.0000
IA_GTS ?    Z    ? P      ? 20240726 0547    7.6964 GAU  1.00e-01 -1.00e+00 -1.00e+00 -1.00e+00 >   71.2127  -19.3860    0.0000  101.4888   -0.5981   -0.0090    4.6326   6.19  -1.0  -1.0  0     0.0000
IA_LBT ?    Z    ? P      ? 20240726 0547   28.3514 GAU  1.00e-01 -1.00e+00 -1.00e+00 -1.00e+00 >   72.7284   -0.2467    1.2381  100.6250   -0.4750   -0.4170    4.7429 355.58  -1.0  -1.0  0     0.0000
IA_SUP ?    Z    ? P      ? 20240726 0547   30.6714 GAU  1.00e-01 -1.00e+00 -1.00e+00 -1.00e+00 >   73.1480    1.6537    0.3162  105.5150   -6.7960   -0.0510    4.7734 109.71  -1.0  -1.0  0     0.0000
IA_PPI ?    Z    ? P      ? 20240726 0547   28.8914 GAU  1.00e-01 -1.00e+00 -1.00e+00 -1.00e+00 >   73.3090   -0.2873    1.2270  100.3972   -0.4555   -0.7836    4.7851 352.88  -1.0  -1.0  0     0.0000
IA_CGJ ?    Z    ? P      ? 20240726 0547   29.6914 GAU  1.00e-01 -1.00e+00 -1.00e+00 -1.00e+00 >   74.6511   -0.8295    0.9313  105.6900   -6.6134   -0.1820    4.8828 107.01  -1.0  -1.0  0     0.0000
IA_RGR ?    Z    ? P      ? 20240726 0547   33.2214 GAU  1.00e-01 -1.00e+00 -1.00e+00 -1.00e+00 >   76.7676    0.5841    1.0423  102.3338   -0.3491   -0.0409    5.0368  15.49  -1.0  -1.0  0     0.0000
IA_SBJ ?    Z    ? P      ? 20240726 0547   35.8314 GAU  1.00e-01 -1.00e+00 -1.00e+00 -1.00e+00 >   78.9639    0.9978    0.7415  106.1318   -6.1117   -0.0645    5.1966 100.31  -1.0  -1.0  0     0.0000
IA_LKS ?    Z    ? P      ? 20240726 0547   33.1714 GAU  1.00e-01 -1.00e+00 -1.00e+00 -1.00e+00 >   81.7913   -4.4896    0.0000  100.6007    0.1845   -0.1860    5.4024 355.86  -1.0  -1.0  0     0.0000
IA_PLS ?    Z    ? P      ? 20240726 0547   38.4932 GAU  1.00e-01 -1.00e+00 -1.00e+00 -1.00e+00 >   82.5632    0.0602    1.2581  100.5540    0.2373   -0.1330    5.4585 355.41  -1.0  -1.0  0     0.0000
IA_CIL ?    Z    ? P      ? 20240726 0547   38.5314 GAU  1.00e-01 -1.00e+00 -1.00e+00 -1.00e+00 >   83.6574   -0.9957    0.8055  106.3160   -6.8220   -0.3320    5.5382 107.26  -1.0  -1.0  0     0.0000
IA_SBS ?    Z    ? P      ? 20240726 0547   39.8714 GAU  1.00e-01 -1.00e+00 -1.00e+00 -1.00e+00 >   85.0161   -1.0145    0.7908   99.3775    0.1983   -0.0010    5.6371 343.35  -1.0  -1.0  0     0.0000
IA_IHR ?    Z    ? P      ? 20240726 0547   26.4914 GAU  1.00e-01 -1.00e+00 -1.00e+00 -1.00e+00 >   85.3221  -14.7004    0.0000  103.1700    0.0200    0.0000    5.6593  22.69  -1.0  -1.0  0     0.0000
IA_PRS ?    Z    ? P      ? 20240726 0547   41.3714 GAU  1.00e-01 -1.00e+00 -1.00e+00 -1.00e+00 >   85.8407   -0.3390    1.2102  102.1700    0.3700    0.0000    5.6971  11.97  -1.0  -1.0  0     0.0000
IA_PSJ ?    Z    ? P      ? 20240726 0547   43.5464 GAU  1.00e-01 -1.00e+00 -1.00e+00 -1.00e+00 >   87.2870    0.3897    1.1541  106.5491   -6.9686   -0.2050    5.8024 107.99  -1.0  -1.0  0     0.0000
IA_RRH ?    Z    ? P      ? 20240726 0547   42.9464 GAU  1.00e-01 -1.00e+00 -1.00e+00 -1.00e+00 >   87.2890   -0.2123    1.2460  100.4274    0.5714   -0.0920    5.8025 354.43  -1.0  -1.0  0     0.0000
IA_PBS ?    Z    ? P      ? 20240726 0547   43.9964 GAU  1.00e-01 -1.00e+00 -1.00e+00 -1.00e+00 >   87.4881    0.6386    1.0061   98.2800   -0.0547   -0.0470    5.8170 332.19  -1.0  -1.0  0     0.0000
IA_CSJ ?    Z    ? P      ? 20240726 0547   43.2682 GAU  1.00e-01 -1.00e+00 -1.00e+00 -1.00e+00 >   88.5527   -1.1542    0.6813  106.5210   -7.3302   -0.1530    5.8945 111.43  -1.0  -1.0  0     0.0000
IA_WSJ ?    Z    ? P      ? 20240726 0547   45.3464 GAU  1.00e-01 -1.00e+00 -1.00e+00 -1.00e+00 >   89.6003   -0.1236    1.2599  106.7247   -6.9747   -0.3100    5.9707 107.54  -1.0  -1.0  0     0.0000
IA_JTJ ?    Z    ? P      ? 20240726 0547   46.0714 GAU  1.00e-01 -1.00e+00 -1.00e+00 -1.00e+00 >   90.9359   -0.7343    0.9987  106.8015   -7.0573   -0.5280    6.0680 108.08  -1.0  -1.0  0     0.0000
IA_RRS ?    Z    ? P      ? 20240726 0547   47.2714 GAU  1.00e-01 -1.00e+00 -1.00e+00 -1.00e+00 >   91.0864    0.3153    1.1880  100.3461    0.8410   -0.0780    6.0789 353.91  -1.0  -1.0  0     0.0000
IA_SIR ?    Z    ? P      ? 20240726 0547   47.7714 GAU  1.00e-01 -1.00e+00 -1.00e+00 -1.00e+00 >   91.3851    0.5166    1.0844  101.6600    0.8600    0.0000    6.1007   6.32  -1.0  -1.0  0     0.0000
IA_SSJ ?    Z    ? P      ? 20240726 0547   48.5214 GAU  1.00e-01 -1.00e+00 -1.00e+00 -1.00e+00 >   92.3798    0.2719    1.2051  106.9626   -6.8872   -0.8410    6.1731 106.12  -1.0  -1.0  0     0.0000
IA_SCJ ?    Z    ? P      ? 20240726 0547   52.2464 GAU  1.00e-01 -1.00e+00 -1.00e+00 -1.00e+00 >   95.6437    0.7330    0.9398  107.2221   -6.8437   -0.3270    6.4107 105.13  -1.0  -1.0  0     0.0000
IA_CNJ ?    Z    ? P      ? 20240726 0547   51.4214 GAU  1.00e-01 -1.00e+00 -1.00e+00 -1.00e+00 >   96.2592   -0.7075    1.0168  107.1296   -7.3090   -0.5890    6.4555 109.35  -1.0  -1.0  0     0.0000
IA_CWJ ?    Z    ? P      ? 20240726 0547   55.9714 GAU  1.00e-01 -1.00e+00 -1.00e+00 -1.00e+00 >   98.2619    1.8398    0.2322  107.4449   -6.7424   -0.6490    6.6014 103.80  -1.0  -1.0  0     0.0000
IA_RHR ?    Z    ? P      ? 20240726 0547   56.5714 GAU  1.00e-01 -1.00e+00 -1.00e+00 -1.00e+00 >   99.0826    1.6191    0.3337  100.5100    1.4400    0.0000    6.6611 355.86  -1.0  -1.0  0     0.0000
IA_ACB ?    Z    ? P      ? 20240726 0547   58.9214 GAU  1.00e-01 -1.00e+00 -1.00e+00 -1.00e+00 >  102.3675    0.6842    0.9746  107.6828   -7.0298   -0.7660    6.9004 105.68  -1.0  -1.0  0     0.0000
IA_TSJ ?    Z    ? P      ? 20240726 0548    0.3714 GAU  1.00e-01 -1.00e+00 -1.00e+00 -1.00e+00 >  103.0993    1.4024    0.0000  107.8109   -6.7319   -0.4200    6.9537 103.03  -1.0  -1.0  0     0.0000
IA_BBJ ?    Z    ? P      ? 20240726 0547   57.9545 GAU  1.00e-01 -1.00e+00 -1.00e+00 -1.00e+00 >  103.6487   -1.5639    0.3815  107.6500   -7.4626   -0.6150    6.9937 109.19  -1.0  -1.0  0     0.0000
IA_TPI ?    Z    ? P      ? 20240726 0548    2.0114 GAU  1.00e-01 -1.00e+00 -1.00e+00 -1.00e+00 >  104.8773    1.2644    0.0000  107.6535   -2.7563   -0.0250    7.0832  70.04  -1.0  -1.0  0     0.0000
IA_CIJ ?    Z    ? P      ? 20240726 0548    4.5214 GAU  1.00e-01 -1.00e+00 -1.00e+00 -1.00e+00 >  107.4790    1.1727    0.0000  108.1852   -6.4925   -0.0430    7.2727 100.56  -1.0  -1.0  0     0.0000
IA_TOJ ?    Z    ? P      ? 20240726 0548    5.5182 GAU  1.00e-01 -1.00e+00 -1.00e+00 -1.00e+00 >  107.4983    2.1502    0.0000  108.1344   -6.7621   -0.0730    7.2741 102.73  -1.0  -1.0  0     0.0000
IA_GSI ?    Z    ? P      ? 20240726 0548    5.2432 GAU  1.00e-01 -1.00e+00 -1.00e+00 -1.00e+00 >  108.5041    0.8693    0.0000   97.5755    1.3039   -0.1070    7.3474 332.25  -1.0  -1.0  0     0.0000
IA_PTS ?    Z    ? P      ? 20240726 0548    5.3214 GAU  1.00e-01 -1.00e+00 -1.00e+00 -1.00e+00 >  109.8062   -0.3545    0.0000   99.1660    2.0119   -1.1960    7.4422 345.78  -1.0  -1.0  0     0.0000
IA_LTN ?    Z    ? P      ? 20240726 0548    7.1114 GAU  1.00e-01 -1.00e+00 -1.00e+00 -1.00e+00 >  110.5615    0.6802    0.0000   97.3200    1.3360   -0.0520    7.4972 330.63  -1.0  -1.0  0     0.0000
IA_PKJ ?    Z    ? P      ? 20240726 0548    8.6964 GAU  1.00e-01 -1.00e+00 -1.00e+00 -1.00e+00 >  111.6679    1.1588    0.0000  108.4399   -6.7958   -0.2900    7.5778 102.50  -1.0  -1.0  0     0.0000
IA_ONS ?    Z    ? P      ? 20240726 0548    8.2214 GAU  1.00e-01 -1.00e+00 -1.00e+00 -1.00e+00 >  113.7823   -1.4306    0.0000   98.6301    2.1599   -1.1580    7.7319 342.19  -1.0  -1.0  0     0.0000
IA_MUT ?    Z    ? P      ? 20240726 0548    8.9914 GAU  1.00e-01 -1.00e+00 -1.00e+00 -1.00e+00 >  114.3289   -1.2073    0.0000   98.9650    2.3000   -1.5710    7.7717 344.87  -1.0  -1.0  0     0.0000
IA_CMJ ?    Z    ? P      ? 20240726 0548   10.4464 GAU  1.00e-01 -1.00e+00 -1.00e+00 -1.00e+00 >  115.3584   -0.7818    0.0000  108.4490   -7.7840   -0.0780    7.8468 109.59  -1.0  -1.0  0     0.0000
IA_PCJ ?    Z    ? P      ? 20240726 0548   13.0964 GAU  1.00e-01 -1.00e+00 -1.00e+00 -1.00e+00 >  115.7229    1.5037    0.0000  108.7191   -6.9129   -0.6460    7.8733 102.93  -1.0  -1.0  0     0.0000
IA_SIC ?    Z    ? P      ? 20240726 0548   15.7114 GAU  1.00e-01 -1.00e+00 -1.00e+00 -1.00e+00 >  118.7499    1.0918    0.0000  108.8080   -7.4720   -0.0680    8.0939 106.68  -1.0  -1.0  0     0.0000
IA_KPJ ?    Z    ? P      ? 20240726 0548   16.8964 GAU  1.00e-01 -1.00e+00 -1.00e+00 -1.00e+00 >  119.8649    1.1618    0.0000  108.9310   -7.3333   -0.1110    8.1752 105.51  -1.0  -1.0  0     0.0000
IA_KAS ?    Z    ? P      ? 20240726 0548   16.1714 GAU  1.00e-01 -1.00e+00 -1.00e+00 -1.00e+00 >  121.6781   -1.3764    0.0000   97.8582    2.4919   -0.0040    8.3074 337.80  -1.0  -1.0  0     0.0000
IA_BTJ ?    Z    ? P      ? 20240726 0548   19.2182 GAU  1.00e-01 -1.00e+00 -1.00e+00 -1.00e+00 >  122.4923    0.8562    0.0000  109.1641   -7.1972   -0.9420    8.3667 104.20  -1.0  -1.0  0     0.0000
IA_SSS ?    Z    ? P      ? 20240726 0548   18.4614 GAU  1.00e-01 -1.00e+00 -1.00e+00 -1.00e+00 >  123.4476   -0.8559    0.0000   97.9708    2.6749   -0.0560    8.4363 338.98  -1.0  -1.0  0     0.0000
IA_LDS ?    Z    ? P      ? 20240726 0548   19.4464 GAU  1.00e-01 -1.00e+00 -1.00e+00 -1.00e+00 >  125.2889   -1.7122    0.0000   98.1570    2.8860   -0.8190    8.5706 340.66  -1.0  -1.0  0     0.0000
IA_TKS ?    Z    ? P      ? 20240726 0548   22.1714 GAU  1.00e-01 -1.00e+00 -1.00e+00 -1.00e+00 >  127.8314   -1.5297    0.0000   98.3244    3.1374   -0.7200    8.7560 342.24  -1.0  -1.0  0     0.0000
IA_MBJ ?    Z    ? P      ? 20240726 0548   25.7214 GAU  1.00e-01 -1.00e+00 -1.00e+00 -1.00e+00 >  129.5008    0.3509    0.0000  109.6324   -7.4489   -0.0490    8.8777 105.10  -1.0  -1.0  0     0.0000
IA_SNS ?    Z    ? P      ? 20240726 0548   27.2714 GAU  1.00e-01 -1.00e+00 -1.00e+00 -1.00e+00 >  130.1491    1.2526    0.0000   96.3267    2.4089   -0.0145    8.9250 328.43  -1.0  -1.0  0     0.0000
IA_GTJ ?    Z    ? P      ? 20240726 0548   32.8145 GAU  1.00e-01 -1.00e+00 -1.00e+00 -1.00e+00 >  135.9416    1.0032    0.0000  110.1837   -7.1638   -0.7490    9.3475 102.57  -1.0  -1.0  0     0.0000
IA_KKJ ?    Z    ? P      ? 20240726 0548   31.6964 GAU  1.00e-01 -1.00e+00 -1.00e+00 -1.00e+00 >  136.4747   -0.6480    0.0000  110.0572   -7.8434   -0.1150    9.3864 106.81  -1.0  -1.0  0     0.0000
IA_SAK ?    Z    ? P      ? 20240726 0548   32.8314 GAU  1.00e-01 -1.00e+00 -1.00e+00 -1.00e+00 >  137.1886   -0.2269    0.0000  110.1550   -7.6860   -0.7060    9.4385 105.73  -1.0  -1.0  0     0.0000
IA_PGJ ?    Z    ? P      ? 20240726 0548   37.0932 GAU  1.00e-01 -1.00e+00 -1.00e+00 -1.00e+00 >  141.7591   -0.5356    0.0000  110.4140   -8.0102   -0.3610    9.7719 107.19  -1.0  -1.0  0     0.0000
IA_SYJ ?    Z    ? P      ? 20240726 0548   37.1914 GAU  1.00e-01 -1.00e+00 -1.00e+00 -1.00e+00 >  141.8249   -0.5032    0.0000  110.4914   -7.7483    0.0000    9.7767 105.59  -1.0  -1.0  0     0.0000
IA_UGM ?    Z    ? P      ? 20240726 0548   37.7798 GAU  1.00e-01 -1.00e+00 -1.00e+00 -1.00e+00 >  142.8210   -0.9109    0.0000  110.5231   -7.9125   -0.3500    9.8494 106.47  -1.0  -1.0  0     0.0000
IA_JAA ?    Z    ? P      ? 20240726 0548   40.6714 GAU  1.00e-01 -1.00e+00 -1.00e+00 -1.00e+00 >  143.3746    1.4271    0.0000   96.8200    3.7660   -0.0120    9.8898 335.01  -1.0  -1.0  0     0.0000
IA_BGA ?    Z    ? P      ? 20240726 0548   41.5314 GAU  1.00e-01 -1.00e+00 -1.00e+00 -1.00e+00 >  143.4193    2.2424    0.0000   97.3150    3.9830   -1.0780    9.8931 338.15  -1.0  -1.0  0     0.0000
IA_BMB ?    Z    ? P      ? 20240726 0548   41.8145 GAU  1.00e-01 -1.00e+00 -1.00e+00 -1.00e+00 >  144.1736    1.7712    0.0000  110.8839   -6.6635   -1.0290    9.9482  98.93  -1.0  -1.0  0     0.0000
IA_SSK ?    Z    ? P      ? 20240726 0548   41.2464 GAU  1.00e-01 -1.00e+00 -1.00e+00 -1.00e+00 >  144.7367    0.6400    0.0000  108.9703    0.8172   -0.0200    9.9893  53.16  -1.0  -1.0  0     0.0000
IA_WOJ ?    Z    ? P      ? 20240726 0548   42.9964 GAU  1.00e-01 -1.00e+00 -1.00e+00 -1.00e+00 >  147.8101   -0.6834    0.0000  110.9236   -7.8372   -0.1836   10.2136 105.47  -1.0  -1.0  0     0.0000
IA_NKK ?    Z    ? P      ? 20240726 0548   45.5464 GAU  1.00e-01 -1.00e+00 -1.00e+00 -1.00e+00 >  148.0288    1.6479    0.0000  110.5671   -1.5605   -0.0690   10.2296  69.47  -1.0  -1.0  0     0.0000
IA_PCJ ?    Z    ? P      ? 20240726 0548   46.7964 GAU  1.00e-01 -1.00e+00 -1.00e+00 -1.00e+00 >  152.4042   -1.4776    0.0000  111.1771   -8.1947   -0.7023   10.5490 107.02  -1.0  -1.0  0     0.0000
IA_JBJ ?    Z    ? P      ? 20240726 0548   50.7714 GAU  1.00e-01 -1.00e+00 -1.00e+00 -1.00e+00 >  152.5315    2.3702    0.0000  111.4587   -6.9729   -0.0980   10.5583 100.17  -1.0  -1.0  0     0.0000
IA_BAP ?    Z    ? P      ? 20240726 0548   47.7514 GAU  1.00e-01 -1.00e+00 -1.00e+00 -1.00e+00 >  153.0774   -1.1957    0.0000  111.3050   -7.9120   -0.2440   10.5982 105.35  -1.0  -1.0  0     0.0000
IA_SWJ ?    Z    ? P      ? 20240726 0548   54.4114 GAU  1.00e-01 -1.00e+00 -1.00e+00 -1.00e+00 >  158.6095   -0.0679    0.0000  111.7669   -7.7349   -0.7233   11.0023 103.87  -1.0  -1.0  0     0.0000
IA_SNJ ?    Z    ? P      ? 20240726 0548   54.3214 GAU  1.00e-01 -1.00e+00 -1.00e+00 -1.00e+00 >  158.6453   -0.1936    0.0000  111.7591   -7.7808   -1.3410   11.0049 104.11  -1.0  -1.0  0     0.0000
