IA_BNDI_   ? Z ? P ? 20240815 1508 38.2121 GAU 1.00e-01 -1.00e+00 -1.00e+00 -1.00e+00 1.00e+00
IA_SAUI_   ? Z ? P ? 20240815 1508 40.8521 GAU 1.00e-01 -1.00e+00 -1.00e+00 -1.00e+00 1.00e+00
IA_KKMI_00 ? Z ? P ? 20240815 1508 49.7587 GAU 1.00e-01 -1.00e+00 -1.00e+00 -1.00e+00 1.00e+00
IA_TLE2_00 ? Z ? P ? 20240815 1508 51.0837 GAU 1.00e-01 -1.00e+00 -1.00e+00 -1.00e+00 1.00e+00
IA_MLMMI_  ? Z ? P ? 20240815 1508 52.3637 GAU 1.00e-01 -1.00e+00 -1.00e+00 -1.00e+00 1.00e+00
IA_MSAI_00 ? Z ? P ? 20240815 1508 56.0237 GAU 1.00e-01 -1.00e+00 -1.00e+00 -1.00e+00 1.00e+00
IA_AAI_    ? Z ? P ? 20240815 1508 56.3437 GAU 1.00e-01 -1.00e+00 -1.00e+00 -1.00e+00 1.00e+00
IA_KRAI_00 ? Z ? P ? 20240815 1508 59.7437 GAU 1.00e-01 -1.00e+00 -1.00e+00 -1.00e+00 1.00e+00
IA_TTSMI_  ? Z ? P ? 20240815 1509 04.1637 GAU 1.00e-01 -1.00e+00 -1.00e+00 -1.00e+00 1.00e+00
IA_FAKI_   ? Z ? P ? 20240815 1509 03.5521 GAU 1.00e-01 -1.00e+00 -1.00e+00 -1.00e+00 1.00e+00
IA_KMPI_   ? Z ? P ? 20240815 1509 10.6837 GAU 1.00e-01 -1.00e+00 -1.00e+00 -1.00e+00 1.00e+00
IA_MBRPI_  ? Z ? P ? 20240815 1509 11.7437 GAU 1.00e-01 -1.00e+00 -1.00e+00 -1.00e+00 1.00e+00
IA_BATPI_  ? Z ? P ? 20240815 1509 17.7237 GAU 1.00e-01 -1.00e+00 -1.00e+00 -1.00e+00 1.00e+00
IA_KORPI_  ? Z ? P ? 20240815 1509 18.8837 GAU 1.00e-01 -1.00e+00 -1.00e+00 -1.00e+00 1.00e+00
IA_TSPI_00 ? Z ? P ? 20240815 1509 19.3337 GAU 1.00e-01 -1.00e+00 -1.00e+00 -1.00e+00 1.00e+00
IA_SWI_    ? Z ? P ? 20240815 1509 23.9437 GAU 1.00e-01 -1.00e+00 -1.00e+00 -1.00e+00 1.00e+00
IA_ALKI_   ? Z ? P ? 20240815 1509 30.4837 GAU 1.00e-01 -1.00e+00 -1.00e+00 -1.00e+00 1.00e+00
IA_GARPI_  ? Z ? P ? 20240815 1509 28.9837 GAU 1.00e-01 -1.00e+00 -1.00e+00 -1.00e+00 1.00e+00
IA_SANI_   ? Z ? P ? 20240815 1509 32.9521 GAU 1.00e-01 -1.00e+00 -1.00e+00 -1.00e+00 1.00e+00
IA_NBPI_   ? Z ? P ? 20240815 1509 34.3237 GAU 1.00e-01 -1.00e+00 -1.00e+00 -1.00e+00 1.00e+00
IA_UWNPI_  ? Z ? P ? 20240815 1509 33.7837 GAU 1.00e-01 -1.00e+00 -1.00e+00 -1.00e+00 1.00e+00
IA_MTMTI_  ? Z ? P ? 20240815 1509 33.2837 GAU 1.00e-01 -1.00e+00 -1.00e+00 -1.00e+00 1.00e+00
IA_ANAPI_  ? Z ? P ? 20240815 1509 33.5237 GAU 1.00e-01 -1.00e+00 -1.00e+00 -1.00e+00 1.00e+00
IA_KARPI_  ? Z ? P ? 20240815 1509 34.8037 GAU 1.00e-01 -1.00e+00 -1.00e+00 -1.00e+00 1.00e+00
IA_GHMI_00 ? Z ? P ? 20240815 1509 36.6337 GAU 1.00e-01 -1.00e+00 -1.00e+00 -1.00e+00 1.00e+00
IA_MUMUI_  ? Z ? P ? 20240815 1509 39.4637 GAU 1.00e-01 -1.00e+00 -1.00e+00 -1.00e+00 1.00e+00
IA_WWCI_00 ? Z ? P ? 20240815 1509 42.5337 GAU 1.00e-01 -1.00e+00 -1.00e+00 -1.00e+00 1.00e+00
IA_ATKTI_  ? Z ? P ? 20240815 1509 41.9837 GAU 1.00e-01 -1.00e+00 -1.00e+00 -1.00e+00 1.00e+00
IA_MIPI_00 ? Z ? P ? 20240815 1509 45.3337 GAU 1.00e-01 -1.00e+00 -1.00e+00 -1.00e+00 1.00e+00
IA_ASTTI_  ? Z ? P ? 20240815 1509 43.2837 GAU 1.00e-01 -1.00e+00 -1.00e+00 -1.00e+00 1.00e+00
IA_KUBSI_  ? Z ? P ? 20240815 1509 48.3437 GAU 1.00e-01 -1.00e+00 -1.00e+00 -1.00e+00 1.00e+00
IA_MSHHI_  ? Z ? P ? 20240815 1509 46.7437 GAU 1.00e-01 -1.00e+00 -1.00e+00 -1.00e+00 1.00e+00
IA_WWPI_00 ? Z ? P ? 20240815 1509 52.0587 GAU 1.00e-01 -1.00e+00 -1.00e+00 -1.00e+00 1.00e+00
IA_WTKSI_  ? Z ? P ? 20240815 1509 50.4837 GAU 1.00e-01 -1.00e+00 -1.00e+00 -1.00e+00 1.00e+00
IA_YBYPI_  ? Z ? P ? 20240815 1509 50.5237 GAU 1.00e-01 -1.00e+00 -1.00e+00 -1.00e+00 1.00e+00
IA_LRTI_   ? Z ? P ? 20240815 1509 50.5587 GAU 1.00e-01 -1.00e+00 -1.00e+00 -1.00e+00 1.00e+00
IA_BATI_   ? Z ? P ? 20240815 1509 53.2237 GAU 1.00e-01 -1.00e+00 -1.00e+00 -1.00e+00 1.00e+00
IA_LOMSI_  ? Z ? P ? 20240815 1509 54.7437 GAU 1.00e-01 -1.00e+00 -1.00e+00 -1.00e+00 1.00e+00
IA_BBSI_   ? Z ? P ? 20240815 1509 55.6587 GAU 1.00e-01 -1.00e+00 -1.00e+00 -1.00e+00 1.00e+00
IA_TNTI_   ? Z ? P ? 20240815 1509 52.9121 GAU 1.00e-01 -1.00e+00 -1.00e+00 -1.00e+00 1.00e+00
IA_BAKI_00 ? Z ? P ? 20240815 1509 57.8837 GAU 1.00e-01 -1.00e+00 -1.00e+00 -1.00e+00 1.00e+00
IA_SUSPI_  ? Z ? P ? 20240815 1509 56.3637 GAU 1.00e-01 -1.00e+00 -1.00e+00 -1.00e+00 1.00e+00
IA_JHMI_00 ? Z ? P ? 20240815 1509 56.5087 GAU 1.00e-01 -1.00e+00 -1.00e+00 -1.00e+00 1.00e+00
IA_KDI_01  ? Z ? P ? 20240815 1510 00.4237 GAU 1.00e-01 -1.00e+00 -1.00e+00 -1.00e+00 1.00e+00
IA_PKCI_00 ? Z ? P ? 20240815 1510 00.4837 GAU 1.00e-01 -1.00e+00 -1.00e+00 -1.00e+00 1.00e+00
IA_BBLSI_  ? Z ? P ? 20240815 1510 02.1087 GAU 1.00e-01 -1.00e+00 -1.00e+00 -1.00e+00 1.00e+00
IA_POBSI_  ? Z ? P ? 20240815 1510 03.5037 GAU 1.00e-01 -1.00e+00 -1.00e+00 -1.00e+00 1.00e+00
IA_MASFI_  ? Z ? P ? 20240815 1510 03.2037 GAU 1.00e-01 -1.00e+00 -1.00e+00 -1.00e+00 1.00e+00
IA_LKUCM_  ? Z ? P ? 20240815 1510 07.9805 GAU 1.00e-01 -1.00e+00 -1.00e+00 -1.00e+00 1.00e+00
IA_BGCI_00 ? Z ? P ? 20240815 1510 12.3087 GAU 1.00e-01 -1.00e+00 -1.00e+00 -1.00e+00 1.00e+00
IA_MTAI_   ? Z ? P ? 20240815 1510 07.8837 GAU 1.00e-01 -1.00e+00 -1.00e+00 -1.00e+00 1.00e+00
IA_MTMPI_  ? Z ? P ? 20240815 1510 12.3237 GAU 1.00e-01 -1.00e+00 -1.00e+00 -1.00e+00 1.00e+00
IA_EDFI_   ? Z ? P ? 20240815 1510 09.0337 GAU 1.00e-01 -1.00e+00 -1.00e+00 -1.00e+00 1.00e+00
IA_WAMI_00 ? Z ? P ? 20240815 1510 14.6337 GAU 1.00e-01 -1.00e+00 -1.00e+00 -1.00e+00 1.00e+00
IA_OBMPI_  ? Z ? P ? 20240815 1510 11.0237 GAU 1.00e-01 -1.00e+00 -1.00e+00 -1.00e+00 1.00e+00
IA_PBCI_00 ? Z ? P ? 20240815 1510 12.8837 GAU 1.00e-01 -1.00e+00 -1.00e+00 -1.00e+00 1.00e+00
IA_NANFI_  ? Z ? P ? 20240815 1510 14.3837 GAU 1.00e-01 -1.00e+00 -1.00e+00 -1.00e+00 1.00e+00
IA_WKCM_   ? Z ? P ? 20240815 1510 15.9055 GAU 1.00e-01 -1.00e+00 -1.00e+00 -1.00e+00 1.00e+00
IA_EDMPI_  ? Z ? P ? 20240815 1510 17.8037 GAU 1.00e-01 -1.00e+00 -1.00e+00 -1.00e+00 1.00e+00
IA_TOBSI_  ? Z ? P ? 20240815 1510 18.2237 GAU 1.00e-01 -1.00e+00 -1.00e+00 -1.00e+00 1.00e+00
IA_WMCM_00 ? Z ? P ? 20240815 1510 21.1587 GAU 1.00e-01 -1.00e+00 -1.00e+00 -1.00e+00 1.00e+00
IA_SATPI_  ? Z ? P ? 20240815 1510 05.3837 GAU 1.00e-01 -1.00e+00 -1.00e+00 -1.00e+00 0.00e+00
IA_BUBSI_  ? Z ? P ? 20240815 1510 22.5037 GAU 1.00e-01 -1.00e+00 -1.00e+00 -1.00e+00 1.00e+00
IA_BUMSI_  ? Z ? P ? 20240815 1510 25.3087 GAU 1.00e-01 -1.00e+00 -1.00e+00 -1.00e+00 1.00e+00
IA_LMTI_00 ? Z ? P ? 20240815 1510 25.2337 GAU 1.00e-01 -1.00e+00 -1.00e+00 -1.00e+00 1.00e+00
IA_BKSI_   ? Z ? P ? 20240815 1510 26.3587 GAU 1.00e-01 -1.00e+00 -1.00e+00 -1.00e+00 1.00e+00
IA_UMSSI_  ? Z ? P ? 20240815 1510 22.7037 GAU 1.00e-01 -1.00e+00 -1.00e+00 -1.00e+00 0.00e+00
IA_APSI_   ? Z ? P ? 20240815 1510 28.8637 GAU 1.00e-01 -1.00e+00 -1.00e+00 -1.00e+00 1.00e+00
IA_BBCM_00 ? Z ? P ? 20240815 1510 27.7837 GAU 1.00e-01 -1.00e+00 -1.00e+00 -1.00e+00 1.00e+00
IA_GTOI_00 ? Z ? P ? 20240815 1510 28.8837 GAU 1.00e-01 -1.00e+00 -1.00e+00 -1.00e+00 1.00e+00
IA_UTUSI_  ? Z ? P ? 20240815 1510 30.1087 GAU 1.00e-01 -1.00e+00 -1.00e+00 -1.00e+00 1.00e+00
IA_BTSPI_  ? Z ? P ? 20240815 1510 31.8037 GAU 1.00e-01 -1.00e+00 -1.00e+00 -1.00e+00 1.00e+00
IA_BNSI_   ? Z ? P ? 20240815 1510 30.2637 GAU 1.00e-01 -1.00e+00 -1.00e+00 -1.00e+00 1.00e+00
IA_TOTSI_  ? Z ? P ? 20240815 1510 30.8437 GAU 1.00e-01 -1.00e+00 -1.00e+00 -1.00e+00 1.00e+00
IA_KJCM_   ? Z ? P ? 20240815 1510 30.2555 GAU 1.00e-01 -1.00e+00 -1.00e+00 -1.00e+00 1.00e+00
IA_LBFI_00 ? Z ? P ? 20240815 1510 30.7837 GAU 1.00e-01 -1.00e+00 -1.00e+00 -1.00e+00 1.00e+00
IA_LSCM_00 ? Z ? P ? 20240815 1510 32.0587 GAU 1.00e-01 -1.00e+00 -1.00e+00 -1.00e+00 1.00e+00
IA_TTPSI_  ? Z ? P ? 20240815 1510 32.2587 GAU 1.00e-01 -1.00e+00 -1.00e+00 -1.00e+00 1.00e+00
IA_ELMPI_  ? Z ? P ? 20240815 1510 32.8037 GAU 1.00e-01 -1.00e+00 -1.00e+00 -1.00e+00 1.00e+00
IA_PUPSI_  ? Z ? P ? 20240815 1510 34.3637 GAU 1.00e-01 -1.00e+00 -1.00e+00 -1.00e+00 1.00e+00
IA_MRSI_   ? Z ? P ? 20240815 1510 35.3587 GAU 1.00e-01 -1.00e+00 -1.00e+00 -1.00e+00 1.00e+00
IA_KHSSI_  ? Z ? P ? 20240815 1510 31.4037 GAU 1.00e-01 -1.00e+00 -1.00e+00 -1.00e+00 0.00e+00
IA_SMSI_   ? Z ? P ? 20240815 1510 36.0087 GAU 1.00e-01 -1.00e+00 -1.00e+00 -1.00e+00 1.00e+00
IA_PPCM_00 ? Z ? P ? 20240815 1510 37.7587 GAU 1.00e-01 -1.00e+00 -1.00e+00 -1.00e+00 1.00e+00
IA_SJPM_   ? Z ? P ? 20240815 1510 43.8055 GAU 1.00e-01 -1.00e+00 -1.00e+00 -1.00e+00 0.00e+00
IA_ARKPI_  ? Z ? P ? 20240815 1510 40.6237 GAU 1.00e-01 -1.00e+00 -1.00e+00 -1.00e+00 1.00e+00
IA_MGAI_   ? Z ? P ? 20240815 1510 35.8337 GAU 1.00e-01 -1.00e+00 -1.00e+00 -1.00e+00 1.00e+00
IA_SAPSI_  ? Z ? P ? 20240815 1510 42.1437 GAU 1.00e-01 -1.00e+00 -1.00e+00 -1.00e+00 1.00e+00
IA_TAPSI_  ? Z ? P ? 20240815 1510 43.8837 GAU 1.00e-01 -1.00e+00 -1.00e+00 -1.00e+00 1.00e+00
IA_MMCI_00 ? Z ? P ? 20240815 1510 44.7337 GAU 1.00e-01 -1.00e+00 -1.00e+00 -1.00e+00 1.00e+00
IA_TPCI_00 ? Z ? P ? 20240815 1510 29.3587 GAU 1.00e-01 -1.00e+00 -1.00e+00 -1.00e+00 0.00e+00
IA_WBNI_   ? Z ? P ? 20240815 1510 43.6337 GAU 1.00e-01 -1.00e+00 -1.00e+00 -1.00e+00 1.00e+00
IA_SBSSI_  ? Z ? P ? 20240815 1510 46.9037 GAU 1.00e-01 -1.00e+00 -1.00e+00 -1.00e+00 1.00e+00
IA_BBCI_00 ? Z ? P ? 20240815 1510 44.7587 GAU 1.00e-01 -1.00e+00 -1.00e+00 -1.00e+00 1.00e+00
IA_KBSSI_  ? Z ? P ? 20240815 1510 45.0037 GAU 1.00e-01 -1.00e+00 -1.00e+00 -1.00e+00 1.00e+00
IA_RDCM_00 ? Z ? P ? 20240815 1510 51.2587 GAU 1.00e-01 -1.00e+00 -1.00e+00 -1.00e+00 1.00e+00
IA_PBNI_   ? Z ? P ? 20240815 1510 46.4637 GAU 1.00e-01 -1.00e+00 -1.00e+00 -1.00e+00 1.00e+00
IA_DOCM_00 ? Z ? P ? 20240815 1510 52.0837 GAU 1.00e-01 -1.00e+00 -1.00e+00 -1.00e+00 1.00e+00
IA_TIPSI_  ? Z ? P ? 20240815 1510 52.4037 GAU 1.00e-01 -1.00e+00 -1.00e+00 -1.00e+00 1.00e+00
IA_TOLI2_  ? Z ? P ? 20240815 1510 51.5721 GAU 1.00e-01 -1.00e+00 -1.00e+00 -1.00e+00 1.00e+00
IA_MASSI_  ? Z ? P ? 20240815 1510 49.9637 GAU 1.00e-01 -1.00e+00 -1.00e+00 -1.00e+00 1.00e+00
IA_TSNI_   ? Z ? P ? 20240815 1510 50.4337 GAU 1.00e-01 -1.00e+00 -1.00e+00 -1.00e+00 1.00e+00
IA_BGCM_00 ? Z ? P ? 20240815 1510 54.1837 GAU 1.00e-01 -1.00e+00 -1.00e+00 -1.00e+00 1.00e+00
IA_MPSI_   ? Z ? P ? 20240815 1510 56.2587 GAU 1.00e-01 -1.00e+00 -1.00e+00 -1.00e+00 1.00e+00
IA_ESNI_   ? Z ? P ? 20240815 1510 52.6337 GAU 1.00e-01 -1.00e+00 -1.00e+00 -1.00e+00 0.00e+00
IA_PLAI_   ? Z ? P ? 20240815 1510 57.2555 GAU 1.00e-01 -1.00e+00 -1.00e+00 -1.00e+00 1.00e+00
IA_RSNI_   ? Z ? P ? 20240815 1511 00.2587 GAU 1.00e-01 -1.00e+00 -1.00e+00 -1.00e+00 1.00e+00
IA_LSNI_   ? Z ? P ? 20240815 1511 08.3087 GAU 1.00e-01 -1.00e+00 -1.00e+00 -1.00e+00 1.00e+00
IA_BYLI_00 ? Z ? P ? 20240815 1511 17.3837 GAU 1.00e-01 -1.00e+00 -1.00e+00 -1.00e+00 1.00e+00
IA_KLNI_   ? Z ? P ? 20240815 1511 18.9237 GAU 1.00e-01 -1.00e+00 -1.00e+00 -1.00e+00 1.00e+00
IA_BUKI_   ? Z ? P ? 20240815 1511 14.3237 GAU 1.00e-01 -1.00e+00 -1.00e+00 -1.00e+00 0.00e+00
IA_KBKI_   ? Z ? P ? 20240815 1511 23.0237 GAU 1.00e-01 -1.00e+00 -1.00e+00 -1.00e+00 1.00e+00
IA_KHK_00  ? Z ? P ? 20240815 1511 25.5837 GAU 1.00e-01 -1.00e+00 -1.00e+00 -1.00e+00 1.00e+00
IA_SRBI_   ? Z ? P ? 20240815 1511 29.2837 GAU 1.00e-01 -1.00e+00 -1.00e+00 -1.00e+00 1.00e+00
IA_KKTKI_  ? Z ? P ? 20240815 1511 33.9587 GAU 1.00e-01 -1.00e+00 -1.00e+00 -1.00e+00 1.00e+00
IA_GEBBI_  ? Z ? P ? 20240815 1511 34.8837 GAU 1.00e-01 -1.00e+00 -1.00e+00 -1.00e+00 1.00e+00
IA_KUKI_   ? Z ? P ? 20240815 1511 41.8587 GAU 1.00e-01 -1.00e+00 -1.00e+00 -1.00e+00 1.00e+00
IA_ABJI_   ? Z ? P ? 20240815 1511 42.3837 GAU 1.00e-01 -1.00e+00 -1.00e+00 -1.00e+00 1.00e+00
IA_DBKI_00 ? Z ? P ? 20240815 1511 43.3087 GAU 1.00e-01 -1.00e+00 -1.00e+00 -1.00e+00 1.00e+00
IA_JAGI_   ? Z ? P ? 20240815 1511 39.5121 GAU 1.00e-01 -1.00e+00 -1.00e+00 -1.00e+00 0.00e+00
IA_KMMI_   ? Z ? P ? 20240815 1511 46.2837 GAU 1.00e-01 -1.00e+00 -1.00e+00 -1.00e+00 1.00e+00
IA_MTKI_   ? Z ? P ? 20240815 1511 45.5437 GAU 1.00e-01 -1.00e+00 -1.00e+00 -1.00e+00 1.00e+00
IA_BLJI_   ? Z ? P ? 20240815 1511 48.4587 GAU 1.00e-01 -1.00e+00 -1.00e+00 -1.00e+00 1.00e+00
IA_KLJI_   ? Z ? P ? 20240815 1511 51.9805 GAU 1.00e-01 -1.00e+00 -1.00e+00 -1.00e+00 1.00e+00
IA_KKKKI_  ? Z ? P ? 20240815 1511 57.7837 GAU 1.00e-01 -1.00e+00 -1.00e+00 -1.00e+00 1.00e+00
IA_POKJI_  ? Z ? P ? 20240815 1511 57.1837 GAU 1.00e-01 -1.00e+00 -1.00e+00 -1.00e+00 1.00e+00
IA_BAJI_   ? Z ? P ? 20240815 1512 00.7555 GAU 1.00e-01 -1.00e+00 -1.00e+00 -1.00e+00 1.00e+00
IA_PPJI_00 ? Z ? P ? 20240815 1511 59.0137 GAU 1.00e-01 -1.00e+00 -1.00e+00 -1.00e+00 1.00e+00
IA_WGJM_00 ? Z ? P ? 20240815 1512 01.7337 GAU 1.00e-01 -1.00e+00 -1.00e+00 -1.00e+00 1.00e+00
IA_GRJI_   ? Z ? P ? 20240815 1512 01.3087 GAU 1.00e-01 -1.00e+00 -1.00e+00 -1.00e+00 1.00e+00
IA_KPJM_00 ? Z ? P ? 20240815 1512 06.6587 GAU 1.00e-01 -1.00e+00 -1.00e+00 -1.00e+00 1.00e+00
IA_PWJI_   ? Z ? P ? 20240815 1512 07.3087 GAU 1.00e-01 -1.00e+00 -1.00e+00 -1.00e+00 1.00e+00
IA_SWJI_   ? Z ? P ? 20240815 1512 07.7637 GAU 1.00e-01 -1.00e+00 -1.00e+00 -1.00e+00 1.00e+00
IA_SNJI_00 ? Z ? P ? 20240815 1512 08.2837 GAU 1.00e-01 -1.00e+00 -1.00e+00 -1.00e+00 1.00e+00
IA_BAPJI_  ? Z ? P ? 20240815 1512 11.5837 GAU 1.00e-01 -1.00e+00 -1.00e+00 -1.00e+00 1.00e+00
IA_PCJI_   ? Z ? P ? 20240815 1512 13.1587 GAU 1.00e-01 -1.00e+00 -1.00e+00 -1.00e+00 1.00e+00
IA_UWJI_   ? Z ? P ? 20240815 1512 19.5337 GAU 1.00e-01 -1.00e+00 -1.00e+00 -1.00e+00 1.00e+00
IA_WOJI_   ? Z ? P ? 20240815 1512 16.2587 GAU 1.00e-01 -1.00e+00 -1.00e+00 -1.00e+00 1.00e+00
IA_BMBNG_  ? Z ? P ? 20240815 1512 16.9268 GAU 1.00e-01 -1.00e+00 -1.00e+00 -1.00e+00 1.00e+00
IA_SYJI_   ? Z ? P ? 20240815 1512 01.5837 GAU 1.00e-01 -1.00e+00 -1.00e+00 -1.00e+00 0.00e+00
IA_GTJI_   ? Z ? P ? 20240815 1512 25.9668 GAU 1.00e-01 -1.00e+00 -1.00e+00 -1.00e+00 1.00e+00
IA_SAKJI_  ? Z ? P ? 20240815 1512 23.8437 GAU 1.00e-01 -1.00e+00 -1.00e+00 -1.00e+00 1.00e+00
IA_KKJM_00 ? Z ? P ? 20240815 1512 24.9337 GAU 1.00e-01 -1.00e+00 -1.00e+00 -1.00e+00 1.00e+00
IA_NKKI_00 ? Z ? P ? 20240815 1512 28.8587 GAU 1.00e-01 -1.00e+00 -1.00e+00 -1.00e+00 1.00e+00
IA_MBJI_00 ? Z ? P ? 20240815 1512 29.5537 GAU 1.00e-01 -1.00e+00 -1.00e+00 -1.00e+00 1.00e+00
IA_SCJI_   ? Z ? P ? 20240815 1512 34.9437 GAU 1.00e-01 -1.00e+00 -1.00e+00 -1.00e+00 1.00e+00
IA_KPJI_   ? Z ? P ? 20240815 1512 37.6337 GAU 1.00e-01 -1.00e+00 -1.00e+00 -1.00e+00 1.00e+00
IA_SICJI_  ? Z ? P ? 20240815 1512 38.3837 GAU 1.00e-01 -1.00e+00 -1.00e+00 -1.00e+00 1.00e+00
IA_PCJM_00 ? Z ? P ? 20240815 1512 43.7587 GAU 1.00e-01 -1.00e+00 -1.00e+00 -1.00e+00 1.00e+00
IA_PKJM_00 ? Z ? P ? 20240815 1512 43.1837 GAU 1.00e-01 -1.00e+00 -1.00e+00 -1.00e+00 1.00e+00
IA_CMJI_   ? Z ? P ? 20240815 1512 41.2587 GAU 1.00e-01 -1.00e+00 -1.00e+00 -1.00e+00 1.00e+00
IA_CIJM_00 ? Z ? P ? 20240815 1512 45.2587 GAU 1.00e-01 -1.00e+00 -1.00e+00 -1.00e+00 1.00e+00
IA_SSKI_   ? Z ? P ? 20240815 1512 40.0587 GAU 1.00e-01 -1.00e+00 -1.00e+00 -1.00e+00 0.00e+00
IA_ACBM_   ? Z ? P ? 20240815 1512 49.4837 GAU 1.00e-01 -1.00e+00 -1.00e+00 -1.00e+00 1.00e+00
IA_BBJI_   ? Z ? P ? 20240815 1512 48.4268 GAU 1.00e-01 -1.00e+00 -1.00e+00 -1.00e+00 1.00e+00
IA_CWJM_00 ? Z ? P ? 20240815 1512 55.1337 GAU 1.00e-01 -1.00e+00 -1.00e+00 -1.00e+00 1.00e+00
IA_TPI_00  ? Z ? P ? 20240815 1512 55.6837 GAU 1.00e-01 -1.00e+00 -1.00e+00 -1.00e+00 1.00e+00
IA_SCJM_00 ? Z ? P ? 20240815 1512 55.5087 GAU 1.00e-01 -1.00e+00 -1.00e+00 -1.00e+00 1.00e+00
IA_CNJI_   ? Z ? P ? 20240815 1512 54.1587 GAU 1.00e-01 -1.00e+00 -1.00e+00 -1.00e+00 1.00e+00
IA_SSJM_00 ? Z ? P ? 20240815 1512 56.6837 GAU 1.00e-01 -1.00e+00 -1.00e+00 -1.00e+00 1.00e+00
IA_JTJM_00 ? Z ? P ? 20240815 1512 58.6587 GAU 1.00e-01 -1.00e+00 -1.00e+00 -1.00e+00 1.00e+00
IA_WSJM_00 ? Z ? P ? 20240815 1512 59.2587 GAU 1.00e-01 -1.00e+00 -1.00e+00 -1.00e+00 1.00e+00
IA_PSJM_00 ? Z ? P ? 20240815 1513 00.6337 GAU 1.00e-01 -1.00e+00 -1.00e+00 -1.00e+00 1.00e+00
IA_CSJI_   ? Z ? P ? 20240815 1513 00.0805 GAU 1.00e-01 -1.00e+00 -1.00e+00 -1.00e+00 1.00e+00
IA_CILJI_  ? Z ? P ? 20240815 1513 02.1637 GAU 1.00e-01 -1.00e+00 -1.00e+00 -1.00e+00 1.00e+00
IA_SBJI_00 ? Z ? P ? 20240815 1513 05.5837 GAU 1.00e-01 -1.00e+00 -1.00e+00 -1.00e+00 1.00e+00
IA_CGJI_   ? Z ? P ? 20240815 1513 08.4437 GAU 1.00e-01 -1.00e+00 -1.00e+00 -1.00e+00 1.00e+00
IA_SUPJI_  ? Z ? P ? 20240815 1513 10.6837 GAU 1.00e-01 -1.00e+00 -1.00e+00 -1.00e+00 1.00e+00
IA_BLSM_00 ? Z ? P ? 20240815 1513 38.3337 GAU 1.00e-01 -1.00e+00 -1.00e+00 -1.00e+00 1.00e+00
IA_IHRSI_  ? Z ? P ? 20240815 1513 41.2237 GAU 1.00e-01 -1.00e+00 -1.00e+00 -1.00e+00 1.00e+00
IA_SLSI_   ? Z ? P ? 20240815 1513 39.6037 GAU 1.00e-01 -1.00e+00 -1.00e+00 -1.00e+00 1.00e+00
IA_JMSI_   ? Z ? P ? 20240815 1513 47.0805 GAU 1.00e-01 -1.00e+00 -1.00e+00 -1.00e+00 1.00e+00
IA_JASI_   ? Z ? P ? 20240815 1513 50.8555 GAU 1.00e-01 -1.00e+00 -1.00e+00 -1.00e+00 1.00e+00
IA_SKSM_00 ? Z ? P ? 20240815 1513 48.8837 GAU 1.00e-01 -1.00e+00 -1.00e+00 -1.00e+00 1.00e+00
IA_GTSI_00 ? Z ? P ? 20240815 1513 53.8587 GAU 1.00e-01 -1.00e+00 -1.00e+00 -1.00e+00 1.00e+00
IA_SSSM_00 ? Z ? P ? 20240815 1513 52.8087 GAU 1.00e-01 -1.00e+00 -1.00e+00 -1.00e+00 1.00e+00
IA_BPSM_00 ? Z ? P ? 20240815 1513 57.9087 GAU 1.00e-01 -1.00e+00 -1.00e+00 -1.00e+00 1.00e+00
IA_LBTSI_  ? Z ? P ? 20240815 1514 00.0437 GAU 1.00e-01 -1.00e+00 -1.00e+00 -1.00e+00 1.00e+00
IA_PDSI_   ? Z ? P ? 20240815 1513 59.0037 GAU 1.00e-01 -1.00e+00 -1.00e+00 -1.00e+00 1.00e+00
IA_PLSI_   ? Z ? P ? 20240815 1514 02.1305 GAU 1.00e-01 -1.00e+00 -1.00e+00 -1.00e+00 1.00e+00
IA_PPI_00  ? Z ? P ? 20240815 1514 01.7237 GAU 1.00e-01 -1.00e+00 -1.00e+00 -1.00e+00 1.00e+00
IA_RRHRI_  ? Z ? P ? 20240815 1514 04.4587 GAU 1.00e-01 -1.00e+00 -1.00e+00 -1.00e+00 1.00e+00
IA_RHRSI_  ? Z ? P ? 20240815 1514 03.0837 GAU 1.00e-01 -1.00e+00 -1.00e+00 -1.00e+00 1.00e+00
IA_PTSM_00 ? Z ? P ? 20240815 1514 17.8837 GAU 1.00e-01 -1.00e+00 -1.00e+00 -1.00e+00 1.00e+00
IA_ONSM_00 ? Z ? P ? 20240815 1514 21.8087 GAU 1.00e-01 -1.00e+00 -1.00e+00 -1.00e+00 1.00e+00
IA_TKSM_00 ? Z ? P ? 20240815 1514 25.4837 GAU 1.00e-01 -1.00e+00 -1.00e+00 -1.00e+00 1.00e+00
IA_LDSI_   ? Z ? P ? 20240815 1514 26.8087 GAU 1.00e-01 -1.00e+00 -1.00e+00 -1.00e+00 1.00e+00
IA_SSSI_00 ? Z ? P ? 20240815 1514 27.9737 GAU 1.00e-01 -1.00e+00 -1.00e+00 -1.00e+00 1.00e+00
IA_GSI_    ? Z ? P ? 20240815 1514 28.4055 GAU 1.00e-01 -1.00e+00 -1.00e+00 -1.00e+00 1.00e+00
IA_LTNSI_  ? Z ? P ? 20240815 1514 30.6437 GAU 1.00e-01 -1.00e+00 -1.00e+00 -1.00e+00 1.00e+00
IA_GESM_00 ? Z ? P ? 20240815 1514 48.4587 GAU 1.00e-01 -1.00e+00 -1.00e+00 -1.00e+00 1.00e+00
IA_GPSM_00 ? Z ? P ? 20240815 1514 48.7587 GAU 1.00e-01 -1.00e+00 -1.00e+00 -1.00e+00 1.00e+00
