IA_BNDI_   ? Z ? P ? 20240728 1413 20.0696 GAU 1.00e-01 -1.00e+00 -1.00e+00 -1.00e+00 1.00e+00
IA_TLE2_00 ? Z ? P ? 20240728 1413 32.9412 GAU 1.00e-01 -1.00e+00 -1.00e+00 -1.00e+00 1.00e+00
IA_MLMMI_  ? Z ? P ? 20240728 1413 34.2212 GAU 1.00e-01 -1.00e+00 -1.00e+00 -1.00e+00 1.00e+00
IA_AAI_    ? Z ? P ? 20240728 1413 38.2012 GAU 1.00e-01 -1.00e+00 -1.00e+00 -1.00e+00 1.00e+00
IA_TTSMI_  ? Z ? P ? 20240728 1413 46.0212 GAU 1.00e-01 -1.00e+00 -1.00e+00 -1.00e+00 1.00e+00
IA_FAKI_   ? Z ? P ? 20240728 1413 45.4096 GAU 1.00e-01 -1.00e+00 -1.00e+00 -1.00e+00 1.00e+00
IA_MBRPI_  ? Z ? P ? 20240728 1413 53.6012 GAU 1.00e-01 -1.00e+00 -1.00e+00 -1.00e+00 1.00e+00
IA_BATPI_  ? Z ? P ? 20240728 1413 59.5812 GAU 1.00e-01 -1.00e+00 -1.00e+00 -1.00e+00 1.00e+00
IA_KORPI_  ? Z ? P ? 20240728 1414 00.7412 GAU 1.00e-01 -1.00e+00 -1.00e+00 -1.00e+00 1.00e+00
IA_TSPI_00 ? Z ? P ? 20240728 1414 01.1912 GAU 1.00e-01 -1.00e+00 -1.00e+00 -1.00e+00 1.00e+00
IA_SWI_    ? Z ? P ? 20240728 1414 05.8012 GAU 1.00e-01 -1.00e+00 -1.00e+00 -1.00e+00 1.00e+00
IA_ALKI_   ? Z ? P ? 20240728 1414 12.3412 GAU 1.00e-01 -1.00e+00 -1.00e+00 -1.00e+00 1.00e+00
IA_GARPI_  ? Z ? P ? 20240728 1414 10.8412 GAU 1.00e-01 -1.00e+00 -1.00e+00 -1.00e+00 1.00e+00
IA_SANI_   ? Z ? P ? 20240728 1414 14.8096 GAU 1.00e-01 -1.00e+00 -1.00e+00 -1.00e+00 1.00e+00
IA_NBPI_   ? Z ? P ? 20240728 1414 16.1812 GAU 1.00e-01 -1.00e+00 -1.00e+00 -1.00e+00 1.00e+00
IA_UWNPI_  ? Z ? P ? 20240728 1414 15.6412 GAU 1.00e-01 -1.00e+00 -1.00e+00 -1.00e+00 1.00e+00
IA_MTMTI_  ? Z ? P ? 20240728 1414 15.1412 GAU 1.00e-01 -1.00e+00 -1.00e+00 -1.00e+00 1.00e+00
IA_ANAPI_  ? Z ? P ? 20240728 1414 15.3812 GAU 1.00e-01 -1.00e+00 -1.00e+00 -1.00e+00 1.00e+00
IA_KARPI_  ? Z ? P ? 20240728 1414 16.6612 GAU 1.00e-01 -1.00e+00 -1.00e+00 -1.00e+00 1.00e+00
IA_GHMI_00 ? Z ? P ? 20240728 1414 18.4912 GAU 1.00e-01 -1.00e+00 -1.00e+00 -1.00e+00 1.00e+00
IA_MUMUI_  ? Z ? P ? 20240728 1414 21.3212 GAU 1.00e-01 -1.00e+00 -1.00e+00 -1.00e+00 1.00e+00
IA_WWCI_00 ? Z ? P ? 20240728 1414 24.3912 GAU 1.00e-01 -1.00e+00 -1.00e+00 -1.00e+00 1.00e+00
IA_ATKTI_  ? Z ? P ? 20240728 1414 23.8412 GAU 1.00e-01 -1.00e+00 -1.00e+00 -1.00e+00 1.00e+00
IA_MIPI_00 ? Z ? P ? 20240728 1414 27.1912 GAU 1.00e-01 -1.00e+00 -1.00e+00 -1.00e+00 1.00e+00
IA_ASTTI_  ? Z ? P ? 20240728 1414 25.1412 GAU 1.00e-01 -1.00e+00 -1.00e+00 -1.00e+00 1.00e+00
IA_KUBSI_  ? Z ? P ? 20240728 1414 30.2012 GAU 1.00e-01 -1.00e+00 -1.00e+00 -1.00e+00 1.00e+00
IA_MSHHI_  ? Z ? P ? 20240728 1414 28.6012 GAU 1.00e-01 -1.00e+00 -1.00e+00 -1.00e+00 1.00e+00
IA_WWPI_00 ? Z ? P ? 20240728 1414 33.9162 GAU 1.00e-01 -1.00e+00 -1.00e+00 -1.00e+00 1.00e+00
IA_WTKSI_  ? Z ? P ? 20240728 1414 32.3412 GAU 1.00e-01 -1.00e+00 -1.00e+00 -1.00e+00 1.00e+00
IA_YBYPI_  ? Z ? P ? 20240728 1414 32.3812 GAU 1.00e-01 -1.00e+00 -1.00e+00 -1.00e+00 1.00e+00
IA_LRTI_   ? Z ? P ? 20240728 1414 32.4162 GAU 1.00e-01 -1.00e+00 -1.00e+00 -1.00e+00 1.00e+00
IA_BATI_   ? Z ? P ? 20240728 1414 35.0812 GAU 1.00e-01 -1.00e+00 -1.00e+00 -1.00e+00 1.00e+00
IA_LOMSI_  ? Z ? P ? 20240728 1414 36.6012 GAU 1.00e-01 -1.00e+00 -1.00e+00 -1.00e+00 1.00e+00
IA_BBSI_   ? Z ? P ? 20240728 1414 37.5162 GAU 1.00e-01 -1.00e+00 -1.00e+00 -1.00e+00 1.00e+00
IA_TNTI_   ? Z ? P ? 20240728 1414 34.7696 GAU 1.00e-01 -1.00e+00 -1.00e+00 -1.00e+00 1.00e+00
IA_BAKI_00 ? Z ? P ? 20240728 1414 39.7412 GAU 1.00e-01 -1.00e+00 -1.00e+00 -1.00e+00 1.00e+00
IA_SUSPI_  ? Z ? P ? 20240728 1414 38.2212 GAU 1.00e-01 -1.00e+00 -1.00e+00 -1.00e+00 1.00e+00
IA_JHMI_00 ? Z ? P ? 20240728 1414 38.3662 GAU 1.00e-01 -1.00e+00 -1.00e+00 -1.00e+00 1.00e+00
IA_KDI_01  ? Z ? P ? 20240728 1414 42.2812 GAU 1.00e-01 -1.00e+00 -1.00e+00 -1.00e+00 1.00e+00
IA_PKCI_00 ? Z ? P ? 20240728 1414 42.3412 GAU 1.00e-01 -1.00e+00 -1.00e+00 -1.00e+00 1.00e+00
IA_BBLSI_  ? Z ? P ? 20240728 1414 43.9662 GAU 1.00e-01 -1.00e+00 -1.00e+00 -1.00e+00 1.00e+00
IA_POBSI_  ? Z ? P ? 20240728 1414 45.3612 GAU 1.00e-01 -1.00e+00 -1.00e+00 -1.00e+00 1.00e+00
IA_MASFI_  ? Z ? P ? 20240728 1414 45.0612 GAU 1.00e-01 -1.00e+00 -1.00e+00 -1.00e+00 1.00e+00
IA_LKUCM_  ? Z ? P ? 20240728 1414 49.8380 GAU 1.00e-01 -1.00e+00 -1.00e+00 -1.00e+00 1.00e+00
IA_BGCI_00 ? Z ? P ? 20240728 1414 54.1662 GAU 1.00e-01 -1.00e+00 -1.00e+00 -1.00e+00 1.00e+00
IA_MTMPI_  ? Z ? P ? 20240728 1414 54.1812 GAU 1.00e-01 -1.00e+00 -1.00e+00 -1.00e+00 1.00e+00
IA_MTAI_   ? Z ? P ? 20240728 1414 49.7412 GAU 1.00e-01 -1.00e+00 -1.00e+00 -1.00e+00 1.00e+00
IA_EDFI_   ? Z ? P ? 20240728 1414 50.8912 GAU 1.00e-01 -1.00e+00 -1.00e+00 -1.00e+00 1.00e+00
IA_WAMI_00 ? Z ? P ? 20240728 1414 56.4912 GAU 1.00e-01 -1.00e+00 -1.00e+00 -1.00e+00 1.00e+00
IA_OBMPI_  ? Z ? P ? 20240728 1414 52.8812 GAU 1.00e-01 -1.00e+00 -1.00e+00 -1.00e+00 1.00e+00
IA_PBCI_00 ? Z ? P ? 20240728 1414 54.7412 GAU 1.00e-01 -1.00e+00 -1.00e+00 -1.00e+00 1.00e+00
IA_NANFI_  ? Z ? P ? 20240728 1414 56.2412 GAU 1.00e-01 -1.00e+00 -1.00e+00 -1.00e+00 1.00e+00
IA_WKCM_   ? Z ? P ? 20240728 1414 57.7630 GAU 1.00e-01 -1.00e+00 -1.00e+00 -1.00e+00 1.00e+00
IA_EDMPI_  ? Z ? P ? 20240728 1414 59.6612 GAU 1.00e-01 -1.00e+00 -1.00e+00 -1.00e+00 1.00e+00
IA_TOBSI_  ? Z ? P ? 20240728 1415 00.0812 GAU 1.00e-01 -1.00e+00 -1.00e+00 -1.00e+00 1.00e+00
IA_WMCM_00 ? Z ? P ? 20240728 1415 03.0162 GAU 1.00e-01 -1.00e+00 -1.00e+00 -1.00e+00 1.00e+00
IA_SATPI_  ? Z ? P ? 20240728 1414 47.2412 GAU 1.00e-01 -1.00e+00 -1.00e+00 -1.00e+00 0.00e+00
IA_BUBSI_  ? Z ? P ? 20240728 1415 04.3612 GAU 1.00e-01 -1.00e+00 -1.00e+00 -1.00e+00 1.00e+00
IA_BUMSI_  ? Z ? P ? 20240728 1415 07.1662 GAU 1.00e-01 -1.00e+00 -1.00e+00 -1.00e+00 1.00e+00
IA_LMTI_00 ? Z ? P ? 20240728 1415 07.0912 GAU 1.00e-01 -1.00e+00 -1.00e+00 -1.00e+00 1.00e+00
IA_BKSI_   ? Z ? P ? 20240728 1415 08.2162 GAU 1.00e-01 -1.00e+00 -1.00e+00 -1.00e+00 1.00e+00
IA_UMSSI_  ? Z ? P ? 20240728 1415 04.5612 GAU 1.00e-01 -1.00e+00 -1.00e+00 -1.00e+00 0.00e+00
IA_APSI_   ? Z ? P ? 20240728 1415 10.7212 GAU 1.00e-01 -1.00e+00 -1.00e+00 -1.00e+00 1.00e+00
IA_BBCM_00 ? Z ? P ? 20240728 1415 09.6412 GAU 1.00e-01 -1.00e+00 -1.00e+00 -1.00e+00 1.00e+00
IA_GTOI_00 ? Z ? P ? 20240728 1415 10.7412 GAU 1.00e-01 -1.00e+00 -1.00e+00 -1.00e+00 1.00e+00
IA_UTUSI_  ? Z ? P ? 20240728 1415 11.9662 GAU 1.00e-01 -1.00e+00 -1.00e+00 -1.00e+00 1.00e+00
IA_BTSPI_  ? Z ? P ? 20240728 1415 13.6612 GAU 1.00e-01 -1.00e+00 -1.00e+00 -1.00e+00 1.00e+00
IA_BNSI_   ? Z ? P ? 20240728 1415 12.1212 GAU 1.00e-01 -1.00e+00 -1.00e+00 -1.00e+00 1.00e+00
IA_TOTSI_  ? Z ? P ? 20240728 1415 12.7012 GAU 1.00e-01 -1.00e+00 -1.00e+00 -1.00e+00 1.00e+00
IA_KJCM_   ? Z ? P ? 20240728 1415 12.1130 GAU 1.00e-01 -1.00e+00 -1.00e+00 -1.00e+00 1.00e+00
IA_LBFI_00 ? Z ? P ? 20240728 1415 12.6412 GAU 1.00e-01 -1.00e+00 -1.00e+00 -1.00e+00 1.00e+00
IA_LSCM_00 ? Z ? P ? 20240728 1415 13.9162 GAU 1.00e-01 -1.00e+00 -1.00e+00 -1.00e+00 1.00e+00
IA_TTPSI_  ? Z ? P ? 20240728 1415 14.1162 GAU 1.00e-01 -1.00e+00 -1.00e+00 -1.00e+00 1.00e+00
IA_ELMPI_  ? Z ? P ? 20240728 1415 14.6612 GAU 1.00e-01 -1.00e+00 -1.00e+00 -1.00e+00 1.00e+00
IA_PUPSI_  ? Z ? P ? 20240728 1415 16.2212 GAU 1.00e-01 -1.00e+00 -1.00e+00 -1.00e+00 1.00e+00
IA_MRSI_   ? Z ? P ? 20240728 1415 17.2162 GAU 1.00e-01 -1.00e+00 -1.00e+00 -1.00e+00 1.00e+00
IA_KHSSI_  ? Z ? P ? 20240728 1415 13.2612 GAU 1.00e-01 -1.00e+00 -1.00e+00 -1.00e+00 0.00e+00
IA_SMSI_   ? Z ? P ? 20240728 1415 17.8662 GAU 1.00e-01 -1.00e+00 -1.00e+00 -1.00e+00 1.00e+00
IA_PPCM_00 ? Z ? P ? 20240728 1415 19.6162 GAU 1.00e-01 -1.00e+00 -1.00e+00 -1.00e+00 1.00e+00
IA_SJPM_   ? Z ? P ? 20240728 1415 25.6630 GAU 1.00e-01 -1.00e+00 -1.00e+00 -1.00e+00 0.00e+00
IA_ARKPI_  ? Z ? P ? 20240728 1415 22.4812 GAU 1.00e-01 -1.00e+00 -1.00e+00 -1.00e+00 1.00e+00
IA_MGAI_   ? Z ? P ? 20240728 1415 17.6912 GAU 1.00e-01 -1.00e+00 -1.00e+00 -1.00e+00 1.00e+00
IA_SAPSI_  ? Z ? P ? 20240728 1415 24.0012 GAU 1.00e-01 -1.00e+00 -1.00e+00 -1.00e+00 1.00e+00
IA_TAPSI_  ? Z ? P ? 20240728 1415 25.7412 GAU 1.00e-01 -1.00e+00 -1.00e+00 -1.00e+00 1.00e+00
IA_MMCI_00 ? Z ? P ? 20240728 1415 26.5912 GAU 1.00e-01 -1.00e+00 -1.00e+00 -1.00e+00 1.00e+00
IA_TPCI_00 ? Z ? P ? 20240728 1415 11.2162 GAU 1.00e-01 -1.00e+00 -1.00e+00 -1.00e+00 0.00e+00
IA_WBNI_   ? Z ? P ? 20240728 1415 25.4912 GAU 1.00e-01 -1.00e+00 -1.00e+00 -1.00e+00 1.00e+00
IA_SBSSI_  ? Z ? P ? 20240728 1415 28.7612 GAU 1.00e-01 -1.00e+00 -1.00e+00 -1.00e+00 1.00e+00
IA_BBCI_00 ? Z ? P ? 20240728 1415 26.6162 GAU 1.00e-01 -1.00e+00 -1.00e+00 -1.00e+00 1.00e+00
IA_KBSSI_  ? Z ? P ? 20240728 1415 26.8612 GAU 1.00e-01 -1.00e+00 -1.00e+00 -1.00e+00 1.00e+00
IA_RDCM_00 ? Z ? P ? 20240728 1415 33.1162 GAU 1.00e-01 -1.00e+00 -1.00e+00 -1.00e+00 1.00e+00
IA_PBNI_   ? Z ? P ? 20240728 1415 28.3212 GAU 1.00e-01 -1.00e+00 -1.00e+00 -1.00e+00 1.00e+00
IA_DOCM_00 ? Z ? P ? 20240728 1415 33.9412 GAU 1.00e-01 -1.00e+00 -1.00e+00 -1.00e+00 1.00e+00
IA_TIPSI_  ? Z ? P ? 20240728 1415 34.2612 GAU 1.00e-01 -1.00e+00 -1.00e+00 -1.00e+00 1.00e+00
IA_TOLI2_  ? Z ? P ? 20240728 1415 33.4296 GAU 1.00e-01 -1.00e+00 -1.00e+00 -1.00e+00 1.00e+00
IA_MASSI_  ? Z ? P ? 20240728 1415 31.8212 GAU 1.00e-01 -1.00e+00 -1.00e+00 -1.00e+00 1.00e+00
IA_TSNI_   ? Z ? P ? 20240728 1415 32.2912 GAU 1.00e-01 -1.00e+00 -1.00e+00 -1.00e+00 1.00e+00
IA_BGCM_00 ? Z ? P ? 20240728 1415 36.0412 GAU 1.00e-01 -1.00e+00 -1.00e+00 -1.00e+00 1.00e+00
IA_MPSI_   ? Z ? P ? 20240728 1415 38.1162 GAU 1.00e-01 -1.00e+00 -1.00e+00 -1.00e+00 1.00e+00
IA_ESNI_   ? Z ? P ? 20240728 1415 34.4912 GAU 1.00e-01 -1.00e+00 -1.00e+00 -1.00e+00 0.00e+00
IA_PLAI_   ? Z ? P ? 20240728 1415 39.1130 GAU 1.00e-01 -1.00e+00 -1.00e+00 -1.00e+00 1.00e+00
IA_RSNI_   ? Z ? P ? 20240728 1415 42.1162 GAU 1.00e-01 -1.00e+00 -1.00e+00 -1.00e+00 1.00e+00
IA_LSNI_   ? Z ? P ? 20240728 1415 50.1662 GAU 1.00e-01 -1.00e+00 -1.00e+00 -1.00e+00 1.00e+00
IA_BYLI_00 ? Z ? P ? 20240728 1415 59.2412 GAU 1.00e-01 -1.00e+00 -1.00e+00 -1.00e+00 1.00e+00
IA_KLNI_   ? Z ? P ? 20240728 1416 00.7812 GAU 1.00e-01 -1.00e+00 -1.00e+00 -1.00e+00 1.00e+00
IA_BUKI_   ? Z ? P ? 20240728 1415 56.1812 GAU 1.00e-01 -1.00e+00 -1.00e+00 -1.00e+00 0.00e+00
IA_KBKI_   ? Z ? P ? 20240728 1416 04.8812 GAU 1.00e-01 -1.00e+00 -1.00e+00 -1.00e+00 1.00e+00
IA_KHK_00  ? Z ? P ? 20240728 1416 07.4412 GAU 1.00e-01 -1.00e+00 -1.00e+00 -1.00e+00 1.00e+00
IA_SRBI_   ? Z ? P ? 20240728 1416 11.1412 GAU 1.00e-01 -1.00e+00 -1.00e+00 -1.00e+00 1.00e+00
IA_KKTKI_  ? Z ? P ? 20240728 1416 15.8162 GAU 1.00e-01 -1.00e+00 -1.00e+00 -1.00e+00 1.00e+00
IA_GEBBI_  ? Z ? P ? 20240728 1416 16.7412 GAU 1.00e-01 -1.00e+00 -1.00e+00 -1.00e+00 1.00e+00
IA_KUKI_   ? Z ? P ? 20240728 1416 23.7162 GAU 1.00e-01 -1.00e+00 -1.00e+00 -1.00e+00 1.00e+00
IA_ABJI_   ? Z ? P ? 20240728 1416 24.2412 GAU 1.00e-01 -1.00e+00 -1.00e+00 -1.00e+00 1.00e+00
IA_DBKI_00 ? Z ? P ? 20240728 1416 25.1662 GAU 1.00e-01 -1.00e+00 -1.00e+00 -1.00e+00 1.00e+00
IA_JAGI_   ? Z ? P ? 20240728 1416 21.3696 GAU 1.00e-01 -1.00e+00 -1.00e+00 -1.00e+00 0.00e+00
IA_KMMI_   ? Z ? P ? 20240728 1416 28.1412 GAU 1.00e-01 -1.00e+00 -1.00e+00 -1.00e+00 1.00e+00
IA_MTKI_   ? Z ? P ? 20240728 1416 27.4012 GAU 1.00e-01 -1.00e+00 -1.00e+00 -1.00e+00 1.00e+00
IA_BLJI_   ? Z ? P ? 20240728 1416 30.3162 GAU 1.00e-01 -1.00e+00 -1.00e+00 -1.00e+00 1.00e+00
IA_KLJI_   ? Z ? P ? 20240728 1416 33.8380 GAU 1.00e-01 -1.00e+00 -1.00e+00 -1.00e+00 1.00e+00
IA_KKKKI_  ? Z ? P ? 20240728 1416 39.6412 GAU 1.00e-01 -1.00e+00 -1.00e+00 -1.00e+00 1.00e+00
IA_POKJI_  ? Z ? P ? 20240728 1416 39.0412 GAU 1.00e-01 -1.00e+00 -1.00e+00 -1.00e+00 1.00e+00
IA_BAJI_   ? Z ? P ? 20240728 1416 42.6130 GAU 1.00e-01 -1.00e+00 -1.00e+00 -1.00e+00 1.00e+00
IA_PPJI_00 ? Z ? P ? 20240728 1416 40.8712 GAU 1.00e-01 -1.00e+00 -1.00e+00 -1.00e+00 1.00e+00
IA_WGJM_00 ? Z ? P ? 20240728 1416 43.5912 GAU 1.00e-01 -1.00e+00 -1.00e+00 -1.00e+00 1.00e+00
IA_GRJI_   ? Z ? P ? 20240728 1416 43.1662 GAU 1.00e-01 -1.00e+00 -1.00e+00 -1.00e+00 1.00e+00
IA_KPJM_00 ? Z ? P ? 20240728 1416 48.5162 GAU 1.00e-01 -1.00e+00 -1.00e+00 -1.00e+00 1.00e+00
IA_PWJI_   ? Z ? P ? 20240728 1416 49.1662 GAU 1.00e-01 -1.00e+00 -1.00e+00 -1.00e+00 1.00e+00
IA_SWJI_   ? Z ? P ? 20240728 1416 49.6212 GAU 1.00e-01 -1.00e+00 -1.00e+00 -1.00e+00 1.00e+00
IA_SNJI_00 ? Z ? P ? 20240728 1416 50.1412 GAU 1.00e-01 -1.00e+00 -1.00e+00 -1.00e+00 1.00e+00
IA_BAPJI_  ? Z ? P ? 20240728 1416 53.4412 GAU 1.00e-01 -1.00e+00 -1.00e+00 -1.00e+00 1.00e+00
IA_PCJI_   ? Z ? P ? 20240728 1416 55.0162 GAU 1.00e-01 -1.00e+00 -1.00e+00 -1.00e+00 1.00e+00
IA_UWJI_   ? Z ? P ? 20240728 1417 01.3912 GAU 1.00e-01 -1.00e+00 -1.00e+00 -1.00e+00 1.00e+00
IA_WOJI_   ? Z ? P ? 20240728 1416 58.1162 GAU 1.00e-01 -1.00e+00 -1.00e+00 -1.00e+00 1.00e+00
IA_BMBNG_  ? Z ? P ? 20240728 1416 58.7843 GAU 1.00e-01 -1.00e+00 -1.00e+00 -1.00e+00 1.00e+00
IA_SYJI_   ? Z ? P ? 20240728 1416 43.4412 GAU 1.00e-01 -1.00e+00 -1.00e+00 -1.00e+00 0.00e+00
IA_GTJI_   ? Z ? P ? 20240728 1417 07.8243 GAU 1.00e-01 -1.00e+00 -1.00e+00 -1.00e+00 1.00e+00
IA_SAKJI_  ? Z ? P ? 20240728 1417 05.7012 GAU 1.00e-01 -1.00e+00 -1.00e+00 -1.00e+00 1.00e+00
IA_KKJM_00 ? Z ? P ? 20240728 1417 06.7912 GAU 1.00e-01 -1.00e+00 -1.00e+00 -1.00e+00 1.00e+00
IA_NKKI_00 ? Z ? P ? 20240728 1417 10.7162 GAU 1.00e-01 -1.00e+00 -1.00e+00 -1.00e+00 1.00e+00
IA_MBJI_00 ? Z ? P ? 20240728 1417 11.4112 GAU 1.00e-01 -1.00e+00 -1.00e+00 -1.00e+00 1.00e+00
IA_SCJI_   ? Z ? P ? 20240728 1417 16.8012 GAU 1.00e-01 -1.00e+00 -1.00e+00 -1.00e+00 1.00e+00
IA_KPJI_   ? Z ? P ? 20240728 1417 19.4912 GAU 1.00e-01 -1.00e+00 -1.00e+00 -1.00e+00 1.00e+00
IA_SICJI_  ? Z ? P ? 20240728 1417 20.2412 GAU 1.00e-01 -1.00e+00 -1.00e+00 -1.00e+00 1.00e+00
IA_PCJM_00 ? Z ? P ? 20240728 1417 25.6162 GAU 1.00e-01 -1.00e+00 -1.00e+00 -1.00e+00 1.00e+00
IA_PKJM_00 ? Z ? P ? 20240728 1417 25.0412 GAU 1.00e-01 -1.00e+00 -1.00e+00 -1.00e+00 1.00e+00
IA_CMJI_   ? Z ? P ? 20240728 1417 23.1162 GAU 1.00e-01 -1.00e+00 -1.00e+00 -1.00e+00 1.00e+00
IA_CIJM_00 ? Z ? P ? 20240728 1417 27.1162 GAU 1.00e-01 -1.00e+00 -1.00e+00 -1.00e+00 1.00e+00
IA_ACBM_   ? Z ? P ? 20240728 1417 31.3412 GAU 1.00e-01 -1.00e+00 -1.00e+00 -1.00e+00 1.00e+00
IA_SSKI_   ? Z ? P ? 20240728 1417 21.9162 GAU 1.00e-01 -1.00e+00 -1.00e+00 -1.00e+00 0.00e+00
IA_BBJI_   ? Z ? P ? 20240728 1417 30.2843 GAU 1.00e-01 -1.00e+00 -1.00e+00 -1.00e+00 1.00e+00
IA_CWJM_00 ? Z ? P ? 20240728 1417 36.9912 GAU 1.00e-01 -1.00e+00 -1.00e+00 -1.00e+00 1.00e+00
IA_TPI_00  ? Z ? P ? 20240728 1417 37.5412 GAU 1.00e-01 -1.00e+00 -1.00e+00 -1.00e+00 1.00e+00
IA_SCJM_00 ? Z ? P ? 20240728 1417 37.3662 GAU 1.00e-01 -1.00e+00 -1.00e+00 -1.00e+00 1.00e+00
IA_CNJI_   ? Z ? P ? 20240728 1417 36.0162 GAU 1.00e-01 -1.00e+00 -1.00e+00 -1.00e+00 1.00e+00
IA_SSJM_00 ? Z ? P ? 20240728 1417 38.5412 GAU 1.00e-01 -1.00e+00 -1.00e+00 -1.00e+00 1.00e+00
IA_JTJM_00 ? Z ? P ? 20240728 1417 40.5162 GAU 1.00e-01 -1.00e+00 -1.00e+00 -1.00e+00 1.00e+00
IA_WSJM_00 ? Z ? P ? 20240728 1417 41.1162 GAU 1.00e-01 -1.00e+00 -1.00e+00 -1.00e+00 1.00e+00
IA_PSJM_00 ? Z ? P ? 20240728 1417 42.4912 GAU 1.00e-01 -1.00e+00 -1.00e+00 -1.00e+00 1.00e+00
IA_CSJI_   ? Z ? P ? 20240728 1417 41.9380 GAU 1.00e-01 -1.00e+00 -1.00e+00 -1.00e+00 1.00e+00
IA_CILJI_  ? Z ? P ? 20240728 1417 44.0212 GAU 1.00e-01 -1.00e+00 -1.00e+00 -1.00e+00 1.00e+00
IA_SBJI_00 ? Z ? P ? 20240728 1417 47.4412 GAU 1.00e-01 -1.00e+00 -1.00e+00 -1.00e+00 1.00e+00
IA_CGJI_   ? Z ? P ? 20240728 1417 50.3012 GAU 1.00e-01 -1.00e+00 -1.00e+00 -1.00e+00 1.00e+00
IA_SUPJI_  ? Z ? P ? 20240728 1417 52.5412 GAU 1.00e-01 -1.00e+00 -1.00e+00 -1.00e+00 1.00e+00
IA_BLSM_00 ? Z ? P ? 20240728 1418 20.1912 GAU 1.00e-01 -1.00e+00 -1.00e+00 -1.00e+00 1.00e+00
IA_IHRSI_  ? Z ? P ? 20240728 1418 23.0812 GAU 1.00e-01 -1.00e+00 -1.00e+00 -1.00e+00 1.00e+00
IA_SLSI_   ? Z ? P ? 20240728 1418 21.4612 GAU 1.00e-01 -1.00e+00 -1.00e+00 -1.00e+00 1.00e+00
IA_JMSI_   ? Z ? P ? 20240728 1418 28.9380 GAU 1.00e-01 -1.00e+00 -1.00e+00 -1.00e+00 1.00e+00
IA_JASI_   ? Z ? P ? 20240728 1418 32.7130 GAU 1.00e-01 -1.00e+00 -1.00e+00 -1.00e+00 1.00e+00
IA_SKSM_00 ? Z ? P ? 20240728 1418 30.7412 GAU 1.00e-01 -1.00e+00 -1.00e+00 -1.00e+00 1.00e+00
IA_GTSI_00 ? Z ? P ? 20240728 1418 35.7162 GAU 1.00e-01 -1.00e+00 -1.00e+00 -1.00e+00 1.00e+00
IA_SSSM_00 ? Z ? P ? 20240728 1418 34.6662 GAU 1.00e-01 -1.00e+00 -1.00e+00 -1.00e+00 1.00e+00
IA_BPSM_00 ? Z ? P ? 20240728 1418 39.7662 GAU 1.00e-01 -1.00e+00 -1.00e+00 -1.00e+00 1.00e+00
IA_LBTSI_  ? Z ? P ? 20240728 1418 41.9012 GAU 1.00e-01 -1.00e+00 -1.00e+00 -1.00e+00 1.00e+00
IA_PDSI_   ? Z ? P ? 20240728 1418 40.8612 GAU 1.00e-01 -1.00e+00 -1.00e+00 -1.00e+00 1.00e+00
IA_PLSI_   ? Z ? P ? 20240728 1418 43.9880 GAU 1.00e-01 -1.00e+00 -1.00e+00 -1.00e+00 1.00e+00
IA_PPI_00  ? Z ? P ? 20240728 1418 43.5812 GAU 1.00e-01 -1.00e+00 -1.00e+00 -1.00e+00 1.00e+00
IA_RRHRI_  ? Z ? P ? 20240728 1418 46.3162 GAU 1.00e-01 -1.00e+00 -1.00e+00 -1.00e+00 1.00e+00
IA_RHRSI_  ? Z ? P ? 20240728 1418 44.9412 GAU 1.00e-01 -1.00e+00 -1.00e+00 -1.00e+00 1.00e+00
IA_PTSM_00 ? Z ? P ? 20240728 1418 59.7412 GAU 1.00e-01 -1.00e+00 -1.00e+00 -1.00e+00 1.00e+00
IA_ONSM_00 ? Z ? P ? 20240728 1419 03.6662 GAU 1.00e-01 -1.00e+00 -1.00e+00 -1.00e+00 1.00e+00
IA_TKSM_00 ? Z ? P ? 20240728 1419 07.3412 GAU 1.00e-01 -1.00e+00 -1.00e+00 -1.00e+00 1.00e+00
IA_LDSI_   ? Z ? P ? 20240728 1419 08.6662 GAU 1.00e-01 -1.00e+00 -1.00e+00 -1.00e+00 1.00e+00
IA_SSSI_00 ? Z ? P ? 20240728 1419 09.8312 GAU 1.00e-01 -1.00e+00 -1.00e+00 -1.00e+00 1.00e+00
IA_GSI_    ? Z ? P ? 20240728 1419 10.2630 GAU 1.00e-01 -1.00e+00 -1.00e+00 -1.00e+00 1.00e+00
IA_LTNSI_  ? Z ? P ? 20240728 1419 12.5012 GAU 1.00e-01 -1.00e+00 -1.00e+00 -1.00e+00 1.00e+00
IA_GESM_00 ? Z ? P ? 20240728 1419 30.3162 GAU 1.00e-01 -1.00e+00 -1.00e+00 -1.00e+00 1.00e+00
IA_GPSM_00 ? Z ? P ? 20240728 1419 30.6162 GAU 1.00e-01 -1.00e+00 -1.00e+00 -1.00e+00 1.00e+00
