IA_EGSI_   ? Z ? P ? 20240726 0546 40.3714 GAU 1.00e-01 -1.00e+00 -1.00e+00 -1.00e+00 1.00e+00
IA_MNAI_   ? Z ? P ? 20240726 0546 52.7198 GAU 1.00e-01 -1.00e+00 -1.00e+00 -1.00e+00 1.00e+00
IA_UMKSI_  ? Z ? P ? 20240726 0546 53.6114 GAU 1.00e-01 -1.00e+00 -1.00e+00 -1.00e+00 1.00e+00
IA_PASMI_  ? Z ? P ? 20240726 0546 56.3914 GAU 1.00e-01 -1.00e+00 -1.00e+00 -1.00e+00 1.00e+00
IA_PPSI_   ? Z ? P ? 20240726 0546 59.9514 GAU 1.00e-01 -1.00e+00 -1.00e+00 -1.00e+00 1.00e+00
IA_JMSI_   ? Z ? P ? 20240726 0546 59.7932 GAU 1.00e-01 -1.00e+00 -1.00e+00 -1.00e+00 1.00e+00
IA_MKBI_   ? Z ? P ? 20240726 0547 00.9914 GAU 1.00e-01 -1.00e+00 -1.00e+00 -1.00e+00 1.00e+00
IA_BLSM_00 ? Z ? P ? 20240726 0547 01.1964 GAU 1.00e-01 -1.00e+00 -1.00e+00 -1.00e+00 1.00e+00
IA_STSI_   ? Z ? P ? 20240726 0547 02.1432 GAU 1.00e-01 -1.00e+00 -1.00e+00 -1.00e+00 1.00e+00
IA_PPSM_00 ? Z ? P ? 20240726 0547 05.3714 GAU 1.00e-01 -1.00e+00 -1.00e+00 -1.00e+00 1.00e+00
IA_KRJI_   ? Z ? P ? 20240726 0547 06.4314 GAU 1.00e-01 -1.00e+00 -1.00e+00 -1.00e+00 1.00e+00
IA_SLSI_   ? Z ? P ? 20240726 0547 08.1114 GAU 1.00e-01 -1.00e+00 -1.00e+00 -1.00e+00 1.00e+00
IA_SUSM_00 ? Z ? P ? 20240726 0547 08.9464 GAU 1.00e-01 -1.00e+00 -1.00e+00 -1.00e+00 1.00e+00
IA_SKSM_00 ? Z ? P ? 20240726 0547 07.6214 GAU 1.00e-01 -1.00e+00 -1.00e+00 -1.00e+00 1.00e+00
IA_TRIYO_  ? Z ? P ? 20240726 0547 10.9432 GAU 1.00e-01 -1.00e+00 -1.00e+00 -1.00e+00 1.00e+00
IA_BMSI_   ? Z ? P ? 20240726 0547 11.1182 GAU 1.00e-01 -1.00e+00 -1.00e+00 -1.00e+00 1.00e+00
IA_SSSM_00 ? Z ? P ? 20240726 0547 13.2464 GAU 1.00e-01 -1.00e+00 -1.00e+00 -1.00e+00 1.00e+00
IA_SISMI_  ? Z ? P ? 20240726 0547 16.2714 GAU 1.00e-01 -1.00e+00 -1.00e+00 -1.00e+00 1.00e+00
IA_JASI_   ? Z ? P ? 20240726 0547 15.6932 GAU 1.00e-01 -1.00e+00 -1.00e+00 -1.00e+00 1.00e+00
IA_MBBI_   ? Z ? P ? 20240726 0547 16.1432 GAU 1.00e-01 -1.00e+00 -1.00e+00 -1.00e+00 1.00e+00
IA_BPSM_00 ? Z ? P ? 20240726 0547 18.0714 GAU 1.00e-01 -1.00e+00 -1.00e+00 -1.00e+00 1.00e+00
IA_PDSI_   ? Z ? P ? 20240726 0547 21.8914 GAU 1.00e-01 -1.00e+00 -1.00e+00 -1.00e+00 1.00e+00
IA_SLSM_00 ? Z ? P ? 20240726 0547 24.6464 GAU 1.00e-01 -1.00e+00 -1.00e+00 -1.00e+00 1.00e+00
IA_SIUMI_  ? Z ? P ? 20240726 0547 26.0714 GAU 1.00e-01 -1.00e+00 -1.00e+00 -1.00e+00 1.00e+00
IA_GTSI_00 ? Z ? P ? 20240726 0547 07.6964 GAU 1.00e-01 -1.00e+00 -1.00e+00 -1.00e+00 0.00e+00
IA_SUPJI_  ? Z ? P ? 20240726 0547 30.6714 GAU 1.00e-01 -1.00e+00 -1.00e+00 -1.00e+00 1.00e+00
IA_LBTSI_  ? Z ? P ? 20240726 0547 28.3514 GAU 1.00e-01 -1.00e+00 -1.00e+00 -1.00e+00 1.00e+00
IA_PPI_00  ? Z ? P ? 20240726 0547 28.8914 GAU 1.00e-01 -1.00e+00 -1.00e+00 -1.00e+00 1.00e+00
IA_CGJI_   ? Z ? P ? 20240726 0547 29.6914 GAU 1.00e-01 -1.00e+00 -1.00e+00 -1.00e+00 1.00e+00
IA_RGRI_   ? Z ? P ? 20240726 0547 33.2214 GAU 1.00e-01 -1.00e+00 -1.00e+00 -1.00e+00 1.00e+00
IA_SBJI_00 ? Z ? P ? 20240726 0547 35.8314 GAU 1.00e-01 -1.00e+00 -1.00e+00 -1.00e+00 1.00e+00
IA_LKSM_00 ? Z ? P ? 20240726 0547 33.1714 GAU 1.00e-01 -1.00e+00 -1.00e+00 -1.00e+00 1.00e+00
IA_PLSI_   ? Z ? P ? 20240726 0547 38.4932 GAU 1.00e-01 -1.00e+00 -1.00e+00 -1.00e+00 1.00e+00
IA_CILJI_  ? Z ? P ? 20240726 0547 38.5314 GAU 1.00e-01 -1.00e+00 -1.00e+00 -1.00e+00 1.00e+00
IA_SBSM_00 ? Z ? P ? 20240726 0547 39.8714 GAU 1.00e-01 -1.00e+00 -1.00e+00 -1.00e+00 1.00e+00
IA_IHRSI_  ? Z ? P ? 20240726 0547 26.4914 GAU 1.00e-01 -1.00e+00 -1.00e+00 -1.00e+00 0.00e+00
IA_PRSI_   ? Z ? P ? 20240726 0547 41.3714 GAU 1.00e-01 -1.00e+00 -1.00e+00 -1.00e+00 1.00e+00
IA_PSJM_00 ? Z ? P ? 20240726 0547 43.5464 GAU 1.00e-01 -1.00e+00 -1.00e+00 -1.00e+00 1.00e+00
IA_PBSI_   ? Z ? P ? 20240726 0547 43.9964 GAU 1.00e-01 -1.00e+00 -1.00e+00 -1.00e+00 1.00e+00
IA_RRHRI_  ? Z ? P ? 20240726 0547 42.9464 GAU 1.00e-01 -1.00e+00 -1.00e+00 -1.00e+00 1.00e+00
IA_CSJI_   ? Z ? P ? 20240726 0547 43.2682 GAU 1.00e-01 -1.00e+00 -1.00e+00 -1.00e+00 1.00e+00
IA_WSJM_00 ? Z ? P ? 20240726 0547 45.3464 GAU 1.00e-01 -1.00e+00 -1.00e+00 -1.00e+00 1.00e+00
IA_JTJM_00 ? Z ? P ? 20240726 0547 46.0714 GAU 1.00e-01 -1.00e+00 -1.00e+00 -1.00e+00 1.00e+00
IA_RRSI_00 ? Z ? P ? 20240726 0547 47.2714 GAU 1.00e-01 -1.00e+00 -1.00e+00 -1.00e+00 1.00e+00
IA_SSJM_00 ? Z ? P ? 20240726 0547 48.5214 GAU 1.00e-01 -1.00e+00 -1.00e+00 -1.00e+00 1.00e+00
IA_SIRSI_  ? Z ? P ? 20240726 0547 47.7714 GAU 1.00e-01 -1.00e+00 -1.00e+00 -1.00e+00 1.00e+00
IA_SCJM_00 ? Z ? P ? 20240726 0547 52.2464 GAU 1.00e-01 -1.00e+00 -1.00e+00 -1.00e+00 1.00e+00
IA_CNJI_   ? Z ? P ? 20240726 0547 51.4214 GAU 1.00e-01 -1.00e+00 -1.00e+00 -1.00e+00 1.00e+00
IA_CWJM_00 ? Z ? P ? 20240726 0547 55.9714 GAU 1.00e-01 -1.00e+00 -1.00e+00 -1.00e+00 1.00e+00
IA_RHRSI_  ? Z ? P ? 20240726 0547 56.5714 GAU 1.00e-01 -1.00e+00 -1.00e+00 -1.00e+00 1.00e+00
IA_ACBM_   ? Z ? P ? 20240726 0547 58.9214 GAU 1.00e-01 -1.00e+00 -1.00e+00 -1.00e+00 1.00e+00
IA_TSJM_00 ? Z ? P ? 20240726 0548 00.3714 GAU 1.00e-01 -1.00e+00 -1.00e+00 -1.00e+00 1.00e+00
IA_BBJI_   ? Z ? P ? 20240726 0547 57.9545 GAU 1.00e-01 -1.00e+00 -1.00e+00 -1.00e+00 1.00e+00
IA_TPI_00  ? Z ? P ? 20240726 0548 02.0114 GAU 1.00e-01 -1.00e+00 -1.00e+00 -1.00e+00 1.00e+00
IA_TOJI_   ? Z ? P ? 20240726 0548 05.5182 GAU 1.00e-01 -1.00e+00 -1.00e+00 -1.00e+00 1.00e+00
IA_CIJM_00 ? Z ? P ? 20240726 0548 04.5214 GAU 1.00e-01 -1.00e+00 -1.00e+00 -1.00e+00 1.00e+00
IA_GSI_    ? Z ? P ? 20240726 0548 05.2432 GAU 1.00e-01 -1.00e+00 -1.00e+00 -1.00e+00 1.00e+00
IA_PTSM_00 ? Z ? P ? 20240726 0548 05.3214 GAU 1.00e-01 -1.00e+00 -1.00e+00 -1.00e+00 1.00e+00
IA_LTNSI_  ? Z ? P ? 20240726 0548 07.1114 GAU 1.00e-01 -1.00e+00 -1.00e+00 -1.00e+00 1.00e+00
IA_PKJM_00 ? Z ? P ? 20240726 0548 08.6964 GAU 1.00e-01 -1.00e+00 -1.00e+00 -1.00e+00 1.00e+00
IA_ONSM_00 ? Z ? P ? 20240726 0548 08.2214 GAU 1.00e-01 -1.00e+00 -1.00e+00 -1.00e+00 1.00e+00
IA_MUTSI_  ? Z ? P ? 20240726 0548 08.9914 GAU 1.00e-01 -1.00e+00 -1.00e+00 -1.00e+00 1.00e+00
IA_CMJI_   ? Z ? P ? 20240726 0548 10.4464 GAU 1.00e-01 -1.00e+00 -1.00e+00 -1.00e+00 1.00e+00
IA_PCJM_00 ? Z ? P ? 20240726 0548 13.0964 GAU 1.00e-01 -1.00e+00 -1.00e+00 -1.00e+00 1.00e+00
IA_SICJI_  ? Z ? P ? 20240726 0548 15.7114 GAU 1.00e-01 -1.00e+00 -1.00e+00 -1.00e+00 1.00e+00
IA_KPJI_   ? Z ? P ? 20240726 0548 16.8964 GAU 1.00e-01 -1.00e+00 -1.00e+00 -1.00e+00 1.00e+00
IA_KASAI_  ? Z ? P ? 20240726 0548 16.1714 GAU 1.00e-01 -1.00e+00 -1.00e+00 -1.00e+00 1.00e+00
IA_BTJI_   ? Z ? P ? 20240726 0548 19.2182 GAU 1.00e-01 -1.00e+00 -1.00e+00 -1.00e+00 1.00e+00
IA_SSSI_00 ? Z ? P ? 20240726 0548 18.4614 GAU 1.00e-01 -1.00e+00 -1.00e+00 -1.00e+00 1.00e+00
IA_LDSI_   ? Z ? P ? 20240726 0548 19.4464 GAU 1.00e-01 -1.00e+00 -1.00e+00 -1.00e+00 1.00e+00
IA_TKSM_00 ? Z ? P ? 20240726 0548 22.1714 GAU 1.00e-01 -1.00e+00 -1.00e+00 -1.00e+00 1.00e+00
IA_MBJI_00 ? Z ? P ? 20240726 0548 25.7214 GAU 1.00e-01 -1.00e+00 -1.00e+00 -1.00e+00 1.00e+00
IA_SNSI_   ? Z ? P ? 20240726 0548 27.2714 GAU 1.00e-01 -1.00e+00 -1.00e+00 -1.00e+00 1.00e+00
IA_GTJI_   ? Z ? P ? 20240726 0548 32.8145 GAU 1.00e-01 -1.00e+00 -1.00e+00 -1.00e+00 1.00e+00
IA_KKJM_00 ? Z ? P ? 20240726 0548 31.6964 GAU 1.00e-01 -1.00e+00 -1.00e+00 -1.00e+00 1.00e+00
IA_SAKJI_  ? Z ? P ? 20240726 0548 32.8314 GAU 1.00e-01 -1.00e+00 -1.00e+00 -1.00e+00 1.00e+00
IA_PGJM_   ? Z ? P ? 20240726 0548 37.0932 GAU 1.00e-01 -1.00e+00 -1.00e+00 -1.00e+00 1.00e+00
IA_SYJI_   ? Z ? P ? 20240726 0548 37.1914 GAU 1.00e-01 -1.00e+00 -1.00e+00 -1.00e+00 1.00e+00
IA_UGM_    ? Z ? P ? 20240726 0548 37.7798 GAU 1.00e-01 -1.00e+00 -1.00e+00 -1.00e+00 1.00e+00
IA_JAASI_  ? Z ? P ? 20240726 0548 40.6714 GAU 1.00e-01 -1.00e+00 -1.00e+00 -1.00e+00 1.00e+00
IA_BGASI_  ? Z ? P ? 20240726 0548 41.5314 GAU 1.00e-01 -1.00e+00 -1.00e+00 -1.00e+00 1.00e+00
IA_BMBNG_  ? Z ? P ? 20240726 0548 41.8145 GAU 1.00e-01 -1.00e+00 -1.00e+00 -1.00e+00 1.00e+00
IA_SSKI_   ? Z ? P ? 20240726 0548 41.2464 GAU 1.00e-01 -1.00e+00 -1.00e+00 -1.00e+00 1.00e+00
IA_WOJI_   ? Z ? P ? 20240726 0548 42.9964 GAU 1.00e-01 -1.00e+00 -1.00e+00 -1.00e+00 1.00e+00
IA_NKKI_00 ? Z ? P ? 20240726 0548 45.5464 GAU 1.00e-01 -1.00e+00 -1.00e+00 -1.00e+00 1.00e+00
IA_PCJI_   ? Z ? P ? 20240726 0548 46.7964 GAU 1.00e-01 -1.00e+00 -1.00e+00 -1.00e+00 1.00e+00
IA_JBJM_00 ? Z ? P ? 20240726 0548 50.7714 GAU 1.00e-01 -1.00e+00 -1.00e+00 -1.00e+00 1.00e+00
IA_BAPJI_  ? Z ? P ? 20240726 0548 47.7514 GAU 1.00e-01 -1.00e+00 -1.00e+00 -1.00e+00 1.00e+00
IA_SWJI_   ? Z ? P ? 20240726 0548 54.4114 GAU 1.00e-01 -1.00e+00 -1.00e+00 -1.00e+00 1.00e+00
IA_SNJI_00 ? Z ? P ? 20240726 0548 54.3214 GAU 1.00e-01 -1.00e+00 -1.00e+00 -1.00e+00 1.00e+00
IA_PWJI_   ? Z ? P ? 20240726 0548 55.0464 GAU 1.00e-01 -1.00e+00 -1.00e+00 -1.00e+00 1.00e+00
IA_GESM_00 ? Z ? P ? 20240726 0548 56.4964 GAU 1.00e-01 -1.00e+00 -1.00e+00 -1.00e+00 1.00e+00
IA_LHMI_   ? Z ? P ? 20240726 0548 57.3398 GAU 1.00e-01 -1.00e+00 -1.00e+00 -1.00e+00 1.00e+00
IA_GPSM_00 ? Z ? P ? 20240726 0548 56.8964 GAU 1.00e-01 -1.00e+00 -1.00e+00 -1.00e+00 1.00e+00
IA_CASI_00 ? Z ? P ? 20240726 0548 58.0714 GAU 1.00e-01 -1.00e+00 -1.00e+00 -1.00e+00 1.00e+00
IA_PLJI_   ? Z ? P ? 20240726 0549 11.7932 GAU 1.00e-01 -1.00e+00 -1.00e+00 -1.00e+00 0.00e+00
IA_GRJI_   ? Z ? P ? 20240726 0549 03.6714 GAU 1.00e-01 -1.00e+00 -1.00e+00 -1.00e+00 1.00e+00
IA_WGJM_00 ? Z ? P ? 20240726 0549 05.8714 GAU 1.00e-01 -1.00e+00 -1.00e+00 -1.00e+00 1.00e+00
IA_BAJI_   ? Z ? P ? 20240726 0549 07.2182 GAU 1.00e-01 -1.00e+00 -1.00e+00 -1.00e+00 1.00e+00
IA_PPJI_00 ? Z ? P ? 20240726 0549 04.9614 GAU 1.00e-01 -1.00e+00 -1.00e+00 -1.00e+00 1.00e+00
IA_SAASI_  ? Z ? P ? 20240726 0549 09.2114 GAU 1.00e-01 -1.00e+00 -1.00e+00 -1.00e+00 1.00e+00
IA_PAASI_  ? Z ? P ? 20240726 0549 11.9914 GAU 1.00e-01 -1.00e+00 -1.00e+00 -1.00e+00 1.00e+00
IA_BLJI_   ? Z ? P ? 20240726 0549 18.6714 GAU 1.00e-01 -1.00e+00 -1.00e+00 -1.00e+00 1.00e+00
IA_KKKKI_  ? Z ? P ? 20240726 0549 21.7464 GAU 1.00e-01 -1.00e+00 -1.00e+00 -1.00e+00 1.00e+00
IA_KMMI_   ? Z ? P ? 20240726 0549 22.5314 GAU 1.00e-01 -1.00e+00 -1.00e+00 -1.00e+00 1.00e+00
IA_ABJI_   ? Z ? P ? 20240726 0549 27.2714 GAU 1.00e-01 -1.00e+00 -1.00e+00 -1.00e+00 1.00e+00
IA_JAGI_   ? Z ? P ? 20240726 0549 26.1198 GAU 1.00e-01 -1.00e+00 -1.00e+00 -1.00e+00 1.00e+00
IA_GEBBI_  ? Z ? P ? 20240726 0549 35.0314 GAU 1.00e-01 -1.00e+00 -1.00e+00 -1.00e+00 1.00e+00
IA_ARSKI_  ? Z ? P ? 20240726 0549 42.5114 GAU 1.00e-01 -1.00e+00 -1.00e+00 -1.00e+00 1.00e+00
IA_DBKI_00 ? Z ? P ? 20240726 0549 40.8964 GAU 1.00e-01 -1.00e+00 -1.00e+00 -1.00e+00 1.00e+00
IA_SRBI_   ? Z ? P ? 20240726 0549 41.5114 GAU 1.00e-01 -1.00e+00 -1.00e+00 -1.00e+00 1.00e+00
IA_MTKI_   ? Z ? P ? 20240726 0549 43.1714 GAU 1.00e-01 -1.00e+00 -1.00e+00 -1.00e+00 1.00e+00
IA_NKBI_   ? Z ? P ? 20240726 0549 54.2182 GAU 1.00e-01 -1.00e+00 -1.00e+00 -1.00e+00 0.00e+00
IA_KHK_00  ? Z ? P ? 20240726 0549 48.1714 GAU 1.00e-01 -1.00e+00 -1.00e+00 -1.00e+00 1.00e+00
IA_KBKI_   ? Z ? P ? 20240726 0549 52.5514 GAU 1.00e-01 -1.00e+00 -1.00e+00 -1.00e+00 1.00e+00
IA_KLNI_   ? Z ? P ? 20240726 0549 57.5314 GAU 1.00e-01 -1.00e+00 -1.00e+00 -1.00e+00 1.00e+00
IA_KMNI_   ? Z ? P ? 20240726 0549 58.9214 GAU 1.00e-01 -1.00e+00 -1.00e+00 -1.00e+00 0.00e+00
IA_KUKI_   ? Z ? P ? 20240726 0549 56.2214 GAU 1.00e-01 -1.00e+00 -1.00e+00 -1.00e+00 1.00e+00
IA_BYLI_00 ? Z ? P ? 20240726 0550 02.7964 GAU 1.00e-01 -1.00e+00 -1.00e+00 -1.00e+00 0.00e+00
IA_LTNI_   ? Z ? P ? 20240726 0549 57.7914 GAU 1.00e-01 -1.00e+00 -1.00e+00 -1.00e+00 1.00e+00
IA_LSNI_   ? Z ? P ? 20240726 0550 11.7964 GAU 1.00e-01 -1.00e+00 -1.00e+00 -1.00e+00 1.00e+00
IA_RSNI_   ? Z ? P ? 20240726 0550 12.4964 GAU 1.00e-01 -1.00e+00 -1.00e+00 -1.00e+00 1.00e+00
IA_SMKI_   ? Z ? P ? 20240726 0550 15.4314 GAU 1.00e-01 -1.00e+00 -1.00e+00 -1.00e+00 1.00e+00
IA_PLAI_   ? Z ? P ? 20240726 0550 13.2932 GAU 1.00e-01 -1.00e+00 -1.00e+00 -1.00e+00 1.00e+00
IA_ESNI_   ? Z ? P ? 20240726 0550 15.4214 GAU 1.00e-01 -1.00e+00 -1.00e+00 -1.00e+00 1.00e+00
IA_KKTKI_  ? Z ? P ? 20240726 0550 17.1964 GAU 1.00e-01 -1.00e+00 -1.00e+00 -1.00e+00 1.00e+00
IA_TSNI_   ? Z ? P ? 20240726 0550 17.0464 GAU 1.00e-01 -1.00e+00 -1.00e+00 -1.00e+00 1.00e+00
IA_SGKI_   ? Z ? P ? 20240726 0550 23.3464 GAU 1.00e-01 -1.00e+00 -1.00e+00 -1.00e+00 1.00e+00
IA_PBNI_   ? Z ? P ? 20240726 0550 25.2514 GAU 1.00e-01 -1.00e+00 -1.00e+00 -1.00e+00 1.00e+00
IA_PMSI_   ? Z ? P ? 20240726 0550 30.5714 GAU 1.00e-01 -1.00e+00 -1.00e+00 -1.00e+00 1.00e+00
IA_WBNI_   ? Z ? P ? 20240726 0550 28.7464 GAU 1.00e-01 -1.00e+00 -1.00e+00 -1.00e+00 1.00e+00
IA_TAPSI_  ? Z ? P ? 20240726 0550 30.6114 GAU 1.00e-01 -1.00e+00 -1.00e+00 -1.00e+00 1.00e+00
IA_KBSSI_  ? Z ? P ? 20240726 0550 30.4914 GAU 1.00e-01 -1.00e+00 -1.00e+00 -1.00e+00 1.00e+00
IA_MMCI_00 ? Z ? P ? 20240726 0550 33.0464 GAU 1.00e-01 -1.00e+00 -1.00e+00 -1.00e+00 1.00e+00
IA_TTPSI_  ? Z ? P ? 20240726 0550 34.4464 GAU 1.00e-01 -1.00e+00 -1.00e+00 -1.00e+00 1.00e+00
IA_KJCM_   ? Z ? P ? 20240726 0550 42.8432 GAU 1.00e-01 -1.00e+00 -1.00e+00 -1.00e+00 0.00e+00
IA_LSCM_00 ? Z ? P ? 20240726 0550 37.0464 GAU 1.00e-01 -1.00e+00 -1.00e+00 -1.00e+00 1.00e+00
IA_RDCM_00 ? Z ? P ? 20240726 0550 39.1714 GAU 1.00e-01 -1.00e+00 -1.00e+00 -1.00e+00 1.00e+00
IA_BBCM_00 ? Z ? P ? 20240726 0550 37.5214 GAU 1.00e-01 -1.00e+00 -1.00e+00 -1.00e+00 1.00e+00
IA_LBFI_00 ? Z ? P ? 20240726 0550 39.1314 GAU 1.00e-01 -1.00e+00 -1.00e+00 -1.00e+00 1.00e+00
IA_BKSI_   ? Z ? P ? 20240726 0550 38.2714 GAU 1.00e-01 -1.00e+00 -1.00e+00 -1.00e+00 1.00e+00
IA_BNSI_   ? Z ? P ? 20240726 0550 39.8714 GAU 1.00e-01 -1.00e+00 -1.00e+00 -1.00e+00 1.00e+00
IA_DOCM_00 ? Z ? P ? 20240726 0550 42.7714 GAU 1.00e-01 -1.00e+00 -1.00e+00 -1.00e+00 1.00e+00
IA_KHSSI_  ? Z ? P ? 20240726 0550 39.8714 GAU 1.00e-01 -1.00e+00 -1.00e+00 -1.00e+00 1.00e+00
IA_SBSSI_  ? Z ? P ? 20240726 0550 43.4314 GAU 1.00e-01 -1.00e+00 -1.00e+00 -1.00e+00 1.00e+00
IA_BLCM_00 ? Z ? P ? 20240726 0550 44.4964 GAU 1.00e-01 -1.00e+00 -1.00e+00 -1.00e+00 1.00e+00
IA_BGCM_00 ? Z ? P ? 20240726 0550 46.0464 GAU 1.00e-01 -1.00e+00 -1.00e+00 -1.00e+00 1.00e+00
IA_PSJCM_  ? Z ? P ? 20240726 0550 44.3682 GAU 1.00e-01 -1.00e+00 -1.00e+00 -1.00e+00 1.00e+00
IA_LMTI_00 ? Z ? P ? 20240726 0550 43.4714 GAU 1.00e-01 -1.00e+00 -1.00e+00 -1.00e+00 1.00e+00
IA_LUCM_00 ? Z ? P ? 20240726 0550 48.7464 GAU 1.00e-01 -1.00e+00 -1.00e+00 -1.00e+00 1.00e+00
IA_MPSI_   ? Z ? P ? 20240726 0550 46.8464 GAU 1.00e-01 -1.00e+00 -1.00e+00 -1.00e+00 1.00e+00
IA_SAPSI_  ? Z ? P ? 20240726 0550 50.3114 GAU 1.00e-01 -1.00e+00 -1.00e+00 -1.00e+00 1.00e+00
IA_PUPSI_  ? Z ? P ? 20240726 0550 49.5714 GAU 1.00e-01 -1.00e+00 -1.00e+00 -1.00e+00 1.00e+00
IA_UMSSI_  ? Z ? P ? 20240726 0550 49.0914 GAU 1.00e-01 -1.00e+00 -1.00e+00 -1.00e+00 1.00e+00
IA_TIPSI_  ? Z ? P ? 20240726 0550 52.8914 GAU 1.00e-01 -1.00e+00 -1.00e+00 -1.00e+00 1.00e+00
IA_WKCM_   ? Z ? P ? 20240726 0550 53.7932 GAU 1.00e-01 -1.00e+00 -1.00e+00 -1.00e+00 1.00e+00
IA_NANFI_  ? Z ? P ? 20240726 0550 53.3514 GAU 1.00e-01 -1.00e+00 -1.00e+00 -1.00e+00 1.00e+00
IA_BUMSI_  ? Z ? P ? 20240726 0550 55.7214 GAU 1.00e-01 -1.00e+00 -1.00e+00 -1.00e+00 1.00e+00
IA_TOLI2_  ? Z ? P ? 20240726 0550 57.4998 GAU 1.00e-01 -1.00e+00 -1.00e+00 -1.00e+00 1.00e+00
IA_WMCM_00 ? Z ? P ? 20240726 0550 59.3464 GAU 1.00e-01 -1.00e+00 -1.00e+00 -1.00e+00 1.00e+00
IA_EDFI_   ? Z ? P ? 20240726 0550 57.7464 GAU 1.00e-01 -1.00e+00 -1.00e+00 -1.00e+00 1.00e+00
IA_TIKSI_  ? Z ? P ? 20240726 0550 59.2514 GAU 1.00e-01 -1.00e+00 -1.00e+00 -1.00e+00 1.00e+00
IA_TPCI_00 ? Z ? P ? 20240726 0550 59.9214 GAU 1.00e-01 -1.00e+00 -1.00e+00 -1.00e+00 1.00e+00
IA_POBSI_  ? Z ? P ? 20240726 0550 58.9714 GAU 1.00e-01 -1.00e+00 -1.00e+00 -1.00e+00 1.00e+00
IA_APSI_   ? Z ? P ? 20240726 0551 01.9514 GAU 1.00e-01 -1.00e+00 -1.00e+00 -1.00e+00 1.00e+00
IA_MASFI_  ? Z ? P ? 20240726 0551 00.5914 GAU 1.00e-01 -1.00e+00 -1.00e+00 -1.00e+00 1.00e+00
IA_LKUCM_  ? Z ? P ? 20240726 0551 04.6182 GAU 1.00e-01 -1.00e+00 -1.00e+00 -1.00e+00 1.00e+00
IA_PKCI_00 ? Z ? P ? 20240726 0551 04.3214 GAU 1.00e-01 -1.00e+00 -1.00e+00 -1.00e+00 1.00e+00
IA_UTUSI_  ? Z ? P ? 20240726 0551 05.5214 GAU 1.00e-01 -1.00e+00 -1.00e+00 -1.00e+00 1.00e+00
IA_BBCI_00 ? Z ? P ? 20240726 0551 05.4964 GAU 1.00e-01 -1.00e+00 -1.00e+00 -1.00e+00 1.00e+00
IA_KDI_01  ? Z ? P ? 20240726 0551 07.9114 GAU 1.00e-01 -1.00e+00 -1.00e+00 -1.00e+00 1.00e+00
IA_BUBSI_  ? Z ? P ? 20240726 0551 07.4314 GAU 1.00e-01 -1.00e+00 -1.00e+00 -1.00e+00 1.00e+00
IA_LOMSI_  ? Z ? P ? 20240726 0551 11.4714 GAU 1.00e-01 -1.00e+00 -1.00e+00 -1.00e+00 1.00e+00
IA_MRSI_   ? Z ? P ? 20240726 0551 07.2964 GAU 1.00e-01 -1.00e+00 -1.00e+00 -1.00e+00 1.00e+00
IA_LRTI_   ? Z ? P ? 20240726 0551 09.5964 GAU 1.00e-01 -1.00e+00 -1.00e+00 -1.00e+00 1.00e+00
IA_WTKSI_  ? Z ? P ? 20240726 0551 14.3314 GAU 1.00e-01 -1.00e+00 -1.00e+00 -1.00e+00 1.00e+00
IA_SMSI_   ? Z ? P ? 20240726 0551 15.0214 GAU 1.00e-01 -1.00e+00 -1.00e+00 -1.00e+00 1.00e+00
IA_WWCI_00 ? Z ? P ? 20240726 0551 17.0214 GAU 1.00e-01 -1.00e+00 -1.00e+00 -1.00e+00 1.00e+00
IA_BBLSI_  ? Z ? P ? 20240726 0551 18.8464 GAU 1.00e-01 -1.00e+00 -1.00e+00 -1.00e+00 1.00e+00
IA_ATKTI_  ? Z ? P ? 20240726 0551 23.0714 GAU 1.00e-01 -1.00e+00 -1.00e+00 -1.00e+00 1.00e+00
IA_SOEI_   ? Z ? P ? 20240726 0551 25.0598 GAU 1.00e-01 -1.00e+00 -1.00e+00 -1.00e+00 1.00e+00
IA_TBMUI_  ? Z ? P ? 20240726 0551 28.1314 GAU 1.00e-01 -1.00e+00 -1.00e+00 -1.00e+00 1.00e+00
IA_ASTTI_  ? Z ? P ? 20240726 0551 28.5714 GAU 1.00e-01 -1.00e+00 -1.00e+00 -1.00e+00 1.00e+00
IA_PBCI_00 ? Z ? P ? 20240726 0551 26.1464 GAU 1.00e-01 -1.00e+00 -1.00e+00 -1.00e+00 1.00e+00
IA_MTMTI_  ? Z ? P ? 20240726 0551 31.0514 GAU 1.00e-01 -1.00e+00 -1.00e+00 -1.00e+00 1.00e+00
IA_MUMUI_  ? Z ? P ? 20240726 0551 38.5314 GAU 1.00e-01 -1.00e+00 -1.00e+00 -1.00e+00 1.00e+00
IA_TNTI_   ? Z ? P ? 20240726 0551 57.7998 GAU 1.00e-01 -1.00e+00 -1.00e+00 -1.00e+00 1.00e+00
IA_JHMI_00 ? Z ? P ? 20240726 0551 58.8714 GAU 1.00e-01 -1.00e+00 -1.00e+00 -1.00e+00 1.00e+00
IA_GHMI_00 ? Z ? P ? 20240726 0552 01.0714 GAU 1.00e-01 -1.00e+00 -1.00e+00 -1.00e+00 1.00e+00
IA_TTSMI_  ? Z ? P ? 20240726 0552 07.5114 GAU 1.00e-01 -1.00e+00 -1.00e+00 -1.00e+00 1.00e+00
IA_MSHHI_  ? Z ? P ? 20240726 0552 07.3514 GAU 1.00e-01 -1.00e+00 -1.00e+00 -1.00e+00 1.00e+00
IA_MTAI_   ? Z ? P ? 20240726 0552 08.7464 GAU 1.00e-01 -1.00e+00 -1.00e+00 -1.00e+00 1.00e+00
IA_KORPI_  ? Z ? P ? 20240726 0552 13.1314 GAU 1.00e-01 -1.00e+00 -1.00e+00 -1.00e+00 1.00e+00
IA_GARPI_  ? Z ? P ? 20240726 0552 19.6514 GAU 1.00e-01 -1.00e+00 -1.00e+00 -1.00e+00 1.00e+00
IA_KARPI_  ? Z ? P ? 20240726 0552 29.3914 GAU 1.00e-01 -1.00e+00 -1.00e+00 -1.00e+00 1.00e+00
IA_SWI_    ? Z ? P ? 20240726 0552 29.4514 GAU 1.00e-01 -1.00e+00 -1.00e+00 -1.00e+00 1.00e+00
IA_TSPI_00 ? Z ? P ? 20240726 0552 35.0464 GAU 1.00e-01 -1.00e+00 -1.00e+00 -1.00e+00 1.00e+00
IA_ANAPI_  ? Z ? P ? 20240726 0552 52.5314 GAU 1.00e-01 -1.00e+00 -1.00e+00 -1.00e+00 1.00e+00
IA_WANPI_  ? Z ? P ? 20240726 0553 03.0914 GAU 1.00e-01 -1.00e+00 -1.00e+00 -1.00e+00 1.00e+00
IA_SUSPI_  ? Z ? P ? 20240726 0553 08.2314 GAU 1.00e-01 -1.00e+00 -1.00e+00 -1.00e+00 1.00e+00
IA_YBYPI_  ? Z ? P ? 20240726 0553 09.8114 GAU 1.00e-01 -1.00e+00 -1.00e+00 -1.00e+00 1.00e+00
IA_WWPI_00 ? Z ? P ? 20240726 0553 21.6464 GAU 1.00e-01 -1.00e+00 -1.00e+00 -1.00e+00 0.00e+00
IA_MTMPI_  ? Z ? P ? 20240726 0553 27.4114 GAU 1.00e-01 -1.00e+00 -1.00e+00 -1.00e+00 1.00e+00
IA_OBMPI_  ? Z ? P ? 20240726 0553 33.5314 GAU 1.00e-01 -1.00e+00 -1.00e+00 -1.00e+00 1.00e+00
IA_EDMPI_  ? Z ? P ? 20240726 0553 36.8314 GAU 1.00e-01 -1.00e+00 -1.00e+00 -1.00e+00 1.00e+00
IA_TRPI_   ? Z ? P ? 20240726 0553 42.5714 GAU 1.00e-01 -1.00e+00 -1.00e+00 -1.00e+00 1.00e+00
IA_ELMPI_  ? Z ? P ? 20240726 0553 45.9914 GAU 1.00e-01 -1.00e+00 -1.00e+00 -1.00e+00 1.00e+00
