NLLOC "/home/sysop/seiscomp/share/nll/data/output/NLL.20240822045243.552927.27177.20240726.051632.grid0" "LOCATED" "Location completed."
PUBLIC_ID None
SIGNATURE "Anthony Lomax   obs:-   NLLoc:v7.00.13(17Jan2022)   run:22Aug2024 11h52m44"
COMMENT "BMKG events"
GRID  361 181 601  -180 -90 0  1 1 1 PROB_DENSITY
SEARCH OCTREE nInitial 17628 nEvaluated 50012 smallestNodeSide 0.814417/0.814417/0.195312 oct_tree_integral 1.989056e+03 scatter_volume 1.989056e+03
HYPOCENTER  x 96.4197 y 0.12085 z 0.0976562  OT 59.8155  ix -1 iy -1 iz -1 MAXIMUM_LIKELIHOOD
GEOGRAPHIC  OT 2024 07 26  05 15 59.815515  Lat 0.120850 Long 96.419678 Depth 0.097656
QUALITY  Pmax 4.84922e+148 MFmin 41.1327 MFmax 41.1707 RMS 0.55469 Nphs 50 Gap 213.763 Dist 1.86859 Mamp -9.90 0 Mdur -9.90 0
VPVSRATIO  VpVsRatio -1  Npair 0  Diff -2e+30
STATISTICS  ExpectX 96.421104 Y 0.123779 Z 27.887929  CovXX 20.2208 XY 6.49227 XZ 7.32002 YY 4.58484 YZ 6.26444 ZZ 313.445 EllAz1  160.428 Dip1  0.635127 Len1  2.78856 Az2  250.447 Dip2  1.76942 Len2  8.86972 Len3  3.328026e+01
STAT_GEOG  ExpectLat 0.123779 Long 96.421104 Depth 27.887929
TRANSFORM  GLOBAL
QML_OriginQuality  assocPhCt 110  usedPhCt 50  assocStaCt -1  usedStaCt 50  depthPhCt -1  stdErr 0.55469  azGap 213.763  secAzGap 217.71  gtLevel -  minDist 207.778 maxDist 890.711 medDist 511.045
QML_OriginUncertainty  horUnc -1  minHorUnc 2.27011  maxHorUnc 7.20414  azMaxHorUnc 70.1464
QML_ConfidenceEllipsoid  semiMajorAxisLength 33.2803  semiMinorAxisLength 2.78856  semiIntermediateAxisLength 8.86972  majorAxisPlunge 88.12  majorAxisAzimuth 50.6894  majorAxisRotation 340.213
FOCALMECH  Hyp  0.120850 96.419678 0.097656 Mech  0 0 0 mf  0 nObs -1
PHASE ID Ins Cmp On Pha  FM Date     HrMn   Sec     Err  ErrMag    Coda      Amp       Per  >   TTpred    Res       Weight    StaLoc(X  Y         Z)        SDist    SAzim  RAz  RDip RQual    Tcorr 
IA_PBS ?    Z    ? P      ? 20240726 0516   32.8544 GAU  1.00e-01 -1.00e+00 -1.00e+00 -1.00e+00 >   33.2077   -0.1688    1.2473   98.2800   -0.0547   -0.0470    1.8686  95.39  -1.0  -1.0  0     0.0000
IA_SNS ?    Z    ? P      ? 20240726 0516   39.6144 GAU  1.00e-01 -1.00e+00 -1.00e+00 -1.00e+00 >   39.0026    0.7963    0.8814   96.3267    2.4089   -0.0145    2.2899 357.67  -1.0  -1.0  0     0.0000
IA_KAS ?    Z    ? P      ? 20240726 0516   45.5544 GAU  1.00e-01 -1.00e+00 -1.00e+00 -1.00e+00 >   45.6468    0.0921    1.2785   97.8582    2.4919   -0.0040    2.7731  31.23  -1.0  -1.0  0     0.0000
IA_SIU ?    Z    ? P      ? 20240726 0516   46.5344 GAU  1.00e-01 -1.00e+00 -1.00e+00 -1.00e+00 >   46.6724    0.0465    1.2813   98.9800   -1.1260   -0.0090    2.8477 115.97  -1.0  -1.0  0     0.0000
IA_SBS ?    Z    ? P      ? 20240726 0516   46.8544 GAU  1.00e-01 -1.00e+00 -1.00e+00 -1.00e+00 >   48.2011   -1.1622    0.4861   99.3775    0.1983   -0.0010    2.9588  88.50  -1.0  -1.0  0     0.0000
IA_SSS ?    Z    ? P      ? 20240726 0516   48.4044 GAU  1.00e-01 -1.00e+00 -1.00e+00 -1.00e+00 >   48.6005   -0.0116    1.2798   97.9708    2.6749   -0.0560    2.9879  31.25  -1.0  -1.0  0     0.0000
IA_ONS ?    Z    ? P      ? 20240726 0516   47.9794 GAU  1.00e-01 -1.00e+00 -1.00e+00 -1.00e+00 >   48.8618   -0.6979    0.8940   98.6301    2.1599   -1.1580    3.0069  47.29  -1.0  -1.0  0     0.0000
IA_LDS ?    Z    ? P      ? 20240726 0516   51.6294 GAU  1.00e-01 -1.00e+00 -1.00e+00 -1.00e+00 >   52.4143   -0.6004    0.9784   98.1570    2.8860   -0.8190    3.2652  32.11  -1.0  -1.0  0     0.0000
IA_SIS ?    Z    ? P      ? 20240726 0516   53.7544 GAU  1.00e-01 -1.00e+00 -1.00e+00 -1.00e+00 >   53.1510    0.7879    0.8886   99.1402   -1.7806   -0.0390    3.3188 124.97  -1.0  -1.0  0     0.0000
IA_PTS ?    Z    ? P      ? 20240726 0516   53.1794 GAU  1.00e-01 -1.00e+00 -1.00e+00 -1.00e+00 >   53.3588    0.0051    1.2808   99.1660    2.0119   -1.1960    3.3339  55.43  -1.0  -1.0  0     0.0000
IA_MUT ?    Z    ? P      ? 20240726 0516   53.5144 GAU  1.00e-01 -1.00e+00 -1.00e+00 -1.00e+00 >   53.5825    0.1164    1.2756   98.9650    2.3000   -1.5710    3.3502  49.41  -1.0  -1.0  0     0.0000
IA_TKS ?    Z    ? P      ? 20240726 0516   56.2044 GAU  1.00e-01 -1.00e+00 -1.00e+00 -1.00e+00 >   56.5642   -0.1754    1.2451   98.3244    3.1374   -0.7200    3.5670  32.24  -1.0  -1.0  0     0.0000
IA_JAA ?    Z    ? P      ? 20240726 0516   53.1744 GAU  1.00e-01 -1.00e+00 -1.00e+00 -1.00e+00 >   57.9391   -4.5802    0.0707   96.8200    3.7660   -0.0120    3.6670   6.26  -1.0  -1.0  0     0.0000
IA_TRI ?    Z    ? P      ? 20240726 0517    0.0013 GAU  1.00e-01 -1.00e+00 -1.00e+00 -1.00e+00 >   60.3412   -0.1554    1.2516   99.5830   -2.0601   -0.0880    3.8418 124.61  -1.0  -1.0  0     0.0000
IA_BGA ?    Z    ? P      ? 20240726 0517    2.1944 GAU  1.00e-01 -1.00e+00 -1.00e+00 -1.00e+00 >   62.0274    0.3515    1.1994   97.3150    3.9830   -1.0780    3.9644  13.03  -1.0  -1.0  0     0.0000
IA_RRS ?    Z    ? P      ? 20240726 0517    2.3794 GAU  1.00e-01 -1.00e+00 -1.00e+00 -1.00e+00 >   62.4035    0.1604    1.2678  100.3461    0.8410   -0.0780    3.9918  79.59  -1.0  -1.0  0     0.0000
IA_PPI ?    Z    ? P      ? 20240726 0517    2.5144 GAU  1.00e-01 -1.00e+00 -1.00e+00 -1.00e+00 >   62.7786   -0.0797    1.2707  100.3972   -0.4555   -0.7836    4.0190  98.25  -1.0  -1.0  0     0.0000
IA_RRH ?    Z    ? P      ? 20240726 0517    2.6794 GAU  1.00e-01 -1.00e+00 -1.00e+00 -1.00e+00 >   62.9688   -0.1049    1.2654  100.4274    0.5714   -0.0920    4.0329  83.58  -1.0  -1.0  0     0.0000
IA_PLS ?    Z    ? P      ? 20240726 0517    4.3513 GAU  1.00e-01 -1.00e+00 -1.00e+00 -1.00e+00 >   64.3853    0.1505    1.2699  100.5540    0.2373   -0.1330    4.1359  88.38  -1.0  -1.0  0     0.0000
IA_PDS ?    Z    ? P      ? 20240726 0517    4.0744 GAU  1.00e-01 -1.00e+00 -1.00e+00 -1.00e+00 >   64.8772   -0.6183    0.9633  100.4617   -0.9118   -0.2756    4.1717 104.34  -1.0  -1.0  0     0.0000
IA_LKS ?    Z    ? P      ? 20240726 0517    5.4044 GAU  1.00e-01 -1.00e+00 -1.00e+00 -1.00e+00 >   65.0118    0.5771    1.0582  100.6007    0.1845   -0.1860    4.1815  89.12  -1.0  -1.0  0     0.0000
IA_LBT ?    Z    ? P      ? 20240726 0517    5.7944 GAU  1.00e-01 -1.00e+00 -1.00e+00 -1.00e+00 >   65.9162    0.0626    1.2807  100.6250   -0.4750   -0.4170    4.2473  98.07  -1.0  -1.0  0     0.0000
IA_RHR ?    Z    ? P      ? 20240726 0517   12.8744 GAU  1.00e-01 -1.00e+00 -1.00e+00 -1.00e+00 >   66.6042    6.4547    0.0000  100.5100    1.4400    0.0000    4.2973  72.10  -1.0  -1.0  0     0.0000
IA_SLS ?    Z    ? P      ? 20240726 0517    7.5044 GAU  1.00e-01 -1.00e+00 -1.00e+00 -1.00e+00 >   67.1820    0.5069    1.1078  100.6534   -0.8313   -0.3890    4.3394 102.68  -1.0  -1.0  0     0.0000
IA_BPS ?    Z    ? P      ? 20240726 0517    6.8294 GAU  1.00e-01 -1.00e+00 -1.00e+00 -1.00e+00 >   67.6296   -0.6157    0.9655  100.5900   -1.1924   -0.1100    4.3719 107.49  -1.0  -1.0  0     0.0000
IA_CAS ?    Z    ? P      ? 20240726 0517    6.5044 GAU  1.00e-01 -1.00e+00 -1.00e+00 -1.00e+00 >   70.5709   -3.8820    0.0867   95.5767    4.6288   -0.0110    4.5859 349.43  -1.0  -1.0  0     0.0000
IA_PPS ?    Z    ? P      ? 20240726 0517   10.3144 GAU  1.00e-01 -1.00e+00 -1.00e+00 -1.00e+00 >   70.8462   -0.3474    1.1635  100.0100   -2.7660   -0.0060    4.6059 128.84  -1.0  -1.0  0     0.0000
IA_GES ?    Z    ? P      ? 20240726 0517   12.1794 GAU  1.00e-01 -1.00e+00 -1.00e+00 -1.00e+00 >   72.5547   -0.1908    1.2395   96.1278    4.8421   -1.0340    4.7302 356.47  -1.0  -1.0  0     0.0000
IA_GPS ?    Z    ? P      ? 20240726 0517   12.4544 GAU  1.00e-01 -1.00e+00 -1.00e+00 -1.00e+00 >   72.9618   -0.3229    1.1776   96.0904    4.8693   -0.4170    4.7599 356.04  -1.0  -1.0  0     0.0000
IA_PAS ?    Z    ? P      ? 20240726 0517   14.0144 GAU  1.00e-01 -1.00e+00 -1.00e+00 -1.00e+00 >   74.6204   -0.4216    1.1160  100.2028   -2.9646   -0.0390    4.8805 129.24  -1.0  -1.0  0     0.0000
IA_SSS ?    Z    ? P      ? 20240726 0517   17.7044 GAU  1.00e-01 -1.00e+00 -1.00e+00 -1.00e+00 >   77.6831    0.2057    1.2566  101.2375   -1.5641   -0.5630    5.1034 109.30  -1.0  -1.0  0     0.0000
IA_GTS ?    Z    ? P      ? 20240726 0517   17.6794 GAU  1.00e-01 -1.00e+00 -1.00e+00 -1.00e+00 >   77.9081   -0.0443    1.2764  101.4888   -0.5981   -0.0090    5.1198  98.08  -1.0  -1.0  0     0.0000
IA_LHM ?    Z    ? P      ? 20240726 0517   23.0428 GAU  1.00e-01 -1.00e+00 -1.00e+00 -1.00e+00 >   78.1179    5.1094    0.0000   96.9472    5.2288   -0.0030    5.1350   5.88  -1.0  -1.0  0     0.0000
IA_STS ?    Z    ? P      ? 20240726 0517   19.6513 GAU  1.00e-01 -1.00e+00 -1.00e+00 -1.00e+00 >   79.8852   -0.0495    1.2757  101.0478   -2.3887   -0.0160    5.2637 118.50  -1.0  -1.0  0     0.0000
IA_JAS ?    Z    ? P      ? 20240726 0517   20.1763 GAU  1.00e-01 -1.00e+00 -1.00e+00 -1.00e+00 >   79.9311    0.4297    1.1568  101.4584   -1.4145   -0.2530    5.2670 106.97  -1.0  -1.0  0     0.0000
IA_SIR ?    Z    ? P      ? 20240726 0517   13.8544 GAU  1.00e-01 -1.00e+00 -1.00e+00 -1.00e+00 >   80.2744   -6.2355    0.0000  101.6600    0.8600    0.0000    5.2920  81.95  -1.0  -1.0  0     0.0000
IA_SKS ?    Z    ? P      ? 20240726 0517   20.6794 GAU  1.00e-01 -1.00e+00 -1.00e+00 -1.00e+00 >   81.0020   -0.1381    1.2568  101.3497   -1.9460   -0.9560    5.3449 112.77  -1.0  -1.0  0     0.0000
IA_MKB ?    Z    ? P      ? 20240726 0517   21.6344 GAU  1.00e-01 -1.00e+00 -1.00e+00 -1.00e+00 >   82.5864   -0.7675    0.8314  101.2396   -2.4474   -0.0482    5.4602 118.09  -1.0  -1.0  0     0.0000
IA_KRJ ?    Z    ? P      ? 20240726 0517   24.2144 GAU  1.00e-01 -1.00e+00 -1.00e+00 -1.00e+00 >   83.2034    1.1955    0.5403  101.4619   -2.0912   -0.8109    5.5051 113.72  -1.0  -1.0  0     0.0000
IA_SAA ?    Z    ? P      ? 20240726 0517   24.0344 GAU  1.00e-01 -1.00e+00 -1.00e+00 -1.00e+00 >   83.3250    0.8939    0.7970   95.5250    5.5620   -0.0420    5.5140 350.69  -1.0  -1.0  0     0.0000
IA_PAA ?    Z    ? P      ? 20240726 0517   23.3744 GAU  1.00e-01 -1.00e+00 -1.00e+00 -1.00e+00 >   85.8500   -2.2911    0.0478   95.1290    5.6710   -0.0090    5.6978 346.95  -1.0  -1.0  0     0.0000
IA_PRS ?    Z    ? P      ? 20240726 0517   22.1544 GAU  1.00e-01 -1.00e+00 -1.00e+00 -1.00e+00 >   86.6455   -4.3066    0.0000  102.1700    0.3700    0.0000    5.7557  87.51  -1.0  -1.0  0     0.0000
IA_RGR ?    Z    ? P      ? 20240726 0517   29.3544 GAU  1.00e-01 -1.00e+00 -1.00e+00 -1.00e+00 >   89.0781    0.4608    1.1379  102.3338   -0.3491   -0.0409    5.9327  94.55  -1.0  -1.0  0     0.0000
IA_JMS ?    Z    ? P      ? 20240726 0517   32.3513 GAU  1.00e-01 -1.00e+00 -1.00e+00 -1.00e+00 >   91.6825    0.8533    0.8323  101.8875   -2.6372   -1.2750    6.1223 116.81  -1.0  -1.0  0     0.0000
IA_BMS ?    Z    ? P      ? 20240726 0517   34.6263 GAU  1.00e-01 -1.00e+00 -1.00e+00 -1.00e+00 >   93.9482    0.8626    0.8242  102.3154   -2.0664   -0.1350    6.2873 110.39  -1.0  -1.0  0     0.0000
IA_IHR ?    Z    ? P      ? 20240726 0517   35.7544 GAU  1.00e-01 -1.00e+00 -1.00e+00 -1.00e+00 >  100.3176   -4.3787    0.0825  103.1700    0.0200    0.0000    6.7511  90.85  -1.0  -1.0  0     0.0000
IA_UMK ?    Z    ? P      ? 20240726 0517   45.8544 GAU  1.00e-01 -1.00e+00 -1.00e+00 -1.00e+00 >  105.9452    0.0937    1.2783  102.5480   -3.5900   -0.7090    7.1609 121.27  -1.0  -1.0  0     0.0000
IA_BLS ?    Z    ? P      ? 20240726 0517   46.3294 GAU  1.00e-01 -1.00e+00 -1.00e+00 -1.00e+00 >  106.0568    0.4571    1.1402  102.8072   -3.1402   -0.0670    7.1691 117.11  -1.0  -1.0  0     0.0000
IA_MNA ?    Z    ? P      ? 20240726 0517   56.0028 GAU  1.00e-01 -1.00e+00 -1.00e+00 -1.00e+00 >  116.3594   -0.1721    1.2462  102.9557   -4.3605   -0.1540    7.9197 124.54  -1.0  -1.0  0     0.0000
IA_EGS ?    Z    ? P      ? 20240726 0517   56.8344 GAU  1.00e-01 -1.00e+00 -1.00e+00 -1.00e+00 >  117.6031   -0.5843    0.9919  102.2767   -5.3526   -0.0357    8.0103 133.19  -1.0  -1.0  0     0.0000
IA_SUS ?    Z    ? P      ? 20240726 0518   16.4044 GAU  1.00e-01 -1.00e+00 -1.00e+00 -1.00e+00 >  136.6165   -0.0276    1.2784  104.2945   -5.0212   -1.0550    9.3967 123.29  -1.0  -1.0  0     0.0000
IA_CGJ ?    Z    ? P      ? 20240726 0518   40.8744 GAU  1.00e-01 -1.00e+00 -1.00e+00 -1.00e+00 >  164.6238   -3.5649    0.0728  105.6900   -6.6134   -0.1820   11.4417 126.23  -1.0  -1.0  0     0.0000
IA_TPI ?    Z    ? P      ? 20240726 0518   47.5944 GAU  1.00e-01 -1.00e+00 -1.00e+00 -1.00e+00 >  166.6844    1.0945    0.6237  107.6535   -2.7563   -0.0250   11.5923 104.45  -1.0  -1.0  0     0.0000
IA_PSJ ?    Z    ? P      ? 20240726 0518   56.8044 GAU  1.00e-01 -1.00e+00 -1.00e+00 -1.00e+00 >  176.9588    0.0301    1.2814  106.5491   -6.9686   -0.2050   12.3436 125.25  -1.0  -1.0  0     0.0000
IA_SSK ?    Z    ? P      ? 20240726 0519    0.8544 GAU  1.00e-01 -1.00e+00 -1.00e+00 -1.00e+00 >  180.0443    0.9946    0.0000  108.9703    0.8172   -0.0200   12.5694  86.79  -1.0  -1.0  0     0.0000
IA_SSJ ?    Z    ? P      ? 20240726 0519    4.9544 GAU  1.00e-01 -1.00e+00 -1.00e+00 -1.00e+00 >  180.9923    4.1465    0.0000  106.9626   -6.8872   -0.8410   12.6388 123.88  -1.0  -1.0  0     0.0000
IA_BBJ ?    Z    ? P      ? 20240726 0519   11.0976 GAU  1.00e-01 -1.00e+00 -1.00e+00 -1.00e+00 >  193.0970   -1.8149    0.0000  107.6500   -7.4626   -0.6150   13.5250 124.34  -1.0  -1.0  0     0.0000
IA_NKK ?    Z    ? P      ? 20240726 0519   22.9544 GAU  1.00e-01 -1.00e+00 -1.00e+00 -1.00e+00 >  202.9278    0.2111    0.0000  110.5671   -1.5605   -0.0690   14.2454  96.83  -1.0  -1.0  0     0.0000
IA_MBJ ?    Z    ? P      ? 20240726 0519   33.8544 GAU  1.00e-01 -1.00e+00 -1.00e+00 -1.00e+00 >  215.8300   -1.7911    0.0000  109.6324   -7.4489   -0.0490   15.1956 120.16  -1.0  -1.0  0     0.0000
IA_GTJ ?    Z    ? P      ? 20240726 0519   42.6976 GAU  1.00e-01 -1.00e+00 -1.00e+00 -1.00e+00 >  220.3713    2.5107    0.0000  110.1837   -7.1638   -0.7490   15.5416 118.23  -1.0  -1.0  0     0.0000
IA_SAK ?    Z    ? P      ? 20240726 0519   41.0744 GAU  1.00e-01 -1.00e+00 -1.00e+00 -1.00e+00 >  223.2724   -2.0135    0.0000  110.1550   -7.6860   -0.7060   15.7634 119.99  -1.0  -1.0  0     0.0000
IA_BMB ?    Z    ? P      ? 20240726 0519   44.0976 GAU  1.00e-01 -1.00e+00 -1.00e+00 -1.00e+00 >  225.6671   -1.3851    0.0000  110.8839   -6.6635   -1.0290   15.9471 115.45  -1.0  -1.0  0     0.0000
IA_SNJ ?    Z    ? P      ? 20240726 0520    3.1044 GAU  1.00e-01 -1.00e+00 -1.00e+00 -1.00e+00 >  241.7847    1.5042    0.0000  111.7591   -7.7808   -1.3410   17.2134 117.66  -1.0  -1.0  0     0.0000
IA_MTK ?    Z    ? P      ? 20240726 0520   16.4344 GAU  1.00e-01 -1.00e+00 -1.00e+00 -1.00e+00 >  257.7117   -1.0928    0.0000  114.8959   -0.9418   -0.1001   18.5060  93.33  -1.0  -1.0  0     0.0000
IA_KUK ?    Z    ? P      ? 20240726 0520   26.1294 GAU  1.00e-01 -1.00e+00 -1.00e+00 -1.00e+00 >  265.4603    0.8536    0.0000  115.6305   -0.0394    0.0000   19.2115  90.47  -1.0  -1.0  0     0.0000
IA_KKT ?    Z    ? P      ? 20240726 0520   40.1794 GAU  1.00e-01 -1.00e+00 -1.00e+00 -1.00e+00 >  280.1227    0.2412    0.0000  116.9493    1.1861   -0.1130   20.5556  86.94  -1.0  -1.0  0     0.0000
IA_BUK ?    Z    ? P      ? 20240726 0521    0.5744 GAU  1.00e-01 -1.00e+00 -1.00e+00 -1.00e+00 >  292.2357    8.5232    0.0000  118.0700    1.2500    0.0000   21.6778  86.92  -1.0  -1.0  0     0.0000
IA_RSN ?    Z    ? P      ? 20240726 0521    4.7294 GAU  1.00e-01 -1.00e+00 -1.00e+00 -1.00e+00 >  305.3724   -0.4585    0.0000  117.5600   -8.9100    0.0000   22.9102 113.76  -1.0  -1.0  0     0.0000
IA_TAP ?    Z    ? P      ? 20240726 0521    6.0744 GAU  1.00e-01 -1.00e+00 -1.00e+00 -1.00e+00 >  307.1307   -0.8719    0.0000  119.2490   -3.3320   -0.0560   23.0765  98.81  -1.0  -1.0  0     0.0000
IA_MMC ?    Z    ? P      ? 20240726 0521    7.8044 GAU  1.00e-01 -1.00e+00 -1.00e+00 -1.00e+00 >  307.7900    0.1989    0.0000  119.3631   -2.9560   -1.1670   23.1390  97.83  -1.0  -1.0  0     0.0000
IA_RDC ?    Z    ? P      ? 20240726 0521    9.5294 GAU  1.00e-01 -1.00e+00 -1.00e+00 -1.00e+00 >  308.1621    1.5518    0.0000  119.5525   -1.2955   -0.0440   23.1743  93.58  -1.0  -1.0  0     0.0000
IA_DOC ?    Z    ? P      ? 20240726 0521   10.6294 GAU  1.00e-01 -1.00e+00 -1.00e+00 -1.00e+00 >  309.9310    0.8829    0.0000  119.7487   -0.6759   -0.0500   23.3422  91.99  -1.0  -1.0  0     0.0000
IA_BGC ?    Z    ? P      ? 20240726 0521   10.7544 GAU  1.00e-01 -1.00e+00 -1.00e+00 -1.00e+00 >  311.1805   -0.2416    0.0000  119.8801   -0.0496   -0.0180   23.4610  90.40  -1.0  -1.0  0     0.0000
IA_MPS ?    Z    ? P      ? 20240726 0521   11.0044 GAU  1.00e-01 -1.00e+00 -1.00e+00 -1.00e+00 >  311.3708   -0.1820    0.0000  119.8980    0.3374   -0.1740   23.4791  89.43  -1.0  -1.0  0     0.0000
IA_TSN ?    Z    ? P      ? 20240726 0521   14.8294 GAU  1.00e-01 -1.00e+00 -1.00e+00 -1.00e+00 >  311.5759    3.4380    0.0000  118.2800   -8.7100    0.0000   23.4986 112.62  -1.0  -1.0  0     0.0000
IA_SBS ?    Z    ? P      ? 20240726 0521   12.8144 GAU  1.00e-01 -1.00e+00 -1.00e+00 -1.00e+00 >  311.6444    1.3545    0.0000  119.8890   -1.2060   -0.2210   23.5052  93.30  -1.0  -1.0  0     0.0000
IA_PBN ?    Z    ? P      ? 20240726 0521   14.6544 GAU  1.00e-01 -1.00e+00 -1.00e+00 -1.00e+00 >  314.4113    0.4276    0.0000  118.5700   -8.7900    0.0000   23.7949 112.55  -1.0  -1.0  0     0.0000
IA_LSC ?    Z    ? P      ? 20240726 0521   14.9044 GAU  1.00e-01 -1.00e+00 -1.00e+00 -1.00e+00 >  315.2050   -0.1161    0.0000  119.8987   -4.3650   -0.1090   23.8817 101.11  -1.0  -1.0  0     0.0000
IA_LUC ?    Z    ? P      ? 20240726 0521   18.9044 GAU  1.00e-01 -1.00e+00 -1.00e+00 -1.00e+00 >  315.8338    3.2551    0.0000  120.3225   -1.4262   -1.1020   23.9505  93.79  -1.0  -1.0  0     0.0000
IA_TIP ?    Z    ? P      ? 20240726 0521   16.0744 GAU  1.00e-01 -1.00e+00 -1.00e+00 -1.00e+00 >  316.3020   -0.0431    0.0000  120.4190    0.4890   -0.0410   24.0018  89.07  -1.0  -1.0  0     0.0000
IA_SAP ?    Z    ? P      ? 20240726 0521   19.3144 GAU  1.00e-01 -1.00e+00 -1.00e+00 -1.00e+00 >  316.9193    2.5796    0.0000  120.4640   -1.0000   -0.0250   24.0693  92.72  -1.0  -1.0  0     0.0000
IA_BNS ?    Z    ? P      ? 20240726 0521   17.8944 GAU  1.00e-01 -1.00e+00 -1.00e+00 -1.00e+00 >  317.1261    0.9528    0.0000  120.1065   -4.4006   -0.2610   24.0920 101.11  -1.0  -1.0  0     0.0000
IA_BBC ?    Z    ? P      ? 20240726 0521   18.0544 GAU  1.00e-01 -1.00e+00 -1.00e+00 -1.00e+00 >  317.7979    0.4410    0.0000  120.0580   -5.0392   -0.5460   24.1655 102.67  -1.0  -1.0  0     0.0000
IA_BKS ?    Z    ? P      ? 20240726 0521   19.2044 GAU  1.00e-01 -1.00e+00 -1.00e+00 -1.00e+00 >  318.9042    0.4847    0.0000  120.1224   -5.3219   -0.6060   24.2867 103.31  -1.0  -1.0  0     0.0000
IA_PUP ?    Z    ? P      ? 20240726 0521   20.1544 GAU  1.00e-01 -1.00e+00 -1.00e+00 -1.00e+00 >  319.2408    1.0981    0.0000  120.6760   -1.7330   -0.6700   24.3236  94.48  -1.0  -1.0  0     0.0000
IA_TOL ?    Z    ? P      ? 20240726 0521   19.0828 GAU  1.00e-01 -1.00e+00 -1.00e+00 -1.00e+00 >  319.7598   -0.4925    0.0000  120.7817    1.1112   -0.0510   24.3805  87.57  -1.0  -1.0  0     0.0000
IA_TOT ?    Z    ? P      ? 20240726 0521   23.7544 GAU  1.00e-01 -1.00e+00 -1.00e+00 -1.00e+00 >  324.4546   -0.5157    0.0000  121.2842   -1.1529   -0.0240   24.8956  93.00  -1.0  -1.0  0     0.0000
IA_BUM ?    Z    ? P      ? 20240726 0521   26.9294 GAU  1.00e-01 -1.00e+00 -1.00e+00 -1.00e+00 >  325.3914    1.7225    0.0000  121.3346   -1.9778   -0.1210   24.9985  94.94  -1.0  -1.0  0     0.0000
IA_WKC ?    Z    ? P      ? 20240726 0521   28.0013 GAU  1.00e-01 -1.00e+00 -1.00e+00 -1.00e+00 >  326.9768    1.2089    0.0000  121.2993   -3.8259   -0.1160   25.1728  99.29  -1.0  -1.0  0     0.0000
IA_PSJ ?    Z    ? P      ? 20240726 0521   30.7263 GAU  1.00e-01 -1.00e+00 -1.00e+00 -1.00e+00 >  327.0871    3.8236    0.0000  120.6202   -7.0600   -0.0790   25.1849 107.06  -1.0  -1.0  0     0.0000
