NLLOC "/home/sysop/seiscomp/share/nll/data/output/NLL.20240822051807.689121.24683.20211110.025022.grid0" "LOCATED" "Location completed."
PUBLIC_ID None
SIGNATURE "Anthony Lomax   obs:-   NLLoc:v7.00.13(17Jan2022)   run:22Aug2024 12h18m08"
COMMENT "BMKG events"
GRID  361 181 601  -180 -90 0  1 1 1 PROB_DENSITY
SEARCH OCTREE nInitial 17628 nEvaluated 50012 smallestNodeSide 0.411495/0.407209/0.097656 oct_tree_integral 3.585311e+02 scatter_volume 3.585311e+02
HYPOCENTER  x 105.939 y -7.59888 z 20.0195  OT 9.66031  ix -1 iy -1 iz -1 MAXIMUM_LIKELIHOOD
GEOGRAPHIC  OT 2021 11 10  02 50 9.660311  Lat -7.598877 Long 105.938734 Depth 20.019531
QUALITY  Pmax 7.06487e+97 MFmin 30.2894 MFmax 30.3393 RMS 0.604946 Nphs 37 Gap 238.956 Dist 0.636788 Mamp -9.90 0 Mdur -9.90 0
VPVSRATIO  VpVsRatio 1.75003  Npair 15  Diff 18.319
STATISTICS  ExpectX 105.945553 Y -7.577773 Z 25.258138  CovXX 4.9395 XY 1.55129 XZ 0.823859 YY 9.89276 YZ 9.45957 ZZ 45.4605 EllAz1  292.142 Dip1  -3.90133 Len1  3.92711 Az2  203.086 Dip2  13.5708 Len2  5.33793 Len3  1.299684e+01
STAT_GEOG  ExpectLat -7.577773 Long 105.945553 Depth 25.258138
TRANSFORM  GLOBAL
QML_OriginQuality  assocPhCt 83  usedPhCt 37  assocStaCt -1  usedStaCt 24  depthPhCt -1  stdErr 0.604946  azGap 238.956  secAzGap 251.436  gtLevel -  minDist 70.8077 maxDist 236.751 medDist 165.668
QML_OriginUncertainty  horUnc -1  minHorUnc 3.21491  maxHorUnc 4.87632  azMaxHorUnc 16.0309
QML_ConfidenceEllipsoid  semiMajorAxisLength 12.9968  semiMinorAxisLength 3.92711  semiIntermediateAxisLength 5.33793  majorAxisPlunge 75.8589  majorAxisAzimuth 6.43772  majorAxisRotation 161.775
FOCALMECH  Hyp  -7.598877 105.938734 20.019531 Mech  0 0 0 mf  0 nObs -1
PHASE ID Ins Cmp On Pha  FM Date     HrMn   Sec     Err  ErrMag    Coda      Amp       Per  >   TTpred    Res       Weight    StaLoc(X  Y         Z)        SDist    SAzim  RAz  RDip RQual    Tcorr 
IA_CSJ ?    Z    ? P      ? 20211110 0250   22.4004 GAU  1.00e-01 -1.00e+00 -1.00e+00 -1.00e+00 >   12.4255    0.3145    1.2206  106.5210   -7.3302   -0.1530    0.6368  65.08  -1.0  -1.0  0     0.0000
IA_CSJ ?    R    ? S      ? 20211110 0250   31.2206 GAU  1.00e-01 -1.00e+00 -1.00e+00 -1.00e+00 >   21.4829    0.0773    1.3126  106.5210   -7.3302   -0.1530    0.6368  65.08  -1.0  -1.0  0     0.0000
IA_WLJ ?    Z    ? P      ? 20211110 0250   24.6990 GAU  1.00e-01 -1.00e+00 -1.00e+00 -1.00e+00 >   14.6842    0.3545    1.1978  105.8909   -6.8311   -0.0460    0.7692 356.46  -1.0  -1.0  0     0.0000
IA_WLJ ?    R    ? S      ? 20211110 0250   35.1262 GAU  1.00e-01 -1.00e+00 -1.00e+00 -1.00e+00 >   25.3980    0.0679    1.3145  105.8909   -6.8311   -0.0460    0.7692 356.46  -1.0  -1.0  0     0.0000
IA_SKJ ?    Z    ? P      ? 20211110 0250   25.5722 GAU  1.00e-01 -1.00e+00 -1.00e+00 -1.00e+00 >   16.1120   -0.2002    1.3132  106.5563   -7.0053   -0.1003    0.8530  45.94  -1.0  -1.0  0     0.0000
IA_SKJ ?    R    ? S      ? 20211110 0250   37.5230 GAU  1.00e-01 -1.00e+00 -1.00e+00 -1.00e+00 >   27.8729   -0.0102    1.3255  106.5563   -7.0053   -0.1003    0.8530  45.94  -1.0  -1.0  0     0.0000
IA_PSJ ?    Z    ? P      ? 20211110 0250   25.9956 GAU  1.00e-01 -1.00e+00 -1.00e+00 -1.00e+00 >   16.4698   -0.1345    1.3236  106.5491   -6.9686   -0.2050    0.8739  43.88  -1.0  -1.0  0     0.0000
IA_PSJ ?    R    ? S      ? 20211110 0250   38.4226 GAU  1.00e-01 -1.00e+00 -1.00e+00 -1.00e+00 >   28.4929    0.2694    1.2441  106.5491   -6.9686   -0.2050    0.8739  43.88  -1.0  -1.0  0     0.0000
IA_WSJ ?    Z    ? P      ? 20211110 0250   27.9406 GAU  1.00e-01 -1.00e+00 -1.00e+00 -1.00e+00 >   18.5969   -0.3166    1.2800  106.7247   -6.9747   -0.3100    0.9987  51.37  -1.0  -1.0  0     0.0000
IA_WSJ ?    R    ? S      ? 20211110 0250   40.9389 GAU  1.00e-01 -1.00e+00 -1.00e+00 -1.00e+00 >   32.1800   -0.9014    0.9213  106.7247   -6.9747   -0.3100    0.9987  51.37  -1.0  -1.0  0     0.0000
IA_JTJ ?    Z    ? P      ? 20211110 0250   28.1174 GAU  1.00e-01 -1.00e+00 -1.00e+00 -1.00e+00 >   18.8262   -0.3691    1.2593  106.8015   -7.0573   -0.5280    1.0127  57.73  -1.0  -1.0  0     0.0000
IA_JTJ ?    R    ? S      ? 20211110 0250   41.3062 GAU  1.00e-01 -1.00e+00 -1.00e+00 -1.00e+00 >   32.5941   -0.9482    0.8861  106.8015   -7.0573   -0.5280    1.0127  57.73  -1.0  -1.0  0     0.0000
IA_CGJ ?    Z    ? P      ? 20211110 0250   27.8817 GAU  1.00e-01 -1.00e+00 -1.00e+00 -1.00e+00 >   18.8786   -0.6572    1.0971  105.6900   -6.6134   -0.1820    1.0159 345.92  -1.0  -1.0  0     0.0000
IA_CGJ ?    R    ? S      ? 20211110 0250   39.2611 GAU  1.00e-01 -1.00e+00 -1.00e+00 -1.00e+00 >   32.6893   -3.0885    0.0293  105.6900   -6.6134   -0.1820    1.0159 345.92  -1.0  -1.0  0     0.0000
IA_CNJ ?    Z    ? P      ? 20211110 0250   30.8286 GAU  1.00e-01 -1.00e+00 -1.00e+00 -1.00e+00 >   21.8420   -0.6737    1.0859  107.1296   -7.3090   -0.5890    1.2159  76.28  -1.0  -1.0  0     0.0000
IA_CNJ ?    R    ? S      ? 20211110 0250   46.5885 GAU  1.00e-01 -1.00e+00 -1.00e+00 -1.00e+00 >   38.3883   -1.4601    0.5217  107.1296   -7.3090   -0.5890    1.2159  76.28  -1.0  -1.0  0     0.0000
IA_SSJ ?    Z    ? P      ? 20211110 0250   31.3591 GAU  1.00e-01 -1.00e+00 -1.00e+00 -1.00e+00 >   22.1768   -0.4780    1.2066  106.9626   -6.8872   -0.8410    1.2402  55.05  -1.0  -1.0  0     0.0000
IA_SSJ ?    R    ? S      ? 20211110 0250   49.1663 GAU  1.00e-01 -1.00e+00 -1.00e+00 -1.00e+00 >   38.9905    0.5155    1.0891  106.9626   -6.8872   -0.8410    1.2402  55.05  -1.0  -1.0  0     0.0000
IA_CCJ ?    Z    ? P      ? 20211110 0250   32.9472 GAU  1.00e-01 -1.00e+00 -1.00e+00 -1.00e+00 >   23.3596   -0.0727    1.3275  107.1402   -7.0169   -0.0480    1.3262  64.05  -1.0  -1.0  0     0.0000
IA_CCJ ?    R    ? S      ? 20211110 0250   49.4212 GAU  1.00e-01 -1.00e+00 -1.00e+00 -1.00e+00 >   41.1178   -1.3569    0.5893  107.1402   -7.0169   -0.0480    1.3262  64.05  -1.0  -1.0  0     0.0000
IA_CBJ ?    Z    ? P      ? 20211110 0250   33.3635 GAU  1.00e-01 -1.00e+00 -1.00e+00 -1.00e+00 >   23.5122    0.1910    1.2784  106.9349   -6.6981   -1.0064    1.3373  47.72  -1.0  -1.0  0     0.0000
IA_CBJ ?    T    ? S      ? 20211110 0250   49.0757 GAU  1.00e-01 -1.00e+00 -1.00e+00 -1.00e+00 >   41.3923   -1.9769    0.2522  106.9349   -6.6981   -1.0064    1.3373  47.72  -1.0  -1.0  0     0.0000
IA_SCJ ?    Z    ? P      ? 20211110 0250   35.2491 GAU  1.00e-01 -1.00e+00 -1.00e+00 -1.00e+00 >   25.4790    0.1098    1.3048  107.2221   -6.8437   -0.3270    1.4803  59.41  -1.0  -1.0  0     0.0000
IA_SCJ ?    T    ? S      ? 20211110 0250   55.5321 GAU  1.00e-01 -1.00e+00 -1.00e+00 -1.00e+00 >   44.9298    0.9420    0.7410  107.2221   -6.8437   -0.3270    1.4803  59.41  -1.0  -1.0  0     0.0000
IA_SBJ ?    Z    ? P      ? 20211110 0250   35.6831 GAU  1.00e-01 -1.00e+00 -1.00e+00 -1.00e+00 >   25.7428    0.2800    1.2388  106.1318   -6.1117   -0.0645    1.4995   7.36  -1.0  -1.0  0     0.0000
IA_CBJ ?    Z    ? P      ? 20211110 0250   36.2778 GAU  1.00e-01 -1.00e+00 -1.00e+00 -1.00e+00 >   26.5303    0.0872    1.3104  107.3562   -6.9309   -0.6790    1.5567  64.68  -1.0  -1.0  0     0.0000
IA_PTJ ?    Z    ? P      ? 20211110 0250   36.6347 GAU  1.00e-01 -1.00e+00 -1.00e+00 -1.00e+00 >   26.5351    0.4393    1.1436  106.7488   -6.2655   -0.0760    1.5571  31.14  -1.0  -1.0  0     0.0000
IA_PTJ ?    R    ? S      ? 20211110 0250   56.1559 GAU  1.00e-01 -1.00e+00 -1.00e+00 -1.00e+00 >   46.8293   -0.3338    1.2736  106.7488   -6.2655   -0.0760    1.5571  31.14  -1.0  -1.0  0     0.0000
IA_TNG ?    Z    ? P      ? 20211110 0250   37.5863 GAU  1.00e-01 -1.00e+00 -1.00e+00 -1.00e+00 >   26.9977    0.9283    0.7522  106.6470   -6.1720   -0.0400    1.5907  26.28  -1.0  -1.0  0     0.0000
IA_PBJ ?    Z    ? P      ? 20211110 0250   37.1105 GAU  1.00e-01 -1.00e+00 -1.00e+00 -1.00e+00 >   27.2343    0.2159    1.2684  107.4758   -7.0875   -1.0900    1.6079  71.55  -1.0  -1.0  0     0.0000
IA_BBJ ?    Z    ? P      ? 20211110 0250   38.0781 GAU  1.00e-01 -1.00e+00 -1.00e+00 -1.00e+00 >   28.5278   -0.1100    1.3259  107.6500   -7.4626   -0.6150    1.7020  85.52  -1.0  -1.0  0     0.0000
IA_PSL ?    Z    ? P      ? 20211110 0250   38.4416 GAU  1.00e-01 -1.00e+00 -1.00e+00 -1.00e+00 >   28.7101    0.0712    1.3139  105.5100   -5.9373   -0.0390    1.7152 345.60  -1.0  -1.0  0     0.0000
IA_CWJ ?    Z    ? P      ? 20211110 0250   40.3448 GAU  1.00e-01 -1.00e+00 -1.00e+00 -1.00e+00 >   28.8087    1.8758    0.2243  107.4449   -6.7424   -0.6490    1.7224  60.28  -1.0  -1.0  0     0.0000
IA_LEM ?    Z    ? P      ? 20211110 0250   41.8912 GAU  1.00e-01 -1.00e+00 -1.00e+00 -1.00e+00 >   30.3484    1.8824    0.2222  107.6143   -6.8232   -1.2000    1.8343  65.09  -1.0  -1.0  0     0.0000
IA_PPL ?    Z    ? P      ? 20211110 0250   41.4297 GAU  1.00e-01 -1.00e+00 -1.00e+00 -1.00e+00 >   32.8774   -1.1081    0.7663  105.1449   -5.7410   -0.0630    2.0182 336.96  -1.0  -1.0  0     0.0000
IA_TSJ ?    Z    ? P      ? 20211110 0250   44.6271 GAU  1.00e-01 -1.00e+00 -1.00e+00 -1.00e+00 >   33.3128    1.6540    0.3041  107.8109   -6.7319   -0.4200    2.0499  65.10  -1.0  -1.0  0     0.0000
IA_PSS ?    Z    ? P      ? 20211110 0250   42.9125 GAU  1.00e-01 -1.00e+00 -1.00e+00 -1.00e+00 >   34.4029   -1.1507    0.7349  104.6953   -5.8644   -0.0060    2.1292 324.48  -1.0  -1.0  0     0.0000
IA_CSJ ?    Z    ? P      ? 20211110 0250   47.4834 GAU  1.00e-01 -1.00e+00 -1.00e+00 -1.00e+00 >   35.7487    2.0744    0.0000  108.0099   -6.7405   -0.3610    2.2270  67.46  -1.0  -1.0  0     0.0000
IA_CIJ ?    Z    ? P      ? 20211110 0250   47.7214 GAU  1.00e-01 -1.00e+00 -1.00e+00 -1.00e+00 >   36.1430    1.9181    0.0000  108.1959   -7.3174   -0.4180    2.2557  82.98  -1.0  -1.0  0     0.0000
IA_CIJ ?    R    ? S      ? 20211110 0251   14.8606 GAU  1.00e-01 -1.00e+00 -1.00e+00 -1.00e+00 >   64.1097    1.0906    0.0000  108.1959   -7.3174   -0.4180    2.2557  82.98  -1.0  -1.0  0     0.0000
IA_LLS ?    Z    ? P      ? 20211110 0250   45.2218 GAU  1.00e-01 -1.00e+00 -1.00e+00 -1.00e+00 >   36.6395   -1.0780    0.0000  104.8094   -5.6004   -0.0370    2.2918 330.63  -1.0  -1.0  0     0.0000
IA_LLS ?    R    ? S      ? 20211110 0251   11.9802 GAU  1.00e-01 -1.00e+00 -1.00e+00 -1.00e+00 >   65.0026   -2.6827    0.0000  104.8094   -5.6004   -0.0370    2.2918 330.63  -1.0  -1.0  0     0.0000
IA_TOJ ?    Z    ? P      ? 20211110 0250   48.9109 GAU  1.00e-01 -1.00e+00 -1.00e+00 -1.00e+00 >   37.2146    2.0359    0.0000  108.1344   -6.7621   -0.0730    2.3336  69.13  -1.0  -1.0  0     0.0000
IA_CIJ ?    Z    ? P      ? 20211110 0250   50.6951 GAU  1.00e-01 -1.00e+00 -1.00e+00 -1.00e+00 >   39.3509    1.6839    0.0000  108.1852   -6.4925   -0.0430    2.4890  63.75  -1.0  -1.0  0     0.0000
IA_CMJ ?    Z    ? P      ? 20211110 0250   48.7904 GAU  1.00e-01 -1.00e+00 -1.00e+00 -1.00e+00 >   39.4280   -0.2979    0.0000  108.4490   -7.7840   -0.0780    2.4946  94.42  -1.0  -1.0  0     0.0000
IA_BKJ ?    Z    ? P      ? 20211110 0250   52.1226 GAU  1.00e-01 -1.00e+00 -1.00e+00 -1.00e+00 >   40.6326    1.8297    0.0000  108.5322   -7.3633   -0.0840    2.5822  84.94  -1.0  -1.0  0     0.0000
IA_PKJ ?    Z    ? P      ? 20211110 0250   53.1931 GAU  1.00e-01 -1.00e+00 -1.00e+00 -1.00e+00 >   40.9896    2.5432    0.0000  108.4399   -6.7958   -0.2900    2.6081  72.23  -1.0  -1.0  0     0.0000
IA_UTS ?    Z    ? P      ? 20211110 0250   51.3138 GAU  1.00e-01 -1.00e+00 -1.00e+00 -1.00e+00 >   41.8397   -0.1862    0.0000  104.5510   -5.3126   -0.8820    2.6699 328.82  -1.0  -1.0  0     0.0000
IA_KLI ?    Z    ? P      ? 20211110 0250   55.8101 GAU  1.00e-01 -1.00e+00 -1.00e+00 -1.00e+00 >   45.8231    0.3267    0.0000  104.8705   -4.8363   -0.0640    2.9596 338.91  -1.0  -1.0  0     0.0000
IA_PPS ?    Z    ? P      ? 20211110 0250   56.8806 GAU  1.00e-01 -1.00e+00 -1.00e+00 -1.00e+00 >   46.0394    1.1809    0.0000  104.0156   -5.3182   -0.0030    2.9753 319.93  -1.0  -1.0  0     0.0000
IA_KPJ ?    Z    ? P      ? 20211110 0250   58.0701 GAU  1.00e-01 -1.00e+00 -1.00e+00 -1.00e+00 >   46.0863    2.3235    0.0000  108.9310   -7.3333   -0.1110    2.9788  85.08  -1.0  -1.0  0     0.0000
IA_SUS ?    Z    ? P      ? 20211110 0250   56.9996 GAU  1.00e-01 -1.00e+00 -1.00e+00 -1.00e+00 >   47.0937    0.2456    0.0000  104.2945   -5.0212   -1.0550    3.0520 327.53  -1.0  -1.0  0     0.0000
IA_KLS ?    Z    ? P      ? 20211110 0250   58.1891 GAU  1.00e-01 -1.00e+00 -1.00e+00 -1.00e+00 >   48.4320    0.0968    0.0000  104.7317   -4.6871   -0.0807    3.1493 337.53  -1.0  -1.0  0     0.0000
IA_SCJ ?    Z    ? P      ? 20211110 0251    0.3302 GAU  1.00e-01 -1.00e+00 -1.00e+00 -1.00e+00 >   49.1637    1.5062    0.0000  109.1689   -7.6810   -0.0450    3.2026  91.68  -1.0  -1.0  0     0.0000
IA_BOS ?    Z    ? P      ? 20211110 0251    0.2113 GAU  1.00e-01 -1.00e+00 -1.00e+00 -1.00e+00 >   51.0226   -0.4716    0.0000  104.0207   -4.8592   -0.6400    3.3378 325.06  -1.0  -1.0  0     0.0000
IA_LES ?    Z    ? P      ? 20211110 0251    0.9250 GAU  1.00e-01 -1.00e+00 -1.00e+00 -1.00e+00 >   52.4643   -1.1996    0.0000  103.7126   -4.9615   -0.0390    3.4426 319.88  -1.0  -1.0  0     0.0000
IA_BUJ ?    Z    ? P      ? 20211110 0251    3.8988 GAU  1.00e-01 -1.00e+00 -1.00e+00 -1.00e+00 >   53.1783    1.0602    0.0000  109.4613   -7.7560   -0.0570    3.4945  92.81  -1.0  -1.0  0     0.0000
IA_MDS ?    Z    ? P      ? 20211110 0251    3.3040 GAU  1.00e-01 -1.00e+00 -1.00e+00 -1.00e+00 >   54.2321   -0.5884    0.0000  104.1783   -4.4861   -0.1110    3.5712 330.55  -1.0  -1.0  0     0.0000
IA_PKJ ?    Z    ? P      ? 20211110 0251    8.1810 GAU  1.00e-01 -1.00e+00 -1.00e+00 -1.00e+00 >   55.1300    3.3907    0.0000  109.5798   -7.1678   -0.8470    3.6365  83.43  -1.0  -1.0  0     0.0000
IA_MBJ ?    Z    ? P      ? 20211110 0251    6.6191 GAU  1.00e-01 -1.00e+00 -1.00e+00 -1.00e+00 >   55.5212    1.4376    0.0000  109.6324   -7.4489   -0.0490    3.6650  87.90  -1.0  -1.0  0     0.0000
IA_UGM ?    Z    ? P      ? 20211110 0251   18.6660 GAU  1.00e-01 -1.00e+00 -1.00e+00 -1.00e+00 >   67.7315    1.2742    0.0000  110.5231   -7.9125   -0.3500    4.5532  94.26  -1.0  -1.0  0     0.0000
IA_GKJ ?    Z    ? P      ? 20211110 0251   23.2723 GAU  1.00e-01 -1.00e+00 -1.00e+00 -1.00e+00 >   68.6167    4.9953    0.0000  110.5922   -7.8411   -0.2110    4.6176  93.32  -1.0  -1.0  0     0.0000
IA_BOJ ?    Z    ? P      ? 20211110 0251   22.1156 GAU  1.00e-01 -1.00e+00 -1.00e+00 -1.00e+00 >   69.8747    2.5806    0.0000  110.6894   -7.5682   -0.1960    4.7092  89.94  -1.0  -1.0  0     0.0000
IA_PRJ ?    Z    ? P      ? 20211110 0251   22.7104 GAU  1.00e-01 -1.00e+00 -1.00e+00 -1.00e+00 >   71.5484    1.5017    0.0000  110.7918   -8.0722   -0.3370    4.8309  95.95  -1.0  -1.0  0     0.0000
IA_WOJ ?    Z    ? P      ? 20211110 0251   24.0188 GAU  1.00e-01 -1.00e+00 -1.00e+00 -1.00e+00 >   73.1217    1.2368    0.0000  110.9236   -7.8372   -0.1836    4.9454  93.10  -1.0  -1.0  0     0.0000
IA_ULS ?    Z    ? P      ? 20211110 0251   21.9967 GAU  1.00e-01 -1.00e+00 -1.00e+00 -1.00e+00 >   73.2287   -0.8923    0.0000  102.7941   -3.7588   -0.2840    4.9532 320.66  -1.0  -1.0  0     0.0000
IA_TPI ?    Z    ? P      ? 20211110 0251   26.3650 GAU  1.00e-01 -1.00e+00 -1.00e+00 -1.00e+00 >   75.7222    0.9825    0.0000  107.6535   -2.7563   -0.0250    5.1347  19.51  -1.0  -1.0  0     0.0000
IA_PCJ ?    Z    ? P      ? 20211110 0251   27.7063 GAU  1.00e-01 -1.00e+00 -1.00e+00 -1.00e+00 >   76.9323    1.1137    0.0000  111.1771   -8.1947   -0.7023    5.2227  96.91  -1.0  -1.0  0     0.0000
IA_BLS ?    Z    ? P      ? 20211110 0251   28.3011 GAU  1.00e-01 -1.00e+00 -1.00e+00 -1.00e+00 >   79.9196   -1.2788    0.0000  102.8072   -3.1402   -0.0670    5.4401 324.88  -1.0  -1.0  0     0.0000
IA_ABS ?    Z    ? P      ? 20211110 0251   28.2665 GAU  1.00e-01 -1.00e+00 -1.00e+00 -1.00e+00 >   81.4239   -2.8177    0.0000  102.2630   -3.4254   -0.3800    5.5496 318.57  -1.0  -1.0  0     0.0000
IA_SNJ ?    Z    ? P      ? 20211110 0251   36.4742 GAU  1.00e-01 -1.00e+00 -1.00e+00 -1.00e+00 >   84.4628    2.3511    0.0000  111.7591   -7.7808   -1.3410    5.7708  92.19  -1.0  -1.0  0     0.0000
IA_MBS ?    Z    ? P      ? 20211110 0251   34.8434 GAU  1.00e-01 -1.00e+00 -1.00e+00 -1.00e+00 >   88.1820   -2.9989    0.0000  101.8374   -3.1451   -0.0370    6.0416 317.27  -1.0  -1.0  0     0.0000
IA_SLS ?    Z    ? P      ? 20211110 0251   38.2098 GAU  1.00e-01 -1.00e+00 -1.00e+00 -1.00e+00 >   90.1032   -1.5537    0.0000  102.5927   -2.3924   -0.0768    6.1815 327.21  -1.0  -1.0  0     0.0000
IA_JMS ?    Z    ? P      ? 20211110 0251   39.0861 GAU  1.00e-01 -1.00e+00 -1.00e+00 -1.00e+00 >   93.0298   -3.6040    0.0000  101.8875   -2.6372   -1.2750    6.3946 320.68  -1.0  -1.0  0     0.0000
IA_BLJ ?    Z    ? P      ? 20211110 0252    4.0221 GAU  1.00e-01 -1.00e+00 -1.00e+00 -1.00e+00 >  109.4277    4.9341    0.0000  113.5950   -7.7450   -0.0809    7.5890  91.61  -1.0  -1.0  0     0.0000
IA_JAS ?    Z    ? P      ? 20211110 0251   56.4676 GAU  1.00e-01 -1.00e+00 -1.00e+00 -1.00e+00 >  109.9531   -3.1458    0.0000  101.4584   -1.4145   -0.2530    7.6273 323.96  -1.0  -1.0  0     0.0000
IA_JAG ?    Z    ? P      ? 20211110 0252    9.6324 GAU  1.00e-01 -1.00e+00 -1.00e+00 -1.00e+00 >  117.5221    2.4500    0.0000  114.1520   -8.4703   -0.1710    8.1790  96.68  -1.0  -1.0  0     0.0000
IA_ABJ ?    Z    ? P      ? 20211110 0252   12.5508 GAU  1.00e-01 -1.00e+00 -1.00e+00 -1.00e+00 >  118.1252    4.7653    0.0000  114.2342   -7.7957   -0.1444    8.2229  91.93  -1.0  -1.0  0     0.0000
IA_BPS ?    Z    ? P      ? 20211110 0252    5.3506 GAU  1.00e-01 -1.00e+00 -1.00e+00 -1.00e+00 >  119.6471   -3.9568    0.0000  100.5900   -1.1924   -0.1100    8.3339 319.98  -1.0  -1.0  0     0.0000
IA_TRI ?    Z    ? P      ? 20211110 0252    6.7222 GAU  1.00e-01 -1.00e+00 -1.00e+00 -1.00e+00 >  120.7128   -3.6509    0.0000   99.5830   -2.0601   -0.0880    8.4116 310.86  -1.0  -1.0  0     0.0000
IA_NKB ?    Z    ? P      ? 20211110 0252   26.7757 GAU  1.00e-01 -1.00e+00 -1.00e+00 -1.00e+00 >  136.4083    0.7071    0.0000  115.5260   -8.7261   -0.4520    9.5564  97.44  -1.0  -1.0  0     0.0000
IA_KHK ?    Z    ? P      ? 20211110 0252   28.8216 GAU  1.00e-01 -1.00e+00 -1.00e+00 -1.00e+00 >  137.1074    2.0539    0.0000  115.6096   -8.3640   -0.2200    9.6074  95.23  -1.0  -1.0  0     0.0000
IA_MPS ?    Z    ? P      ? 20211110 0252   28.5848 GAU  1.00e-01 -1.00e+00 -1.00e+00 -1.00e+00 >  142.8307   -3.9062    0.0000  100.1383    0.5891   -0.1950   10.0252 324.51  -1.0  -1.0  0     0.0000
END_PHASE
END_NLLOC

