NLLOC "/home/sysop/seiscomp/share/nll/data/output/NLL.20240821061909.113809.25213.20240726.035009.grid0" "LOCATED" "Location completed."
PUBLIC_ID None
SIGNATURE "Anthony Lomax   obs:-   NLLoc:v7.00.13(17Jan2022)   run:21Aug2024 13h19m10"
COMMENT "BMKG events"
GRID  361 181 601  -180 -90 0  1 1 1 PROB_DENSITY
SEARCH OCTREE nInitial 17628 nEvaluated 50012 smallestNodeSide 0.822990/0.814417/0.195312 oct_tree_integral 9.113219e+02 scatter_volume 9.113219e+02
HYPOCENTER  x 128.994 y -7.77466 z 181.543  OT 40.1867  ix -1 iy -1 iz -1 MAXIMUM_LIKELIHOOD
GEOGRAPHIC  OT 2024 07 26  03 49 40.186651  Lat -7.774658 Long 128.993832 Depth 181.542969
QUALITY  Pmax 2.05221e+142 MFmin 41.1361 MFmax 41.1733 RMS 0.722441 Nphs 50 Gap 155.525 Dist 1.24743 Mamp -9.90 0 Mdur -9.90 0
VPVSRATIO  VpVsRatio -1  Npair 0  Diff -2e+30
STATISTICS  ExpectX 128.993417 Y -7.775313 Z 181.391516  CovXX 13.9607 XY -14.6361 XZ 7.29837 YY 22.8827 YZ -9.12865 ZZ 84.0913 EllAz1  233.599 Dip1  0.323416 Len1  3.31783 Az2  323.67 Dip2  12.4385 Len2  10.4855 Len3  1.749127e+01
STAT_GEOG  ExpectLat -7.775313 Long 128.993417 Depth 181.391516
TRANSFORM  GLOBAL
QML_OriginQuality  assocPhCt 216  usedPhCt 50  assocStaCt -1  usedStaCt 50  depthPhCt -1  stdErr 0.722441  azGap 155.525  secAzGap 175.326  gtLevel -  minDist 138.708 maxDist 1004.94 medDist 816.638
QML_OriginUncertainty  horUnc -1  minHorUnc 2.67917  maxHorUnc 8.80692  azMaxHorUnc 143.475
QML_ConfidenceEllipsoid  semiMajorAxisLength 17.4913  semiMinorAxisLength 3.31783  semiIntermediateAxisLength 10.4855  majorAxisPlunge 77.5571  majorAxisAzimuth 142.133  majorAxisRotation 358.345
FOCALMECH  Hyp  -7.774658 128.993832 181.542969 Mech  0 0 0 mf  0 nObs -1
PHASE ID Ins Cmp On Pha  FM Date     HrMn   Sec     Err  ErrMag    Coda      Amp       Per  >   TTpred    Res       Weight    StaLoc(X  Y         Z)        SDist    SAzim  RAz  RDip RQual    Tcorr 
IA_MLM ?    Z    ? P      ? 20240726 0350    9.9642 GAU  1.00e-01 -1.00e+00 -1.00e+00 -1.00e+00 >   29.7979   -0.0204    1.4148  127.7920   -8.1480   -0.0080    1.2474 252.50  -1.0  -1.0  0     0.0000
IA_KTM ?    Z    ? P      ? 20240726 0350   29.7542 GAU  1.00e-01 -1.00e+00 -1.00e+00 -1.00e+00 >   43.4898    6.0777    0.0577  131.5792   -7.6691   -0.0590    2.5641  87.81  -1.0  -1.0  0     0.0000
IA_AAI ?    Z    ? P      ? 20240726 0350   43.1042 GAU  1.00e-01 -1.00e+00 -1.00e+00 -1.00e+00 >   63.1967   -0.2792    1.3521  128.1943   -3.6871   -0.1572    4.1642 348.94  -1.0  -1.0  0     0.0000
IA_TLE ?    Z    ? P      ? 20240726 0350   50.8542 GAU  1.00e-01 -1.00e+00 -1.00e+00 -1.00e+00 >   64.4098    6.2577    0.0532  132.7395   -5.6994   -0.0340    4.2593  61.07  -1.0  -1.0  0     0.0000
IA_ALK ?    Z    ? P      ? 20240726 0350   44.9042 GAU  1.00e-01 -1.00e+00 -1.00e+00 -1.00e+00 >   65.9106   -1.1931    0.6522  124.5903   -8.1445   -0.7200    4.3767 264.85  -1.0  -1.0  0     0.0000
IA_MTM ?    Z    ? P      ? 20240726 0350   48.1842 GAU  1.00e-01 -1.00e+00 -1.00e+00 -1.00e+00 >   66.8402    1.1573    0.7308  124.8800   -9.5800   -0.0250    4.4493 245.76  -1.0  -1.0  0     0.0000
IA_TTS ?    Z    ? P      ? 20240726 0350   55.5042 GAU  1.00e-01 -1.00e+00 -1.00e+00 -1.00e+00 >   72.8754    2.4421    0.1153  128.7270   -2.8640   -0.0110    4.9178 356.89  -1.0  -1.0  0     0.0000
IA_ATK ?    Z    ? P      ? 20240726 0350   56.4242 GAU  1.00e-01 -1.00e+00 -1.00e+00 -1.00e+00 >   75.5152    0.7223    1.0970  124.0900   -9.4250   -0.1680    5.1217 250.85  -1.0  -1.0  0     0.0000
IA_AST ?    Z    ? P      ? 20240726 0350   57.5242 GAU  1.00e-01 -1.00e+00 -1.00e+00 -1.00e+00 >   76.1906    1.1469    0.7396  124.2990  -10.0680   -0.1800    5.1737 243.34  -1.0  -1.0  0     0.0000
IA_BAT ?    Z    ? P      ? 20240726 0351    6.0242 GAU  1.00e-01 -1.00e+00 -1.00e+00 -1.00e+00 >   84.3334    1.5041    0.4640  123.6633  -10.2065   -0.3561    5.7991 244.81  -1.0  -1.0  0     0.0000
IA_FAK ?    Z    ? P      ? 20240726 0351    4.6726 GAU  1.00e-01 -1.00e+00 -1.00e+00 -1.00e+00 >   84.9470   -0.4611    1.2553  132.2650   -2.9192    0.0000    5.8461  34.02  -1.0  -1.0  0     0.0000
IA_LRT ?    Z    ? P      ? 20240726 0351    5.9292 GAU  1.00e-01 -1.00e+00 -1.00e+00 -1.00e+00 >   86.3854   -0.6429    1.1252  123.0000   -8.2752   -0.0530    5.9561 264.76  -1.0  -1.0  0     0.0000
IA_WWC ?    Z    ? P      ? 20240726 0351    6.0542 GAU  1.00e-01 -1.00e+00 -1.00e+00 -1.00e+00 >   86.7157   -0.8482    0.9533  123.5251   -5.2724   -0.0260    5.9814 294.40  -1.0  -1.0  0     0.0000
IA_MBR ?    Z    ? P      ? 20240726 0351    9.9642 GAU  1.00e-01 -1.00e+00 -1.00e+00 -1.00e+00 >   89.1371    0.6405    1.1595  130.4070   -1.7710   -0.0020    6.1665  13.27  -1.0  -1.0  0     0.0000
IA_KUB ?    Z    ? P      ? 20240726 0351   13.0242 GAU  1.00e-01 -1.00e+00 -1.00e+00 -1.00e+00 >   93.5277   -0.6902    1.0873  123.1868   -4.7812   -0.0590    6.5016 297.07  -1.0  -1.0  0     0.0000
IA_KOR ?    Z    ? P      ? 20240726 0351   15.7242 GAU  1.00e-01 -1.00e+00 -1.00e+00 -1.00e+00 >   95.7472   -0.2096    1.3782  129.8450   -1.1580   -0.0110    6.6708   7.35  -1.0  -1.0  0     0.0000
IA_BBS ?    Z    ? P      ? 20240726 0351   17.9042 GAU  1.00e-01 -1.00e+00 -1.00e+00 -1.00e+00 >   97.1438    0.5737    1.2071  122.5706   -5.4879   -0.0950    6.7772 289.33  -1.0  -1.0  0     0.0000
IA_LOM ?    Z    ? P      ? 20240726 0351   18.7242 GAU  1.00e-01 -1.00e+00 -1.00e+00 -1.00e+00 >   97.9870    0.5505    1.2228  122.7416   -4.9109   -0.0580    6.8415 294.37  -1.0  -1.0  0     0.0000
IA_WTK ?    Z    ? P      ? 20240726 0351   18.0042 GAU  1.00e-01 -1.00e+00 -1.00e+00 -1.00e+00 >   98.1681   -0.3506    1.3188  123.2200   -4.0300   -0.0210    6.8553 302.78  -1.0  -1.0  0     0.0000
IA_BAT ?    Z    ? P      ? 20240726 0351   19.0242 GAU  1.00e-01 -1.00e+00 -1.00e+00 -1.00e+00 >   98.1890    0.6486    1.1535  133.4455   -2.5427   -0.0170    6.8569  40.50  -1.0  -1.0  0     0.0000
IA_MAS ?    Z    ? P      ? 20240726 0351   19.3242 GAU  1.00e-01 -1.00e+00 -1.00e+00 -1.00e+00 >   99.1928   -0.0553    1.4120  122.0320   -8.5370   -0.0130    6.9333 263.20  -1.0  -1.0  0     0.0000
IA_MUM ?    Z    ? P      ? 20240726 0351   19.3642 GAU  1.00e-01 -1.00e+00 -1.00e+00 -1.00e+00 >   99.2383   -0.0607    1.4114  125.4810   -1.7850   -0.0110    6.9368 329.53  -1.0  -1.0  0     0.0000
IA_TSP ?    Z    ? P      ? 20240726 0351   19.5542 GAU  1.00e-01 -1.00e+00 -1.00e+00 -1.00e+00 >  100.2745   -0.9070    0.9015  132.0898   -1.4733   -0.0620    7.0157  26.23  -1.0  -1.0  0     0.0000
IA_SWI ?    Z    ? P      ? 20240726 0351   22.9242 GAU  1.00e-01 -1.00e+00 -1.00e+00 -1.00e+00 >  103.6304   -0.8929    0.9140  131.2592   -0.8628   -0.1289    7.2712  18.20  -1.0  -1.0  0     0.0000
IA_EDF ?    Z    ? P      ? 20240726 0351   23.7792 GAU  1.00e-01 -1.00e+00 -1.00e+00 -1.00e+00 >  103.9170   -0.3244    1.3317  121.6903   -8.7497   -0.9143    7.2930 261.80  -1.0  -1.0  0     0.0000
IA_GAR ?    Z    ? P      ? 20240726 0351   25.5042 GAU  1.00e-01 -1.00e+00 -1.00e+00 -1.00e+00 >  105.2619    0.0557    1.4148  129.9000   -0.4346   -0.0490    7.3954   7.06  -1.0  -1.0  0     0.0000
IA_KDI ?    Z    ? P      ? 20240726 0351   26.3342 GAU  1.00e-01 -1.00e+00 -1.00e+00 -1.00e+00 >  105.3282    0.8194    1.0183  122.6193   -3.9574   -0.0550    7.4004 300.69  -1.0  -1.0  0     0.0000
IA_PKC ?    Z    ? P      ? 20240726 0351   25.6792 GAU  1.00e-01 -1.00e+00 -1.00e+00 -1.00e+00 >  105.9261   -0.4335    1.2724  122.3436   -4.3507   -0.2010    7.4459 296.99  -1.0  -1.0  0     0.0000
IA_TBM ?    Z    ? P      ? 20240726 0351   27.4242 GAU  1.00e-01 -1.00e+00 -1.00e+00 -1.00e+00 >  106.3818    0.8557    0.9880  124.3440   -1.9000   -0.0080    7.4806 321.51  -1.0  -1.0  0     0.0000
IA_GHM ?    Z    ? P      ? 20240726 0351   26.7542 GAU  1.00e-01 -1.00e+00 -1.00e+00 -1.00e+00 >  106.6502   -0.0827    1.4085  127.8797   -0.3563   -0.0370    7.5010 351.43  -1.0  -1.0  0     0.0000
IA_POB ?    Z    ? P      ? 20240726 0351   27.9642 GAU  1.00e-01 -1.00e+00 -1.00e+00 -1.00e+00 >  107.7262    0.0513    1.4150  122.0021   -4.7398   -0.1260    7.5829 293.18  -1.0  -1.0  0     0.0000
IA_NAN ?    Z    ? P      ? 20240726 0351   29.1642 GAU  1.00e-01 -1.00e+00 -1.00e+00 -1.00e+00 >  108.9403    0.0373    1.4156  121.3020   -8.7610   -0.6440    7.6753 262.07  -1.0  -1.0  0     0.0000
IA_WAN ?    Z    ? P      ? 20240726 0351   33.1842 GAU  1.00e-01 -1.00e+00 -1.00e+00 -1.00e+00 >  109.2549    3.7427    0.1029  135.3760   -3.4210   -0.0120    7.6993  55.92  -1.0  -1.0  0     0.0000
IA_NBP ?    Z    ? P      ? 20240726 0351   35.1442 GAU  1.00e-01 -1.00e+00 -1.00e+00 -1.00e+00 >  110.9767    3.9809    0.0977  135.4972   -3.3656   -0.0988    7.8303  56.09  -1.0  -1.0  0     0.0000
IA_UWN ?    Z    ? P      ? 20240726 0351   34.4242 GAU  1.00e-01 -1.00e+00 -1.00e+00 -1.00e+00 >  111.1192    3.1183    0.0975  135.5870   -3.4790   -0.1170    7.8411  57.15  -1.0  -1.0  0     0.0000
IA_KAR ?    Z    ? P      ? 20240726 0351   33.2242 GAU  1.00e-01 -1.00e+00 -1.00e+00 -1.00e+00 >  112.7659    0.2717    1.3691  130.9910   -0.0610   -0.0210    7.9665  14.56  -1.0  -1.0  0     0.0000
IA_LKU ?    Z    ? P      ? 20240726 0351   35.2760 GAU  1.00e-01 -1.00e+00 -1.00e+00 -1.00e+00 >  114.3072    0.7822    1.0490  122.2332   -3.2924   -0.1070    8.0838 303.30  -1.0  -1.0  0     0.0000
IA_ANA ?    Z    ? P      ? 20240726 0351   34.7042 GAU  1.00e-01 -1.00e+00 -1.00e+00 -1.00e+00 >  114.5398   -0.0223    1.4147  133.9120   -1.3230   -2.0130    8.1015  37.46  -1.0  -1.0  0     0.0000
IA_BBL ?    Z    ? P      ? 20240726 0351   37.0792 GAU  1.00e-01 -1.00e+00 -1.00e+00 -1.00e+00 >  115.9442    0.9483    0.9093  123.5217   -1.6375   -0.1420    8.2084 318.11  -1.0  -1.0  0     0.0000
IA_PSJ ?    Z    ? P      ? 20240726 0351   38.0760 GAU  1.00e-01 -1.00e+00 -1.00e+00 -1.00e+00 >  117.5941    0.2953    1.3602  120.6202   -7.0600   -0.0790    8.3340 274.37  -1.0  -1.0  0     0.0000
IA_MSH ?    Z    ? P      ? 20240726 0351   39.1242 GAU  1.00e-01 -1.00e+00 -1.00e+00 -1.00e+00 >  118.7593    0.1782    1.3969  128.4250    0.6290   -0.0290    8.4228 356.11  -1.0  -1.0  0     0.0000
IA_LMT ?    Z    ? P      ? 20240726 0351   39.7292 GAU  1.00e-01 -1.00e+00 -1.00e+00 -1.00e+00 >  119.3805    0.1620    1.4005  120.4771   -8.6011   -1.1450    8.4701 263.80  -1.0  -1.0  0     0.0000
IA_MIP ?    Z    ? P      ? 20240726 0351   44.7542 GAU  1.00e-01 -1.00e+00 -1.00e+00 -1.00e+00 >  119.7322    4.8354    0.0591  136.8935   -4.5301   -0.0300    8.4969  68.01  -1.0  -1.0  0     0.0000
IA_UMS ?    Z    ? P      ? 20240726 0351   38.7842 GAU  1.00e-01 -1.00e+00 -1.00e+00 -1.00e+00 >  119.8048   -1.2073    0.6404  120.6610   -9.8970   -0.0500    8.5024 254.93  -1.0  -1.0  0     0.0000
IA_WKC ?    Z    ? P      ? 20240726 0351   41.4010 GAU  1.00e-01 -1.00e+00 -1.00e+00 -1.00e+00 >  121.2451   -0.0307    1.4142  121.2993   -3.8259   -0.1160    8.6121 296.86  -1.0  -1.0  0     0.0000
IA_TNT ?    Z    ? P      ? 20240726 0351   42.6526 GAU  1.00e-01 -1.00e+00 -1.00e+00 -1.00e+00 >  122.3864    0.0795    1.4130  127.3667    0.7718   -0.0430    8.6991 349.18  -1.0  -1.0  0     0.0000
IA_LEM ?    Z    ? P      ? 20240726 0351   43.3042 GAU  1.00e-01 -1.00e+00 -1.00e+00 -1.00e+00 >  123.4489   -0.3313    1.3284  120.1720   -8.7070   -0.1870    8.7801 263.28  -1.0  -1.0  0     0.0000
IA_JHM ?    Z    ? P      ? 20240726 0351   46.4292 GAU  1.00e-01 -1.00e+00 -1.00e+00 -1.00e+00 >  126.1329    0.1096    1.4096  127.4783    1.0821   -0.0360    8.9848 350.25  -1.0  -1.0  0     0.0000
IA_LBF ?    Z    ? P      ? 20240726 0351   46.1842 GAU  1.00e-01 -1.00e+00 -1.00e+00 -1.00e+00 >  126.8259   -0.8284    0.9705  119.8921   -8.4800   -0.0750    9.0376 264.89  -1.0  -1.0  0     0.0000
IA_BKS ?    Z    ? P      ? 20240726 0351   48.4792 GAU  1.00e-01 -1.00e+00 -1.00e+00 -1.00e+00 >  128.2684    0.0241    0.0000  120.1224   -5.3219   -0.6060    9.1477 285.01  -1.0  -1.0  0     0.0000
IA_WWP ?    Z    ? P      ? 20240726 0351   53.0042 GAU  1.00e-01 -1.00e+00 -1.00e+00 -1.00e+00 >  128.4123    4.4053    0.0000  136.3773   -2.3130   -0.0160    9.1587  53.78  -1.0  -1.0  0     0.0000
IA_KHS ?    Z    ? P      ? 20240726 0351   46.6242 GAU  1.00e-01 -1.00e+00 -1.00e+00 -1.00e+00 >  128.5424   -2.1049    0.1259  119.9450   -9.8010   -0.6080    9.1686 256.57  -1.0  -1.0  0     0.0000
IA_WMC ?    Z    ? P      ? 20240726 0351   51.1542 GAU  1.00e-01 -1.00e+00 -1.00e+00 -1.00e+00 >  129.0565    1.9110    0.0000  121.6220   -2.2162   -0.0070    9.2078 306.75  -1.0  -1.0  0     0.0000
IA_YBY ?    Z    ? P      ? 20240726 0351   51.7442 GAU  1.00e-01 -1.00e+00 -1.00e+00 -1.00e+00 >  129.1415    2.4161    0.0000  136.0630   -1.8310   -0.0320    9.2143  50.19  -1.0  -1.0  0     0.0000
IA_TOB ?    Z    ? P      ? 20240726 0351   50.8242 GAU  1.00e-01 -1.00e+00 -1.00e+00 -1.00e+00 >  129.3447    1.2928    0.0000  122.2500   -1.4460   -0.0430    9.2299 312.95  -1.0  -1.0  0     0.0000
IA_BBC ?    Z    ? P      ? 20240726 0351   50.7542 GAU  1.00e-01 -1.00e+00 -1.00e+00 -1.00e+00 >  130.1438    0.4238    0.0000  120.0580   -5.0392   -0.5460    9.2909 286.59  -1.0  -1.0  0     0.0000
IA_KJC ?    Z    ? P      ? 20240726 0351   52.0260 GAU  1.00e-01 -1.00e+00 -1.00e+00 -1.00e+00 >  131.4686    0.3707    0.0000  119.8026   -5.5646   -0.1990    9.3920 283.05  -1.0  -1.0  0     0.0000
IA_IHM ?    Z    ? P      ? 20240726 0351   51.9792 GAU  1.00e-01 -1.00e+00 -1.00e+00 -1.00e+00 >  131.4819    0.3107    0.0000  127.5556    1.5082   -0.1300    9.3931 351.16  -1.0  -1.0  0     0.0000
IA_BNS ?    Z    ? P      ? 20240726 0351   52.7642 GAU  1.00e-01 -1.00e+00 -1.00e+00 -1.00e+00 >  132.3332    0.2443    0.0000  120.1065   -4.4006   -0.2610    9.4581 290.38  -1.0  -1.0  0     0.0000
IA_PBC ?    Z    ? P      ? 20240726 0351   54.0792 GAU  1.00e-01 -1.00e+00 -1.00e+00 -1.00e+00 >  133.3615    0.5310    0.0000  124.0396    0.3830   -0.0330    9.5367 328.58  -1.0  -1.0  0     0.0000
IA_BUM ?    Z    ? P      ? 20240726 0351   55.0292 GAU  1.00e-01 -1.00e+00 -1.00e+00 -1.00e+00 >  133.9387    0.9038    0.0000  121.3346   -1.9778   -0.1210    9.5808 306.84  -1.0  -1.0  0     0.0000
IA_TTP ?    Z    ? P      ? 20240726 0351   55.1292 GAU  1.00e-01 -1.00e+00 -1.00e+00 -1.00e+00 >  134.7097    0.2328    0.0000  119.7617   -4.8184   -0.3650    9.6397 287.31  -1.0  -1.0  0     0.0000
IA_LSC ?    Z    ? P      ? 20240726 0351   56.1792 GAU  1.00e-01 -1.00e+00 -1.00e+00 -1.00e+00 >  135.0286    0.9640    0.0000  119.8987   -4.3650   -0.1090    9.6641 290.13  -1.0  -1.0  0     0.0000
IA_BAK ?    Z    ? P      ? 20240726 0351   59.4042 GAU  1.00e-01 -1.00e+00 -1.00e+00 -1.00e+00 >  135.1468    4.0708    0.0000  136.1070   -1.1914   -0.0890    9.6732  47.46  -1.0  -1.0  0     0.0000
IA_BUB ?    Z    ? P      ? 20240726 0351   56.3642 GAU  1.00e-01 -1.00e+00 -1.00e+00 -1.00e+00 >  135.1839    0.9937    0.0000  122.2070   -0.8550   -0.0390    9.6760 315.33  -1.0  -1.0  0     0.0000
IA_SUS ?    Z    ? P      ? 20240726 0351   57.8842 GAU  1.00e-01 -1.00e+00 -1.00e+00 -1.00e+00 >  135.9220    1.7755    0.0000  135.7340   -0.7320   -0.0110    9.7325  43.97  -1.0  -1.0  0     0.0000
IA_PBM ?    Z    ? P      ? 20240726 0351   59.9042 GAU  1.00e-01 -1.00e+00 -1.00e+00 -1.00e+00 >  138.7558    0.9618    0.0000  124.2823    0.9953   -0.0880    9.9494 331.62  -1.0  -1.0  0     0.0000
IA_MTA ?    Z    ? P      ? 20240726 0352    0.7292 GAU  1.00e-01 -1.00e+00 -1.00e+00 -1.00e+00 >  139.3959    1.1467    0.0000  128.2758    2.1980   -0.0240    9.9984 355.86  -1.0  -1.0  0     0.0000
IA_WBN ?    Z    ? P      ? 20240726 0351   58.3042 GAU  1.00e-01 -1.00e+00 -1.00e+00 -1.00e+00 >  139.6907   -1.5731    0.0000  118.8872   -8.3026    0.0000   10.0209 266.28  -1.0  -1.0  0     0.0000
IA_APS ?    Z    ? P      ? 20240726 0352    1.3642 GAU  1.00e-01 -1.00e+00 -1.00e+00 -1.00e+00 >  139.8657    1.3118    0.0000  121.6487   -0.9108   -0.1435   10.0344 312.81  -1.0  -1.0  0     0.0000
IA_KBS ?    Z    ? P      ? 20240726 0351   58.0642 GAU  1.00e-01 -1.00e+00 -1.00e+00 -1.00e+00 >  140.0868   -2.2092    0.0000  118.9930   -9.5930   -0.0220   10.0513 258.85  -1.0  -1.0  0     0.0000
IA_PPC ?    Z    ? P      ? 20240726 0352    1.0542 GAU  1.00e-01 -1.00e+00 -1.00e+00 -1.00e+00 >  140.3011    0.5664    0.0000  119.7269   -3.7270   -0.0480   10.0677 293.19  -1.0  -1.0  0     0.0000
IA_TOT ?    Z    ? P      ? 20240726 0352    2.0642 GAU  1.00e-01 -1.00e+00 -1.00e+00 -1.00e+00 >  141.2695    0.6080    0.0000  121.2842   -1.1529   -0.0240   10.1419 310.39  -1.0  -1.0  0     0.0000
IA_UTU ?    Z    ? P      ? 20240726 0352    4.1042 GAU  1.00e-01 -1.00e+00 -1.00e+00 -1.00e+00 >  142.3432    1.5744    0.0000  121.8606   -0.4274   -0.0760   10.2242 315.61  -1.0  -1.0  0     0.0000
IA_PUP ?    Z    ? P      ? 20240726 0352    3.6042 GAU  1.00e-01 -1.00e+00 -1.00e+00 -1.00e+00 >  142.7327    0.6849    0.0000  120.6760   -1.7330   -0.6700   10.2541 305.68  -1.0  -1.0  0     0.0000
IA_OBM ?    Z    ? P      ? 20240726 0352    9.0042 GAU  1.00e-01 -1.00e+00 -1.00e+00 -1.00e+00 >  143.3017    5.5159    0.0000  139.3000   -6.5550   -0.0210   10.2978  83.86  -1.0  -1.0  0     0.0000
IA_PBN ?    Z    ? P      ? 20240726 0352    3.7842 GAU  1.00e-01 -1.00e+00 -1.00e+00 -1.00e+00 >  144.1718   -0.5743    0.0000  118.5700   -8.7900    0.0000   10.3645 263.64  -1.0  -1.0  0     0.0000
IA_GTO ?    Z    ? P      ? 20240726 0352    7.3642 GAU  1.00e-01 -1.00e+00 -1.00e+00 -1.00e+00 >  145.8926    1.2849    0.0000  122.8700    0.7628   -0.3133   10.4966 324.16  -1.0  -1.0  0     0.0000
IA_EDM ?    Z    ? P      ? 20240726 0352   12.2642 GAU  1.00e-01 -1.00e+00 -1.00e+00 -1.00e+00 >  146.1704    5.9071    0.0000  139.5850   -7.1750   -0.0150   10.5180  87.43  -1.0  -1.0  0     0.0000
IA_MTM ?    Z    ? P      ? 20240726 0352   12.2442 GAU  1.00e-01 -1.00e+00 -1.00e+00 -1.00e+00 >  146.4010    5.6566    0.0000  138.0370   -2.3050   -0.0670   10.5357  59.20  -1.0  -1.0  0     0.0000
IA_WAM ?    Z    ? P      ? 20240726 0352   12.8042 GAU  1.00e-01 -1.00e+00 -1.00e+00 -1.00e+00 >  146.7472    5.8703    0.0000  138.9500   -4.0959   -1.6730   10.5623  70.19  -1.0  -1.0  0     0.0000
IA_TSN ?    Z    ? P      ? 20240726 0352    6.7792 GAU  1.00e-01 -1.00e+00 -1.00e+00 -1.00e+00 >  147.8093   -1.2168    0.0000  118.2800   -8.7100    0.0000   10.6439 264.20  -1.0  -1.0  0     0.0000
IA_TAP ?    Z    ? P      ? 20240726 0352    8.5242 GAU  1.00e-01 -1.00e+00 -1.00e+00 -1.00e+00 >  148.0941    0.2434    0.0000  119.2490   -3.3320   -0.0560   10.6658 294.08  -1.0  -1.0  0     0.0000
IA_MMC ?    Z    ? P      ? 20240726 0352   10.5042 GAU  1.00e-01 -1.00e+00 -1.00e+00 -1.00e+00 >  148.9107    1.4069    0.0000  119.3631   -2.9560   -1.1670   10.7286 296.17  -1.0  -1.0  0     0.0000
IA_MRS ?    Z    ? P      ? 20240726 0352   11.8042 GAU  1.00e-01 -1.00e+00 -1.00e+00 -1.00e+00 >  150.3864    1.2312    0.0000  121.9406    0.4771   -0.0990   10.8421 319.25  -1.0  -1.0  0     0.0000
IA_SAP ?    Z    ? P      ? 20240726 0352   12.6842 GAU  1.00e-01 -1.00e+00 -1.00e+00 -1.00e+00 >  150.7398    1.7577    0.0000  120.4640   -1.0000   -0.0250   10.8693 308.14  -1.0  -1.0  0     0.0000
IA_PMS ?    Z    ? P      ? 20240726 0352   12.9792 GAU  1.00e-01 -1.00e+00 -1.00e+00 -1.00e+00 >  151.1446    1.6480    0.0000  118.9149   -3.5008   -0.3068   10.9005 292.52  -1.0  -1.0  0     0.0000
IA_ESN ?    Z    ? P      ? 20240726 0352   10.3042 GAU  1.00e-01 -1.00e+00 -1.00e+00 -1.00e+00 >  152.0507   -1.9331    0.0000  117.9600   -8.8500    0.0000   10.9702 263.59  -1.0  -1.0  0     0.0000
IA_SMS ?    Z    ? P      ? 20240726 0352   13.7792 GAU  1.00e-01 -1.00e+00 -1.00e+00 -1.00e+00 >  152.1352    1.4574    0.0000  122.3654    0.9885   -0.0854   10.9767 322.69  -1.0  -1.0  0     0.0000
IA_PLA ?    Z    ? P      ? 20240726 0352   12.4760 GAU  1.00e-01 -1.00e+00 -1.00e+00 -1.00e+00 >  154.3716   -2.0822    0.0000  117.7764   -8.8275   -0.0620   11.1491 263.79  -1.0  -1.0  0     0.0000
